Name,Address,Source,SourceFile,image-wrapper href,photo src,place-name,address,city,material-icons,material-icons 2,info,material-icons 3,description,program-link href,program,badge 3,btn href,city 2,details,neighborhood,badge
,2825 US-31,Winnie,winnie (1).csv,https://winnie.com/place/la-petite-academy-of-pelham-2,https://winnie.imgix.net/8dd9439c-2754-4c67-ba1f-be57624e922b?w=140&h=140&dpr=3&fit=crop&auto=compress%2Cformat,La Petite Academy of Pelham,2825 US-31,Pelham,location_on,check_circle,Verified,stars,"Discover the joy of early learning at La Petite Academy. Whether caring for your baby, preparing your preschooler for kindergarten, or supporting your elementary student (up to age 12) in the morning...",https://winnie.com/place/la-petite-academy-of-pelham-2#infants,Infants,6 w - 12 mo,https://winnie.com/place/la-petite-academy-of-pelham-2#contact_form,"Pelham, AL",,,
,5198 Valleydale Rd,Winnie,winnie (1).csv,https://winnie.com/place/la-petite-academy-of-birmingham,https://winnie.imgix.net/41a3e849-c1b8-4d45-9f69-0a8f1714717d?w=140&h=140&dpr=3&fit=crop&auto=compress%2Cformat,La Petite Academy of Birmingham,5198 Valleydale Rd,Birmingham,location_on,check_circle,Verified,stars,"Discover the joy of early learning at La Petite Academy. Whether caring for your baby, preparing your preschooler for kindergarten, or supporting your elementary student (up to age 12) in the morning...",https://winnie.com/place/la-petite-academy-of-birmingham#infants,Infants,6 w - 12 mo,https://winnie.com/place/la-petite-academy-of-birmingham#contact_form,"Birmingham, AL",,,
,3160 Old Columbiana Rd,Winnie,winnie (1).csv,https://winnie.com/place/hoover-kindercare-hoover,https://winnie-partners.imgix.net/ec593780-07cb-4627-b471-20eb54578419/venue_photo/dbea44a0-0ea3-402b-ab7d-c9770bbb9031?w=140&h=140&dpr=3&fit=crop&auto=compress%2Cformat,Hoover KinderCare,3160 Old Columbiana Rd,Hoover,location_on,check_circle,Verified,stars,Childcare center and preschool program for infants through Pre-Kindergarten. Utilizes a play-based curriculum focused on inspiring a love of learning through a combination of early academics and...,https://winnie.com/place/hoover-kindercare-hoover#infant-daycare,Infant Daycare,0 mo - 12 mo,https://winnie.com/place/hoover-kindercare-hoover#contact_form,"Hoover, AL",,,
,1800 Urban Center Pkwy,Winnie,winnie (1).csv,https://winnie.com/place/primrose-school-at-liberty-park-vestavia-hills,https://winnie-partners.imgix.net/primrose/photos/53FelCkjfqMyRPhwkXWLSiYrlyHfUYG9106f2Mq2pH0.jpg?w=140&h=140&dpr=3&fit=crop&auto=compress%2Cformat,Primrose School at Liberty Park,1800 Urban Center Pkwy,Vestavia Hills,location_on,check_circle,Claimed,stars,"Primrose School at Liberty Park is an accredited, premium early education and care provider offering proven Infant, Toddler, Preschool, and Pre-Kindergarten programs. Our research based, time-tested...",https://winnie.com/place/primrose-school-at-liberty-park-vestavia-hills#infant-program,Infant Program,6 w - 12 mo,https://winnie.com/place/primrose-school-at-liberty-park-vestavia-hills#contact_form,"Vestavia Hills, AL",Contact this provider for pricing and availability,,
,970 Forestdale Blvd,Winnie,winnie (1).csv,https://winnie.com/place/robbies-miracle-christian-academy-birmingham,https://winnie-static.imgix.net/default/daycare_5.png?w=140&h=140&dpr=3&fit=crop&auto=compress%2Cformat,Robbie's Miracle Christian Academy,970 Forestdale Blvd,Birmingham,location_on,check_circle,Claimed,phone,Early child development center specializing in care for infants and toddlers. Abeka curriculum is used to introduce age-appropriate activities and lessons as the focus is placed on education and the...,https://winnie.com/place/robbies-miracle-christian-academy-birmingham#daycare-program,Daycare Program,0 mo - 4 yr 11 mo,https://winnie.com/place/robbies-miracle-christian-academy-birmingham#contact_form,"Birmingham, AL",,,
,414 42nd Alley,Winnie,winnie (1).csv,https://winnie.com/place/gods-little-sheep-church-fairfield,https://winnie-static.imgix.net/default/daycare_31.png?w=140&h=140&dpr=3&fit=crop&auto=compress%2Cformat,Gods Little Sheep Church,414 42nd Alley,Fairfield,location_on,check_circle,Claimed,,"Gods Little Sheep Church in Fairfield, AL, provides a nurturing environment for children, offering a safe space for learning and development. The facility caters to children from 2 weeks to 12 years...",https://winnie.com/place/gods-little-sheep-church-fairfield#daycare-program,Daycare Program,2 mo - 12 yr,https://winnie.com/place/gods-little-sheep-church-fairfield#contact_form,"Fairfield, AL",Contact this provider for pricing and availability,,
,,Winnie,winnie (1).csv,https://winnie.com/place/the-house-of-learning-home-day-care-forestdale,https://winnie-static.imgix.net/default/daycare_26.png?w=140&h=140&dpr=3&fit=crop&auto=compress%2Cformat,The House Of Learning Home Day Care,,Forestdale,location_on,check_circle,Claimed,,House of Learning was established in 2005. The directors/ teachers are a mother-and-daughter team with over 30 years of teaching experience. We offer a creative curriculum that identifies goals in all...,https://winnie.com/place/the-house-of-learning-home-day-care-forestdale#daycare-program,Daycare Program,12 mo - 4 yr 11 mo,https://winnie.com/place/the-house-of-learning-home-day-care-forestdale#contact_form,"Forestdale, AL",Contact this provider for pricing and availability,,
,2262 Chapel Rd,Winnie,winnie (1).csv,https://winnie.com/place/pioneer-playschool-hoover,https://winnie.imgix.net/9a701f7f-d137-47fa-912a-825a6707011f?w=140&h=140&dpr=3&fit=crop&auto=compress%2Cformat,Pioneer Playschool,2262 Chapel Rd,Hoover,location_on,check_circle,Claimed,,"Site provides early learning programs and childcare services for toddlers, preschool and school-age children. Imagination and creativity are encouraged through hands-on experiences. Curriculum...",https://winnie.com/place/pioneer-playschool-hoover#daycare-program,Daycare Program,2 yr 6 mo - 12 yr,https://winnie.com/place/pioneer-playschool-hoover#contact_form,"Hoover, AL",Contact this provider for pricing and availability,,
,2330 John Hawkins Pkwy,Winnie,winnie (1).csv,https://winnie.com/place/la-petite-academy-of-hoover-birmingham,https://winnie.imgix.net/e7353316-801e-4882-af69-bb1e4f5e1342?w=140&h=140&dpr=3&fit=crop&auto=compress%2Cformat,La Petite Academy of Hoover,2330 John Hawkins Pkwy,Birmingham,location_on,check_circle,Claimed,stars,"Discover the joy of early learning at La Petite Academy. Whether caring for your baby, preparing your preschooler for kindergarten, or supporting your elementary student (up to age 12) in the morning...",https://winnie.com/place/la-petite-academy-of-hoover-birmingham#infants,Infants,6 w - 12 mo,https://winnie.com/place/la-petite-academy-of-hoover-birmingham#contact_form,"Birmingham, AL",Contact this provider for pricing and availability,,
,4731 Chace Cir,Winnie,winnie (1).csv,https://winnie.com/place/childrens-lighthouse-of-hoover,https://winnie.imgix.net/0ac698c6-0dc0-496d-aed9-2d6c33ce3c46?w=140&h=140&dpr=3&fit=crop&auto=compress%2Cformat,Children's Lighthouse of Hoover,4731 Chace Cir,Hoover,location_on,check_circle,Claimed,,Program offers childcare and early educational services for young learners. School-readiness curriculum strengthens social and emotional development through age-appropriate activities. Learning...,https://winnie.com/place/childrens-lighthouse-of-hoover#daycare-program,Daycare Program,6 w - 12 yr,https://winnie.com/place/childrens-lighthouse-of-hoover#contact_form,"Hoover, AL",Contact this provider for pricing and availability,,
,2705 9th Ave N,Winnie,winnie (1).csv,https://winnie.com/place/tiny-toes-nursery-cdc-bessemer,https://winnie-static.imgix.net/default/daycare_59.png?w=140&h=140&dpr=3&fit=crop&auto=compress%2Cformat,Tiny Toes Nursery & CDC,2705 9th Ave N,Bessemer,location_on,check_circle,Claimed,,"Child care program for infants, toddlers, and school age children up to age thirteen.",https://winnie.com/place/tiny-toes-nursery-cdc-bessemer#daycare-program,Daycare Program,1 mo - 13 yr,https://winnie.com/place/tiny-toes-nursery-cdc-bessemer#contact_form,"Bessemer, AL",Contact this provider for pricing and availability,,
,25 Southlake Ln,Winnie,winnie (1).csv,https://winnie.com/place/ardent-preschool-daycare-valleydale-birmingham,https://winnie.imgix.net/052ec0cf-6513-45d6-a5f3-307c1fef6bff?w=140&h=140&dpr=3&fit=crop&auto=compress%2Cformat,Ardent Preschool & Daycare - Valleydale,25 Southlake Ln,Birmingham,location_on,check_circle,Claimed,,Early education program catering to young learners. Teachers help to develop and enhance students to be well-rounded individuals who are equipped for success in the future. Studies go beyond the...,https://winnie.com/place/ardent-preschool-daycare-valleydale-birmingham#daycare-program,Daycare Program,0 mo - 6 yr,https://winnie.com/place/ardent-preschool-daycare-valleydale-birmingham#contact_form,"Birmingham, AL",Contact this provider for pricing and availability,,
,3030 Healthy Way,Winnie,winnie (1).csv,https://winnie.com/place/ardent-preschool-daycare-patchwork-farms-vestavia-hills,https://winnie.imgix.net/1d206f78-f6a9-4373-ab3a-f94b9dd2fcb6?w=140&h=140&dpr=3&fit=crop&auto=compress%2Cformat,Ardent Preschool & Daycare - Patchwork Farms,3030 Healthy Way,Vestavia Hills,location_on,check_circle,Claimed,,Early education program catering to young learners. Teachers help to develop and enhance students to be well-rounded individuals who are equipped for success in the future. Studies go beyond the...,https://winnie.com/place/ardent-preschool-daycare-patchwork-farms-vestavia-hills#daycare-program,Daycare Program,0 mo - 6 yr,https://winnie.com/place/ardent-preschool-daycare-patchwork-farms-vestavia-hills#contact_form,"Vestavia Hills, AL",Contact this provider for pricing and availability,,
,5390 Magnolia Trce,Winnie,winnie (1).csv,https://winnie.com/place/ardent-preschool-daycare-trace-crossings-birmingham,https://winnie.imgix.net/692bb0ea-f004-4973-809f-1aef6b7bbc41?w=140&h=140&dpr=3&fit=crop&auto=compress%2Cformat,Ardent Preschool & Daycare - Trace Crossings,5390 Magnolia Trce,Birmingham,location_on,check_circle,Claimed,,Early education program catering to young learners. Teachers help to develop and enhance students to be well-rounded individuals who are equipped for success in the future. Studies go beyond the...,https://winnie.com/place/ardent-preschool-daycare-trace-crossings-birmingham#daycare-program,Daycare Program,0 mo - 6 yr,https://winnie.com/place/ardent-preschool-daycare-trace-crossings-birmingham#contact_form,"Birmingham, AL",Contact this provider for pricing and availability,,
,6801 Tattersall Way,Winnie,winnie (1).csv,https://winnie.com/place/ardent-preschool-and-daycare-greystone-birmingham,https://winnie.imgix.net/3596bd27-6afc-4847-8271-c2f42801849d?w=140&h=140&dpr=3&fit=crop&auto=compress%2Cformat,Ardent Preschool and Daycare - Greystone,6801 Tattersall Way,Birmingham,location_on,check_circle,Claimed,,Early education program catering to young learners. Teachers help to develop and enhance students to be well-rounded individuals who are equipped for success in the future. Studies go beyond the...,https://winnie.com/place/ardent-preschool-and-daycare-greystone-birmingham#daycare-program,Daycare Program,0 mo - 6 yr,https://winnie.com/place/ardent-preschool-and-daycare-greystone-birmingham#contact_form,"Birmingham, AL",Contact this provider for pricing and availability,,
,501 Riverwoods Ct,Winnie,winnie (1).csv,https://winnie.com/place/primrose-school-of-riverwoods-helena,https://winnie-partners.imgix.net/primrose/photos/-R8RoHfNdU_FFIet9ILZI6DnihUR34yR1W6Civb47Tg.jpg?w=140&h=140&dpr=3&fit=crop&auto=compress%2Cformat,Primrose School of Riverwoods,501 Riverwoods Ct,Helena,location_on,,,stars,"Primrose School of Riverwoods is an accredited, premium early education and care provider offering proven Infant, Toddler, Preschool, Pre-Kindergarten, and Kindergarten programs. Our research based,...",https://winnie.com/place/primrose-school-of-riverwoods-helena#infant-program,Infant Program,6 w - 12 mo,https://winnie.com/place/primrose-school-of-riverwoods-helena#contact_form,"Helena, AL",Contact this provider for pricing and availability,,
,151 Narrows Pkwy,Winnie,winnie (1).csv,https://winnie.com/place/cahaba-valley-learning-center-birmingham,https://winnie-static.imgix.net/default/daycare_57.png?w=140&h=140&dpr=3&fit=crop&auto=compress%2Cformat,Cahaba Valley Learning Center,151 Narrows Pkwy,Birmingham,location_on,check_circle,Claimed,stars,"Child development program serving students and their families ages 6 weeks - 5 years, and offering afterschool program. Their mission is to provide a safe, nurturing, and stimulating environment where...",https://winnie.com/place/cahaba-valley-learning-center-birmingham#daycare-program,Daycare Program,6 w - 12 yr,https://winnie.com/place/cahaba-valley-learning-center-birmingham#contact_form,"Birmingham, AL",Contact this provider for pricing and availability,,
,4855 Meadow Brook Rd,Winnie,winnie (1).csv,https://winnie.com/place/primrose-school-of-meadowbrook-birmingham,https://winnie-partners.imgix.net/primrose/photos/xgCW6_DSEMqyS2zURVOgVnl02BNfttjEY7MNCwTaxWA.jpg?w=140&h=140&dpr=3&fit=crop&auto=compress%2Cformat,Primrose School of Meadowbrook,4855 Meadow Brook Rd,Birmingham,location_on,,,stars,"Primrose School of Meadowbrook is an accredited, premium early education and care provider offering proven Infant, Toddler, Preschool, and Pre-Kindergarten programs. Our research based, time-tested...",https://winnie.com/place/primrose-school-of-meadowbrook-birmingham#infant-program,Infant Program,6 w - 12 mo,https://winnie.com/place/primrose-school-of-meadowbrook-birmingham#contact_form,"Birmingham, AL",Contact this provider for pricing and availability,,
,2561 Acton Rd,Winnie,winnie (1).csv,https://winnie.com/place/bekare-child-development-center-mountain-brook,https://winnie-partners.imgix.net/83f79990-dff5-4084-a5b0-17fd253eeb2b/venue_photo/2836f676-703f-4f66-823d-384b80369b32?w=140&h=140&dpr=3&fit=crop&auto=compress%2Cformat,BeKare Child Development Center,2561 Acton Rd,Mountain Brook,location_on,check_circle,Claimed,,"At Bright Horizons®, we make sure the early years are full of learning and fun. Our early education and preschool program paves the way for school success, with support for each child’s individual...",https://winnie.com/place/bekare-child-development-center-mountain-brook#infant-care,Infant Care,0 mo - 15 mo,https://winnie.com/place/bekare-child-development-center-mountain-brook#contact_form,"Mountain Brook, AL",Contact this provider for pricing and availability,,
,1421 Bessemer Rd,Winnie,winnie (1).csv,https://winnie.com/place/scholars-of-the-future-learning-ctr-llc-birmingham,https://winnie-static.imgix.net/default/daycare_35.png?w=140&h=140&dpr=3&fit=crop&auto=compress%2Cformat,Scholars Of The Future Learning Ctr Llc,1421 Bessemer Rd,,maps_home_work,check_circle,Claimed,,Sheryl Person founded Granny's Little Angels (now Scholars of the Future Learning Center) in 2006. Her goal for opening Granny's Little Angels was to enrich oncoming kids and show love throughout the...,https://winnie.com/place/scholars-of-the-future-learning-ctr-llc-birmingham#daycare-program,Daycare Program,6 w - 12 yr,https://winnie.com/place/scholars-of-the-future-learning-ctr-llc-birmingham#contact_form,"Birmingham, AL",Contact this provider for pricing and availability,,
,1300 Bessemer Rd,Winnie,winnie (1).csv,https://winnie.com/place/tiny-toes-nursery-cdc-inc-site-ll-birmingham,https://winnie-static.imgix.net/default/daycare_4.png?w=140&h=140&dpr=3&fit=crop&auto=compress%2Cformat,Tiny Toes Nursery & CDC Inc Site ll,1300 Bessemer Rd,,maps_home_work,check_circle,Claimed,,"We accept 4 weeks-13 years old and serve breakfast, lunch and afternoon snack.",https://winnie.com/place/tiny-toes-nursery-cdc-inc-site-ll-birmingham#daycare-program,Daycare Program,1 mo - 13 yr,https://winnie.com/place/tiny-toes-nursery-cdc-inc-site-ll-birmingham#contact_form,"Birmingham, AL",Contact this provider for pricing and availability,,
,1428 Heflin Ave W,Winnie,winnie (1).csv,https://winnie.com/place/adear-day-care-center-inc-birmingham,https://winnie-static.imgix.net/default/daycare_3.png?w=140&h=140&dpr=3&fit=crop&auto=compress%2Cformat,"A'Dear Day Care Center, Inc.",1428 Heflin Ave W,Birmingham,location_on,check_circle,Claimed,,A'Dear Day Care Center is a licensed childcare facility serving families in Birmingham's west side. The center provides care and early education programs for young children.,https://winnie.com/place/adear-day-care-center-inc-birmingham#daycare-program,Daycare Program,6 w - 12 yr,https://winnie.com/place/adear-day-care-center-inc-birmingham#contact_form,"Birmingham, AL",Contact this provider for pricing and availability,,
,312 Claxton Way,Winnie,winnie (1).csv,https://winnie.com/place/thomas-day-care-fairfield,https://winnie-static.imgix.net/default/daycare_9.png?w=140&h=140&dpr=3&fit=crop&auto=compress%2Cformat,Thomas Day Care,312 Claxton Way,Fairfield,location_on,check_circle,Claimed,,"Thomas Day Care Center provides childcare services for infants through school-age children. It operates year-round, Monday to Friday, from 6:30 AM to 6:00 PM. Services include Head Start, after-school...",https://winnie.com/place/thomas-day-care-fairfield#daycare-program,Daycare Program,6 w - 14 yr,https://winnie.com/place/thomas-day-care-fairfield#contact_form,"Fairfield, AL",Contact this provider for pricing and availability,,
,2865 Old Rocky Ridge Rd,Winnie,winnie (1).csv,https://winnie.com/place/lakeside-baptist-church-birmingham,https://winnie-static.imgix.net/default/daycare_42.png?w=140&h=140&dpr=3&fit=crop&auto=compress%2Cformat,Lakeside Baptist Church,2865 Old Rocky Ridge Rd,Birmingham,location_on,check_circle,Claimed,,"Lakeside Baptist Church offers various childcare and educational programs, often incorporating Christian values and curricula. These programs typically include daycare services for infants through...",https://winnie.com/place/lakeside-baptist-church-birmingham#daycare-program,Daycare Program,3 yr - 4 yr 11 mo,https://winnie.com/place/lakeside-baptist-church-birmingham#contact_form,"Birmingham, AL",Contact this provider for pricing and availability,,
,513 Flint Parc Cir,Winnie,winnie (1).csv,https://winnie.com/place/stepping-stones-bessemer,https://winnie-static.imgix.net/default/daycare_5.png?w=140&h=140&dpr=3&fit=crop&auto=compress%2Cformat,Stepping Stones,513 Flint Parc Cir,Bessemer,location_on,check_circle,Claimed,,Stepping Stones provides childcare services in a nurturing environment. The center focuses on early childhood development through play-based learning activities.,https://winnie.com/place/stepping-stones-bessemer#daycare-program,Daycare Program,6 w - 14 yr,https://winnie.com/place/stepping-stones-bessemer#contact_form,"Bessemer, AL",Contact this provider for pricing and availability,,
,1445 Forestdale Blvd,Winnie,winnie (1).csv,https://winnie.com/place/washington-pre-school-birmingham,https://winnie-static.imgix.net/default/daycare_1.png?w=140&h=140&dpr=3&fit=crop&auto=compress%2Cformat,Washington Pre School,1445 Forestdale Blvd,Birmingham,location_on,check_circle,Claimed,,Washington Pre School provides early childhood education and care services in Birmingham's Forestdale area. The center serves young children in a preschool setting.,https://winnie.com/place/washington-pre-school-birmingham#daycare-program,Daycare Program,6 w - 12 yr,https://winnie.com/place/washington-pre-school-birmingham#contact_form,"Birmingham, AL",Contact this provider for pricing and availability,,
,5235 US-280,Winnie,winnie (1).csv,https://winnie.com/place/church-unlimited-birmingham,https://winnie-static.imgix.net/default/daycare_8.png?w=140&h=140&dpr=3&fit=crop&auto=compress%2Cformat,Church Unlimited,5235 US-280,,maps_home_work,check_circle,Claimed,,Church Unlimited offers a daycare ministry as part of their church services. The center provides care for young children in a Christian environment.,https://winnie.com/place/church-unlimited-birmingham#daycare-program,Daycare Program,0 mo - 4 yr 11 mo,https://winnie.com/place/church-unlimited-birmingham#contact_form,"Birmingham, AL",Contact this provider for pricing and availability,,
,2237 Sumpter St,Winnie,winnie (1).csv,https://winnie.com/place/sugar-spice-day-care-hoover,https://winnie-static.imgix.net/default/daycare_25.png?w=140&h=140&dpr=3&fit=crop&auto=compress%2Cformat,Sugar & Spice Day Care,2237 Sumpter St,Hoover,location_on,,,,"Site provides childcare and early learning programs for young children. Preparation for Kindergarten is ensured with age-appropriate curriculum, introducing math, science and social studies concepts....",https://winnie.com/place/sugar-spice-day-care-hoover#daycare-program,Daycare Program,6 w - 4 yr 11 mo,https://winnie.com/place/sugar-spice-day-care-hoover#contact_form,"Hoover, AL",Contact this provider for pricing and availability,,
,2191 Parkway Lake Dr,Winnie,winnie (1).csv,https://winnie.com/place/today-care-childrens-center-hoover,https://winnie-static.imgix.net/default/daycare_54.png?w=140&h=140&dpr=3&fit=crop&auto=compress%2Cformat,Today Care Children's Center,2191 Parkway Lake Dr,Hoover,location_on,,,,"Program offers childcare, early learning and extended care options for young children. Age-appropriate curriculum includes lessons in math, science, language and history. Independence, curiosity and...",https://winnie.com/place/today-care-childrens-center-hoover#daycare-program,Daycare Program,6 w - 12 yr,https://winnie.com/place/today-care-childrens-center-hoover#contact_form,"Hoover, AL",Contact this provider for pricing and availability,,
,1732 11th Ave N,Winnie,winnie (1).csv,https://winnie.com/place/jesus-christian-daycare-and-school-bessemer,https://winnie-static.imgix.net/default/daycare_57.png?w=140&h=140&dpr=3&fit=crop&auto=compress%2Cformat,Jesus Christian Daycare And School,1732 11th Ave N,Bessemer,location_on,check_circle,Claimed,,Jesus Christian Daycare And School is a faith-based childcare center in Bessemer. The center provides care and early education services for young children.,https://winnie.com/place/jesus-christian-daycare-and-school-bessemer#daycare-program,Daycare Program,6 w - 12 yr,https://winnie.com/place/jesus-christian-daycare-and-school-bessemer#contact_form,"Bessemer, AL",Contact this provider for pricing and availability,,
,8293 Helena Rd,Winnie,winnie (1).csv,https://winnie.com/place/stepping-stones-playschool-pelham,https://winnie-static.imgix.net/default/daycare_25.png?w=140&h=140&dpr=3&fit=crop&auto=compress%2Cformat,Stepping Stones Playschool,8293 Helena Rd,Pelham,location_on,check_circle,Claimed,,Stepping Stones Playschool provides early childhood education in a nurturing environment for children ages 6 weeks through Pre-K. The center follows a developmentally appropriate curriculum that...,https://winnie.com/place/stepping-stones-playschool-pelham#daycare-program,Daycare Program,6 w - 14 yr,https://winnie.com/place/stepping-stones-playschool-pelham#contact_form,"Pelham, AL",Contact this provider for pricing and availability,,
,104 Heatherbrooke Rd,Winnie,winnie (1).csv,https://winnie.com/place/big-blue-marble-academy-birmingham,https://winnie-static.imgix.net/default/daycare_55.png?w=140&h=140&dpr=3&fit=crop&auto=compress%2Cformat,Big Blue Marble Academy (Birmingham – Inverness),104 Heatherbrooke Rd,Birmingham,location_on,check_circle,Claimed,,Big Blue Marble Academy provides early childhood education and care for children from infants through Pre-K. The center follows a STEAM-based curriculum that incorporates hands-on learning experiences...,https://winnie.com/place/big-blue-marble-academy-birmingham#daycare-program,Daycare Program,6 w - 12 yr,https://winnie.com/place/big-blue-marble-academy-birmingham#contact_form,"Birmingham, AL",Contact this provider for pricing and availability,,
,401 Emery Dr,Winnie,winnie (1).csv,https://winnie.com/place/big-blue-marble-academy-hoover,https://winnie-static.imgix.net/default/daycare_40.png?w=140&h=140&dpr=3&fit=crop&auto=compress%2Cformat,Big Blue Marble Academy (Hoover – Trace Crossing),401 Emery Dr,Hoover,location_on,check_circle,Claimed,,"Big Blue Marble Academy provides early childhood education for children from infants through Pre-K. The center follows a STEAM-based curriculum that incorporates hands-on learning experiences, and...",https://winnie.com/place/big-blue-marble-academy-hoover#daycare-program,Daycare Program,6 w - 12 yr,https://winnie.com/place/big-blue-marble-academy-hoover#contact_form,"Hoover, AL",Contact this provider for pricing and availability,,
,118 Brookwood Rd E,Winnie,winnie (1).csv,https://winnie.com/place/kiddy-city-midfield,https://winnie-static.imgix.net/default/daycare_36.png?w=140&h=140&dpr=3&fit=crop&auto=compress%2Cformat,Kiddy City,118 Brookwood Rd E,Midfield,location_on,check_circle,Claimed,,"Kiddy City is a licensed child care center offering daycare programs located at 118 Brookwood Rd E in Midfield, AL. Contact this provider to inquire about prices and availability.",https://winnie.com/place/kiddy-city-midfield#daycare-program,Daycare Program,1 mo - 12 yr,https://winnie.com/place/kiddy-city-midfield#contact_form,"Midfield, AL",Contact this provider for pricing and availability,,
,5412 US-280,Winnie,winnie (1).csv,https://winnie.com/place/kiddie-academy-of-meadowbrook-birmingham,https://winnie-static.imgix.net/default/daycare_41.png?w=140&h=140&dpr=3&fit=crop&auto=compress%2Cformat,Kiddie Academy of Meadowbrook-Birmingham,5412 US-280,Birmingham,location_on,,,,"Kiddie Academy of Meadowbrook-Birmingham is a licensed child care center offering infant care and toddler care programs located at 5412 US-280 in Birmingham, AL. Contact this provider to inquire about...",https://winnie.com/place/kiddie-academy-of-meadowbrook-birmingham#infant-care-new-beginnings,Infant Care - New Beginnings,6 w - 12 mo,https://winnie.com/place/kiddie-academy-of-meadowbrook-birmingham#contact_form,"Birmingham, AL",Contact this provider for pricing and availability,,
,1550 Georgia Rd,Winnie,winnie (1).csv,https://winnie.com/place/we-are-1-irondale,https://winnie-static.imgix.net/default/daycare_57.png?w=140&h=140&dpr=3&fit=crop&auto=compress%2Cformat,We Are 1,1550 Georgia Rd,Irondale,location_on,check_circle,Claimed,,"We Are 1 is a licensed child care center offering daycare programs located at 1550 Georgia Rd in Irondale, AL. Contact this provider to inquire about prices and availability.",https://winnie.com/place/we-are-1-irondale#daycare-program,Daycare Program,3 yr - 17 yr,https://winnie.com/place/we-are-1-irondale#contact_form,"Irondale, AL",Contact this provider for pricing and availability,,
,4511 Ave P,Winnie,winnie (1).csv,https://winnie.com/place/kidz-two-birmingham,https://winnie-static.imgix.net/default/daycare_37.png?w=140&h=140&dpr=3&fit=crop&auto=compress%2Cformat,Kidz Two,4511 Ave P,,maps_home_work,check_circle,Claimed,,"Kidz Two is a licensed child care center offering daycare programs located at 4511 Ave P in Belview Heights in Birmingham, AL. Contact this provider to inquire about prices and availability.",https://winnie.com/place/kidz-two-birmingham#daycare-program,Daycare Program,6 w - 12 yr,https://winnie.com/place/kidz-two-birmingham#contact_form,"Birmingham, AL",Contact this provider for pricing and availability,,
,625 Pinson Valley Pkwy,Winnie,winnie (1).csv,https://winnie.com/place/mustard-seed-faith-cathedral-daycare-birmingham,https://winnie-static.imgix.net/default/daycare_48.png?w=140&h=140&dpr=3&fit=crop&auto=compress%2Cformat,Mustard Seed Faith Cathedral Daycare,625 Pinson Valley Pkwy,Birmingham,location_on,,,stars,"Mustard Seed Faith Cathedral Daycare is a licensed child care center offering daycare programs located at 625 Pinson Valley Pkwy in Birmingham, AL. Contact this provider to inquire about prices and...",https://winnie.com/place/mustard-seed-faith-cathedral-daycare-birmingham#daycare-program,Daycare Program,6 w - 12 yr,https://winnie.com/place/mustard-seed-faith-cathedral-daycare-birmingham#contact_form,"Birmingham, AL",Contact this provider for pricing and availability,,
,2149 Emerald Pointe Dr,Winnie,winnie (1).csv,https://winnie.com/place/the-imagination-place-birmingham,https://winnie-static.imgix.net/default/daycare_2.png?w=140&h=140&dpr=3&fit=crop&auto=compress%2Cformat,The Imagination Place,2149 Emerald Pointe Dr,Birmingham,location_on,,,,"The Imagination Place is a licensed child care center offering daycare programs located at 2149 Emerald Pointe Dr in Birmingham, AL. Contact this provider to inquire about prices and availability.",https://winnie.com/place/the-imagination-place-birmingham#daycare-program,Daycare Program,6 w - 12 yr,https://winnie.com/place/the-imagination-place-birmingham#contact_form,"Birmingham, AL",Contact this provider for pricing and availability,,
,1832 Springfield St,Winnie,winnie (1).csv,https://winnie.com/place/tinka-bells-christian-home-day-care-birmingham,https://winnie-static.imgix.net/default/daycare_45.png?w=140&h=140&dpr=3&fit=crop&auto=compress%2Cformat,Tinka Bell's Christian Home Day Care,1832 Springfield St,Birmingham,location_on,,,,"Tinka Bell's Christian Home Day Care is a license exempt child care center offering daycare programs located at 1832 Springfield St in Birmingham, AL. Contact this provider to inquire about prices and...",https://winnie.com/place/tinka-bells-christian-home-day-care-birmingham#daycare-program,Daycare Program,0 mo - 14 yr,https://winnie.com/place/tinka-bells-christian-home-day-care-birmingham#contact_form,"Birmingham, AL",Contact this provider for pricing and availability,,
,1431 13th Ave N,Winnie,winnie (1).csv,https://winnie.com/place/triumphant-child-care-center-bessemer,https://winnie-static.imgix.net/default/daycare_7.png?w=140&h=140&dpr=3&fit=crop&auto=compress%2Cformat,Triumphant Child Care Center,1431 13th Ave N,Bessemer,location_on,,,,"Triumphant Child Care Center is a licensed child care center offering daycare programs located at 1431 13th Ave N in Bessemer, AL. Contact this provider to inquire about prices and availability.",https://winnie.com/place/triumphant-child-care-center-bessemer#daycare-program,Daycare Program,6 w - 12 yr,https://winnie.com/place/triumphant-child-care-center-bessemer#contact_form,"Bessemer, AL",Contact this provider for pricing and availability,,
,3314 26th St N,Winnie,winnie (1).csv,https://winnie.com/place/olivet-monumental-baptist-church-dc-birmingham,https://winnie-static.imgix.net/default/daycare_27.png?w=140&h=140&dpr=3&fit=crop&auto=compress%2Cformat,Olivet Monumental Baptist Church D/C,3314 26th St N,,maps_home_work,,,,"Olivet Monumental Baptist Church D/C is a licensed child care center offering daycare programs located at 3314 26th St N in North Birmingham in Birmingham, AL. Contact this provider to inquire about...",https://winnie.com/place/olivet-monumental-baptist-church-dc-birmingham#daycare-program,Daycare Program,6 w - 15 yr,https://winnie.com/place/olivet-monumental-baptist-church-dc-birmingham#contact_form,"Birmingham, AL",Contact this provider for pricing and availability,,
,1014 Exeter Ave,Winnie,winnie (1).csv,https://winnie.com/place/glorias-day-care-bessemer,https://winnie-static.imgix.net/default/daycare_34.png?w=140&h=140&dpr=3&fit=crop&auto=compress%2Cformat,Gloria's Day Care,1014 Exeter Ave,Bessemer,location_on,,,,"Gloria's Day Care is a licensed child care center offering daycare programs located at 1014 Exeter Ave in Bessemer, AL. Contact this provider to inquire about prices and availability.",https://winnie.com/place/glorias-day-care-bessemer#daycare-program,Daycare Program,12 mo - 12 yr,https://winnie.com/place/glorias-day-care-bessemer#contact_form,"Bessemer, AL",Contact this provider for pricing and availability,,
,1406 27th St N,Winnie,winnie (1).csv,https://winnie.com/place/a-beautiful-beginning-daycare-center-bessemer,https://winnie-static.imgix.net/default/daycare_17.png?w=140&h=140&dpr=3&fit=crop&auto=compress%2Cformat,A Beautiful Beginning Daycare Center,1406 27th St N,Bessemer,location_on,,,,"A Beautiful Beginning Daycare Center is a licensed child care center offering daycare programs located at 1406 27th St N in Bessemer, AL. Contact this provider to inquire about prices and...",https://winnie.com/place/a-beautiful-beginning-daycare-center-bessemer#daycare-program,Daycare Program,6 w - 14 yr,https://winnie.com/place/a-beautiful-beginning-daycare-center-bessemer#contact_form,"Bessemer, AL",Contact this provider for pricing and availability,,
,1825 Christian St NE,Winnie,winnie (2).csv,https://winnie.com/place/happy-faces-christian-academy-birmingham,https://winnie-static.imgix.net/default/daycare_29.png?w=140&h=140&dpr=3&fit=crop&auto=compress%2Cformat,Happy Faces Christian Academy,1825 Christian St NE,"Birmingham, AL",location_on,,,,"Happy Faces Christian Academy is a licensed child care center offering daycare programs located at 1825 Christian St NE in Birmingham, AL. Contact this provider to inquire about prices and...",https://winnie.com/place/happy-faces-christian-academy-birmingham#daycare-program,,,https://winnie.com/place/happy-faces-christian-academy-birmingham#contact_form,Birmingham,,,6 w - 12 yr
,265 Roebuck Dr,Winnie,winnie (2).csv,https://winnie.com/place/kids-first-dev-acaddba-kids-first-east-birmingham,https://winnie-static.imgix.net/default/daycare_33.png?w=140&h=140&dpr=3&fit=crop&auto=compress%2Cformat,Kids First Dev. Acad/Dba Kids First East,265 Roebuck Dr,"Birmingham, AL",maps_home_work,,,,"Kids First Dev. Acad/Dba Kids First East is a licensed child care center offering daycare programs located at 265 Roebuck Dr in Roebuck in Birmingham, AL. Contact this provider to inquire about prices...",https://winnie.com/place/kids-first-dev-acaddba-kids-first-east-birmingham#daycare-program,,,https://winnie.com/place/kids-first-dev-acaddba-kids-first-east-birmingham#contact_form,,,Roebuck,6 w - 12 yr
,7836 2nd Ave S,Winnie,winnie (2).csv,https://winnie.com/place/pamper-me-nursery-child-dev-ctr-birmingham,https://winnie-static.imgix.net/default/daycare_43.png?w=140&h=140&dpr=3&fit=crop&auto=compress%2Cformat,Pamper Me Nursery Child Dev Ctr,7836 2nd Ave S,"Birmingham, AL",maps_home_work,,,,"Pamper Me Nursery Child Dev Ctr is a licensed child care center offering daycare programs located at 7836 2nd Ave S in South Eastlake in Birmingham, AL. Contact this provider to inquire about prices...",https://winnie.com/place/pamper-me-nursery-child-dev-ctr-birmingham#daycare-program,,,https://winnie.com/place/pamper-me-nursery-child-dev-ctr-birmingham#contact_form,,,South Eastlake,2 mo - 12 yr
,7724 1st Ave N,Winnie,winnie (2).csv,https://winnie.com/place/angels-erickas-daycare-llc-birmingham,https://winnie-static.imgix.net/default/daycare_54.png?w=140&h=140&dpr=3&fit=crop&auto=compress%2Cformat,Angels Ericka's Daycare LLC,7724 1st Ave N,"Birmingham, AL",maps_home_work,,,,"Angels Ericka's Daycare LLC is a licensed child care center offering daycare programs located at 7724 1st Ave N in Wahouma in Birmingham, AL. Contact this provider to inquire about prices and...",https://winnie.com/place/angels-erickas-daycare-llc-birmingham#daycare-program,,,https://winnie.com/place/angels-erickas-daycare-llc-birmingham#contact_form,,,Wahouma,6 w - 12 yr
,2130 Warrior Rd,Winnie,winnie (2).csv,https://winnie.com/place/bryants-daycare-learning-center-llc-birmingham-2,https://winnie-static.imgix.net/default/daycare_38.png?w=140&h=140&dpr=3&fit=crop&auto=compress%2Cformat,Bryant's Daycare & Learning Center Llc,2130 Warrior Rd,"Birmingham, AL",maps_home_work,,,,"Bryant's Daycare & Learning Center Llc is a licensed child care center offering daycare programs located at 2130 Warrior Rd in Ensley Highlands in Birmingham, AL. Contact this provider to inquire...",https://winnie.com/place/bryants-daycare-learning-center-llc-birmingham-2#daycare-program,,,https://winnie.com/place/bryants-daycare-learning-center-llc-birmingham-2#contact_form,,,Ensley Highlands,6 w - 12 yr
,1300 Columbiana Rd,Winnie,winnie (2).csv,https://winnie.com/place/abc-child-development-center-vestavia-hills,https://winnie-static.imgix.net/default/daycare_33.png?w=140&h=140&dpr=3&fit=crop&auto=compress%2Cformat,ABC Child Development Center,1300 Columbiana Rd,"Vestavia Hills, AL",location_on,,,,"ABC Child Development Center is a licensed child care center offering daycare programs located at 1300 Columbiana Rd in Vestavia Hills, AL. Contact this provider to inquire about prices and...",https://winnie.com/place/abc-child-development-center-vestavia-hills#daycare-program,,,https://winnie.com/place/abc-child-development-center-vestavia-hills#contact_form,Vestavia Hills,,,6 w - 12 yr
,7032 1st Ave N,Winnie,winnie (2).csv,https://winnie.com/place/eastlake-church-of-god-birmingham,https://winnie-static.imgix.net/default/daycare_45.png?w=140&h=140&dpr=3&fit=crop&auto=compress%2Cformat,Eastlake Church Of God,7032 1st Ave N,"Birmingham, AL",maps_home_work,,,,"Eastlake Church Of God is a licensed child care center offering daycare programs located at 7032 1st Ave N in Wahouma in Birmingham, AL. Contact this provider to inquire about prices and availability.",https://winnie.com/place/eastlake-church-of-god-birmingham#daycare-program,,,https://winnie.com/place/eastlake-church-of-god-birmingham#contact_form,,,Wahouma,6 w - 12 yr
,620 Owen Ave,Winnie,winnie (2).csv,https://winnie.com/place/peppamint-patty-day-care-bessemer,https://winnie-static.imgix.net/default/daycare_3.png?w=140&h=140&dpr=3&fit=crop&auto=compress%2Cformat,Peppamint Patty Day Care,620 Owen Ave,"Bessemer, AL",location_on,,,,"Peppamint Patty Day Care is a licensed child care center offering daycare programs located at 620 Owen Ave in Bessemer, AL. Contact this provider to inquire about prices and availability.",https://winnie.com/place/peppamint-patty-day-care-bessemer#daycare-program,,,https://winnie.com/place/peppamint-patty-day-care-bessemer#contact_form,Bessemer,,,3 yr - 4 yr 11 mo
,714 14th St SW,Winnie,winnie (2).csv,https://winnie.com/place/l-b-community-development-site-1-birmingham,https://winnie-static.imgix.net/default/daycare_19.png?w=140&h=140&dpr=3&fit=crop&auto=compress%2Cformat,L & B Community Development Site 1,714 14th St SW,"Birmingham, AL",maps_home_work,,,,"L & B Community Development Site 1 is a licensed child care center offering daycare programs located at 714 14th St SW in Arlington - West End in Birmingham, AL. Contact this provider to inquire about...",https://winnie.com/place/l-b-community-development-site-1-birmingham#daycare-program,,,https://winnie.com/place/l-b-community-development-site-1-birmingham#contact_form,,,Arlington - West End,6 w - 12 yr
,2160 Whiting Rd,Winnie,winnie (2).csv,https://winnie.com/place/pats-kids-birmingham,https://winnie-static.imgix.net/default/daycare_54.png?w=140&h=140&dpr=3&fit=crop&auto=compress%2Cformat,Pat's Kids,2160 Whiting Rd,"Birmingham, AL",location_on,,,,"Pat's Kids is a licensed child care center offering daycare programs located at 2160 Whiting Rd in Birmingham, AL. Contact this provider to inquire about prices and availability.",https://winnie.com/place/pats-kids-birmingham#daycare-program,,,https://winnie.com/place/pats-kids-birmingham#contact_form,Birmingham,,,6 w - 6 yr
,5595 14th St S,Winnie,winnie (2).csv,https://winnie.com/place/marys-day-care-bessemer,https://winnie-static.imgix.net/default/daycare_51.png?w=140&h=140&dpr=3&fit=crop&auto=compress%2Cformat,Mary's Day Care,5595 14th St S,"Bessemer, AL",location_on,,,,"Mary's Day Care is a licensed child care center offering daycare programs located at 5595 14th St S in Bessemer, AL. Contact this provider to inquire about prices and availability.",https://winnie.com/place/marys-day-care-bessemer#daycare-program,,,https://winnie.com/place/marys-day-care-bessemer#contact_form,Bessemer,,,6 w - 14 yr
,2800 Montessori Way,Winnie,winnie (2).csv,https://winnie.com/place/creative-montessori-school-homewood,https://winnie-static.imgix.net/default/daycare_11.png?w=140&h=140&dpr=3&fit=crop&auto=compress%2Cformat,Creative Montessori School,2800 Montessori Way,"Homewood, AL",location_on,,,,"Creative Montessori School is a licensed child care center offering daycare programs located at 2800 Montessori Way in Homewood, AL. Contact this provider to inquire about prices and availability.",https://winnie.com/place/creative-montessori-school-homewood#daycare-program,,,https://winnie.com/place/creative-montessori-school-homewood#contact_form,Homewood,,,18 mo - 6 yr
,7821 1st Ave N,Winnie,winnie (2).csv,https://winnie.com/place/gifted-anointed-child-care-birmingham,https://winnie-static.imgix.net/default/daycare_11.png?w=140&h=140&dpr=3&fit=crop&auto=compress%2Cformat,Gifted & Anointed Child Care,7821 1st Ave N,"Birmingham, AL",maps_home_work,,,,"Gifted & Anointed Child Care is a licensed child care center offering daycare programs located at 7821 1st Ave N in South Eastlake in Birmingham, AL. Contact this provider to inquire about prices and...",https://winnie.com/place/gifted-anointed-child-care-birmingham#daycare-program,,,https://winnie.com/place/gifted-anointed-child-care-birmingham#contact_form,,,South Eastlake,6 w - 12 yr
,1140 Bessemer Rd,Winnie,winnie (2).csv,https://winnie.com/place/l-b-community-development-site-2-birmingham,https://winnie-static.imgix.net/default/daycare_40.png?w=140&h=140&dpr=3&fit=crop&auto=compress%2Cformat,L & B Community Development Site 2,1140 Bessemer Rd,"Birmingham, AL",maps_home_work,,,,"L & B Community Development Site 2 is a licensed child care center offering daycare programs located at 1140 Bessemer Rd in Belview Heights in Birmingham, AL. Contact this provider to inquire about...",https://winnie.com/place/l-b-community-development-site-2-birmingham#daycare-program,,,https://winnie.com/place/l-b-community-development-site-2-birmingham#contact_form,,,Belview Heights,6 w - 12 yr
,3528 66th St N,Winnie,winnie (2).csv,https://winnie.com/place/developing-young-minds-birmingham,https://winnie-static.imgix.net/default/daycare_18.png?w=140&h=140&dpr=3&fit=crop&auto=compress%2Cformat,Developing Young Minds,3528 66th St N,"Birmingham, AL",maps_home_work,,,,"Developing Young Minds is a licensed child care center offering daycare programs located at 3528 66th St N in Woodlawn in Birmingham, AL. Contact this provider to inquire about prices and...",https://winnie.com/place/developing-young-minds-birmingham#daycare-program,,,https://winnie.com/place/developing-young-minds-birmingham#contact_form,,,Woodlawn,12 mo - 6 yr
,1328 Forestdale Blvd,Winnie,winnie (2).csv,https://winnie.com/place/peppermint-pattyfaithful-few-church-birmingham,https://winnie-static.imgix.net/default/daycare_15.png?w=140&h=140&dpr=3&fit=crop&auto=compress%2Cformat,Peppermint Patty/Faithful Few Church,1328 Forestdale Blvd,"Birmingham, AL",location_on,,,,"Peppermint Patty/Faithful Few Church is a licensed child care center offering daycare programs located at 1328 Forestdale Blvd in Birmingham, AL. Contact this provider to inquire about prices and...",https://winnie.com/place/peppermint-pattyfaithful-few-church-birmingham#daycare-program,,,https://winnie.com/place/peppermint-pattyfaithful-few-church-birmingham#contact_form,Birmingham,,,6 w - 12 yr
,824 15th St N,Winnie,winnie (2).csv,https://winnie.com/place/canaan-baptist-church-kindergarten-bessemer,https://winnie-static.imgix.net/default/daycare_24.png?w=140&h=140&dpr=3&fit=crop&auto=compress%2Cformat,Canaan Baptist Church Kindergarten,824 15th St N,"Bessemer, AL",location_on,,,,"Canaan Baptist Church Kindergarten is a licensed child care center offering daycare programs located at 824 15th St N in Bessemer, AL. Contact this provider to inquire about prices and availability.",https://winnie.com/place/canaan-baptist-church-kindergarten-bessemer#daycare-program,,,https://winnie.com/place/canaan-baptist-church-kindergarten-bessemer#contact_form,Bessemer,,,18 mo - 6 yr
,2508 9th Ave N,Winnie,winnie (2).csv,https://winnie.com/place/childcare-heaven-dev-center-site-i-bessemer,https://winnie-static.imgix.net/default/daycare_10.png?w=140&h=140&dpr=3&fit=crop&auto=compress%2Cformat,Childcare Heaven Dev. Center  Site I,2508 9th Ave N,"Bessemer, AL",location_on,,,,"Childcare Heaven Dev. Center  Site I is a licensed child care center offering daycare programs located at 2508 9th Ave N in Bessemer, AL. Contact this provider to inquire about prices and...",https://winnie.com/place/childcare-heaven-dev-center-site-i-bessemer#daycare-program,,,https://winnie.com/place/childcare-heaven-dev-center-site-i-bessemer#contact_form,Bessemer,,,6 w - 13 yr
,1005 Jeffery Dr,Winnie,winnie (2).csv,https://winnie.com/place/new-ta-bugs-day-care-birmingham,https://winnie-static.imgix.net/default/daycare_60.png?w=140&h=140&dpr=3&fit=crop&auto=compress%2Cformat,New-Ta-Bugs Day Care,1005 Jeffery Dr,"Birmingham, AL",maps_home_work,,,,"New-Ta-Bugs Day Care is a licensed child care center offering daycare programs located at 1005 Jeffery Dr in Huffman in Birmingham, AL. Contact this provider to inquire about prices and availability.",https://winnie.com/place/new-ta-bugs-day-care-birmingham#daycare-program,,,https://winnie.com/place/new-ta-bugs-day-care-birmingham#contact_form,,,Huffman,6 w - 12 yr
,329 Sheridan Rd,Winnie,winnie (2).csv,https://winnie.com/place/kid-1st-developmental-academy-birmingham,https://winnie-static.imgix.net/default/daycare_34.png?w=140&h=140&dpr=3&fit=crop&auto=compress%2Cformat,Kid 1st Developmental Academy,329 Sheridan Rd,"Birmingham, AL",maps_home_work,,,,"Kid 1st Developmental Academy is a licensed child care center offering daycare programs located at 329 Sheridan Rd in North Pratt in Birmingham, AL. Contact this provider to inquire about prices and...",https://winnie.com/place/kid-1st-developmental-academy-birmingham#daycare-program,,,https://winnie.com/place/kid-1st-developmental-academy-birmingham#contact_form,,,North Pratt,6 w - 14 yr
,2000 Pleasant Hill Rd,Winnie,winnie (2).csv,https://winnie.com/place/sherman-heights-head-start-birmingham,https://winnie-static.imgix.net/default/daycare_4.png?w=140&h=140&dpr=3&fit=crop&auto=compress%2Cformat,Sherman Heights Head Start,2000 Pleasant Hill Rd,"Birmingham, AL",maps_home_work,,,,"Sherman Heights Head Start is a licensed child care center offering daycare programs located at 2000 Pleasant Hill Rd in Sherman Heights in Birmingham, AL. Contact this provider to inquire about...",https://winnie.com/place/sherman-heights-head-start-birmingham#daycare-program,,,https://winnie.com/place/sherman-heights-head-start-birmingham#contact_form,,,Sherman Heights,18 mo - 4 yr 11 mo
,630 Parsons Dr,Winnie,winnie (2).csv,https://winnie.com/place/kays-day-care-hueytown,https://winnie-static.imgix.net/default/daycare_2.png?w=140&h=140&dpr=3&fit=crop&auto=compress%2Cformat,Kay's Day Care,630 Parsons Dr,"Hueytown, AL",location_on,,,,"Kay's Day Care is a license exempt child care center offering daycare programs located at 630 Parsons Dr in Hueytown, AL. Contact this provider to inquire about prices and availability.",https://winnie.com/place/kays-day-care-hueytown#daycare-program,,,https://winnie.com/place/kays-day-care-hueytown#contact_form,Hueytown,,,1 mo - 12 yr
,8777 Helena Rd,Winnie,winnie (2).csv,https://winnie.com/place/grace-community-school-daycare-pelham,https://winnie-static.imgix.net/default/daycare_25.png?w=140&h=140&dpr=3&fit=crop&auto=compress%2Cformat,Grace Community School & Daycare,8777 Helena Rd,"Pelham, AL",location_on,,,,"Grace Community School & Daycare is a license exempt child care center offering daycare programs located at 8777 Helena Rd in Pelham, AL. Contact this provider to inquire about prices and...",https://winnie.com/place/grace-community-school-daycare-pelham#daycare-program,,,https://winnie.com/place/grace-community-school-daycare-pelham#contact_form,Pelham,,,6 w - 12 yr
,7525 Oporto Madrid Blvd,Winnie,winnie (2).csv,https://winnie.com/place/the-child-nurturing-and-development-center-incorporated-birmingham,https://winnie-static.imgix.net/default/daycare_56.png?w=140&h=140&dpr=3&fit=crop&auto=compress%2Cformat,The Child Nurturing and Development Center Incorporated,7525 Oporto Madrid Blvd,"Birmingham, AL",maps_home_work,,,,"The Child Nurturing and Development Center Incorporated is a licensed child care center offering daycare programs located at 7525 Oporto Madrid Blvd in Brown Springs in Birmingham, AL. Contact this...",https://winnie.com/place/the-child-nurturing-and-development-center-incorporated-birmingham#daycare-program,,,https://winnie.com/place/the-child-nurturing-and-development-center-incorporated-birmingham#contact_form,,,Brown Springs,12 mo - 12 yr
,2035 Highland Ave,Winnie,winnie (2).csv,https://winnie.com/place/south-highland-child-development-center-birmingham,https://winnie-static.imgix.net/default/daycare_59.png?w=140&h=140&dpr=3&fit=crop&auto=compress%2Cformat,South Highland Child Development Center,2035 Highland Ave,"Birmingham, AL",maps_home_work,,,,"South Highland Child Development Center is a licensed child care center offering daycare programs located at 2035 Highland Ave in Five Points South in Birmingham, AL. Contact this provider to inquire...",https://winnie.com/place/south-highland-child-development-center-birmingham#daycare-program,,,https://winnie.com/place/south-highland-child-development-center-birmingham#contact_form,,,Five Points South,6 w - 7 yr
,1200 Ford Ave,Winnie,winnie (2).csv,https://winnie.com/place/mt-zion-child-development-center-birmingham,https://winnie-static.imgix.net/default/daycare_50.png?w=140&h=140&dpr=3&fit=crop&auto=compress%2Cformat,Mt. Zion Child Development Center,1200 Ford Ave,"Birmingham, AL",location_on,,,,"Mt. Zion Child Development Center is a licensed child care center offering daycare programs located at 1200 Ford Ave in Birmingham, AL. Contact this provider to inquire about prices and availability.",https://winnie.com/place/mt-zion-child-development-center-birmingham#daycare-program,,,https://winnie.com/place/mt-zion-child-development-center-birmingham#contact_form,Birmingham,,,6 w - 12 yr
,2400 7th Ave N,Winnie,winnie (2).csv,https://winnie.com/place/ymca-bham-youth-center-birmingham,https://winnie-static.imgix.net/default/daycare_18.png?w=140&h=140&dpr=3&fit=crop&auto=compress%2Cformat,YMCA - Bham Youth Center,2400 7th Ave N,"Birmingham, AL",maps_home_work,,,,"YMCA - Bham Youth Center is a license exempt child care center offering daycare programs located at 2400 7th Ave N in Central City in Birmingham, AL. Contact this provider to inquire about prices and...",https://winnie.com/place/ymca-bham-youth-center-birmingham#daycare-program,,,https://winnie.com/place/ymca-bham-youth-center-birmingham#contact_form,,,Central City,4 yr - 12 yr
,5200 Bessemer Super Hwy,Winnie,winnie (2).csv,https://winnie.com/place/great-start-llc-brighton,https://winnie-static.imgix.net/default/daycare_16.png?w=140&h=140&dpr=3&fit=crop&auto=compress%2Cformat,"Great Start, L.L.C.",5200 Bessemer Super Hwy,"Brighton, AL",location_on,,,,"Great Start, L.L.C. is a licensed child care center offering daycare programs located at 5200 Bessemer Super Hwy in Brighton, AL. Contact this provider to inquire about prices and availability.",https://winnie.com/place/great-start-llc-brighton#daycare-program,,,https://winnie.com/place/great-start-llc-brighton#contact_form,Brighton,,,6 w - 12 yr
,1745 Pearson Ave SW,Winnie,winnie (2).csv,https://winnie.com/place/tracys-treasure-co-llc-birmingham,https://winnie-static.imgix.net/default/daycare_1.png?w=140&h=140&dpr=3&fit=crop&auto=compress%2Cformat,"Tracy's Treasure Co., Llc",1745 Pearson Ave SW,"Birmingham, AL",maps_home_work,,,,"Tracy's Treasure Co., Llc is a licensed child care center offering daycare programs located at 1745 Pearson Ave SW in Oakwood Place in Birmingham, AL. Contact this provider to inquire about prices and...",https://winnie.com/place/tracys-treasure-co-llc-birmingham#daycare-program,,,https://winnie.com/place/tracys-treasure-co-llc-birmingham#contact_form,,,Oakwood Place,6 w - 12 yr
,421 Azalea Way,Winnie,winnie (2).csv,https://winnie.com/place/happy-tots-birmingham,https://winnie-static.imgix.net/default/daycare_44.png?w=140&h=140&dpr=3&fit=crop&auto=compress%2Cformat,Happy Tots,421 Azalea Way,"Birmingham, AL",maps_home_work,,,,"Happy Tots is a licensed child care center offering daycare programs located at 421 Azalea Way in Killbough Springs in Birmingham, AL. Contact this provider to inquire about prices and availability.",https://winnie.com/place/happy-tots-birmingham#daycare-program,,,https://winnie.com/place/happy-tots-birmingham#contact_form,,,Killbough Springs,6 w - 12 yr
,6513 2nd Ave S,Winnie,winnie (2).csv,https://winnie.com/place/love-joy-ministries-site-2-birmingham,https://winnie-static.imgix.net/default/daycare_9.png?w=140&h=140&dpr=3&fit=crop&auto=compress%2Cformat,Love Joy Ministries Site 2,6513 2nd Ave S,"Birmingham, AL",maps_home_work,,,,"Love Joy Ministries Site 2 is a licensed child care center offering daycare programs located at 6513 2nd Ave S in Eastlake in Birmingham, AL. Contact this provider to inquire about prices and...",https://winnie.com/place/love-joy-ministries-site-2-birmingham#daycare-program,,,https://winnie.com/place/love-joy-ministries-site-2-birmingham#contact_form,,,Eastlake,6 w - 12 yr
,103 Brewer Dr,Winnie,winnie (2).csv,https://winnie.com/place/little-litehouse-day-care-bessemer,https://winnie-static.imgix.net/default/daycare_27.png?w=140&h=140&dpr=3&fit=crop&auto=compress%2Cformat,Little Litehouse Day Care,103 Brewer Dr,"Bessemer, AL",location_on,,,,"Little Litehouse Day Care is a licensed child care center offering daycare programs located at 103 Brewer Dr in Bessemer, AL. Contact this provider to inquire about prices and availability.",https://winnie.com/place/little-litehouse-day-care-bessemer#daycare-program,,,https://winnie.com/place/little-litehouse-day-care-bessemer#contact_form,Bessemer,,,6 w - 10 yr
,110 Co Rd 337,Winnie,winnie (2).csv,https://winnie.com/place/readyset-grow-cdc-chelsea,https://winnie-static.imgix.net/default/daycare_17.png?w=140&h=140&dpr=3&fit=crop&auto=compress%2Cformat,"Ready,Set, Grow, C.D.C.",110 Co Rd 337,"Chelsea, AL",location_on,,,,"Ready,Set, Grow, C.D.C. is a licensed child care center offering daycare programs located at 110 Co Rd 337 in Chelsea, AL. Contact this provider to inquire about prices and availability.",https://winnie.com/place/readyset-grow-cdc-chelsea#daycare-program,,,https://winnie.com/place/readyset-grow-cdc-chelsea#contact_form,Chelsea,,,6 w - 4 yr 11 mo
,432 Center St,Winnie,winnie (2).csv,https://winnie.com/place/elyton-head-startearly-head-start-birmingham,https://winnie-static.imgix.net/default/daycare_55.png?w=140&h=140&dpr=3&fit=crop&auto=compress%2Cformat,Elyton Head Start/Early Head Start,432 Center St,"Birmingham, AL",maps_home_work,,,,"Elyton Head Start/Early Head Start is a licensed child care center offering daycare programs located at 432 Center St in Graymont in Birmingham, AL. Contact this provider to inquire about prices and...",https://winnie.com/place/elyton-head-startearly-head-start-birmingham#daycare-program,,,https://winnie.com/place/elyton-head-startearly-head-start-birmingham#contact_form,,,Graymont,24 mo - 4 yr 11 mo
,1501 Arthur Shores Dr SW,Winnie,winnie (2).csv,https://winnie.com/place/jcceo-child-development-center-birmingham-2,https://winnie-static.imgix.net/default/daycare_57.png?w=140&h=140&dpr=3&fit=crop&auto=compress%2Cformat,JCCEO Child Development Center (Cooper Green),1501 Arthur Shores Dr SW,"Birmingham, AL",maps_home_work,,,,"JCCEO Child Development Center (Cooper Green) is a licensed child care center offering daycare programs located at 1501 Arthur Shores Dr SW in Mason City in Birmingham, AL. Contact this provider to...",https://winnie.com/place/jcceo-child-development-center-birmingham-2#daycare-program,,,https://winnie.com/place/jcceo-child-development-center-birmingham-2#contact_form,,,Mason City,6 mo - 2 yr 11 mo
,1136 Cotton Ave SW,Winnie,winnie (2).csv,https://winnie.com/place/growing-berries-on-the-vine-christian-dc-birmingham,https://winnie-static.imgix.net/default/daycare_56.png?w=140&h=140&dpr=3&fit=crop&auto=compress%2Cformat,Growing Berries On The Vine Christian Dc,1136 Cotton Ave SW,"Birmingham, AL",maps_home_work,,,,"Growing Berries On The Vine Christian Dc is a licensed child care center offering daycare programs located at 1136 Cotton Ave SW in Arlington - West End in Birmingham, AL. Contact this provider to...",https://winnie.com/place/growing-berries-on-the-vine-christian-dc-birmingham#daycare-program,,,https://winnie.com/place/growing-berries-on-the-vine-christian-dc-birmingham#contact_form,,,Arlington - West End,6 w - 13 yr
,1304 5th Ave N,Winnie,winnie (3).csv,https://winnie.com/place/peekaboo-child-development-center-bessemer,https://winnie-static.imgix.net/default/daycare_7.png?w=140&h=140&dpr=3&fit=crop&auto=compress%2Cformat,Peekaboo Child Development Center,1304 5th Ave N,"Bessemer, AL",location_on,,,,"Peekaboo Child Development Center is a licensed child care center offering daycare programs located at 1304 5th Ave N in Bessemer, AL. Contact this provider to inquire about prices and availability.",https://winnie.com/place/peekaboo-child-development-center-bessemer#daycare-program,,,https://winnie.com/place/peekaboo-child-development-center-bessemer#contact_form,Bessemer,,,3 yr - 14 yr
,6871 6th Ct S,Winnie,winnie (3).csv,https://winnie.com/place/comm-ed-south-oliver-birmingham,https://winnie-static.imgix.net/default/daycare_33.png?w=140&h=140&dpr=3&fit=crop&auto=compress%2Cformat,Comm Ed South - Oliver,6871 6th Ct S,"Birmingham, AL",maps_home_work,,,,"Comm Ed South - Oliver is a license exempt child care center offering daycare programs located at 6871 6th Ct S in Oak Ridge Park in Birmingham, AL. Contact this provider to inquire about prices and...",https://winnie.com/place/comm-ed-south-oliver-birmingham#daycare-program,,,https://winnie.com/place/comm-ed-south-oliver-birmingham#contact_form,,,Oak Ridge Park,4 yr - 11 yr
,931 3rd Ave N,Winnie,winnie (3).csv,https://winnie.com/place/bundles-of-joy-daycare-child-dev-ctr-bessemer,https://winnie-static.imgix.net/default/daycare_5.png?w=140&h=140&dpr=3&fit=crop&auto=compress%2Cformat,Bundles Of Joy Daycare & Child Dev. Ctr.,931 3rd Ave N,"Bessemer, AL",location_on,,,,"Bundles Of Joy Daycare & Child Dev. Ctr. is a licensed child care center offering daycare programs located at 931 3rd Ave N in Bessemer, AL. Contact this provider to inquire about prices and...",https://winnie.com/place/bundles-of-joy-daycare-child-dev-ctr-bessemer#daycare-program,,,https://winnie.com/place/bundles-of-joy-daycare-child-dev-ctr-bessemer#contact_form,Bessemer,,,6 w - 14 yr
,417 4th St N,Winnie,winnie (3).csv,https://winnie.com/place/alabama-stem-education-bessemer-2,https://winnie-static.imgix.net/default/daycare_52.png?w=140&h=140&dpr=3&fit=crop&auto=compress%2Cformat,Alabama Stem Education,417 4th St N,"Bessemer, AL",location_on,,,,"Alabama Stem Education is a licensed child care center offering daycare programs located at 417 4th St N in Bessemer, AL. Contact this provider to inquire about prices and availability.",https://winnie.com/place/alabama-stem-education-bessemer-2#daycare-program,,,https://winnie.com/place/alabama-stem-education-bessemer-2#contact_form,Bessemer,,,12 mo - 24 mo
,500 Co Rd 52,Winnie,winnie (3).csv,https://winnie.com/place/pink-blue-llc-helena-2,https://winnie-static.imgix.net/default/daycare_48.png?w=140&h=140&dpr=3&fit=crop&auto=compress%2Cformat,"Pink & Blue, Llc",500 Co Rd 52,"Helena, AL",location_on,,,,"Pink & Blue, Llc is a licensed child care center offering daycare programs located at 500 Co Rd 52 in Helena, AL. Contact this provider to inquire about prices and availability.",https://winnie.com/place/pink-blue-llc-helena-2#daycare-program,,,https://winnie.com/place/pink-blue-llc-helena-2#contact_form,Helena,,,6 w - 13 yr
,2713 Ensley 5 Points W Ave,Winnie,winnie (3).csv,https://winnie.com/place/ami-first-class-pre-k-2-birmingham,https://winnie-static.imgix.net/default/daycare_5.png?w=140&h=140&dpr=3&fit=crop&auto=compress%2Cformat,Ami First Class Pre-K #2,2713 Ensley 5 Points W Ave,"Birmingham, AL",maps_home_work,,,,"Ami First Class Pre-K #2 is a licensed child care center offering daycare programs located at 2713 Ensley 5 Points W Ave in Ensley Highlands in Birmingham, AL. Contact this provider to inquire about...",https://winnie.com/place/ami-first-class-pre-k-2-birmingham#daycare-program,,,https://winnie.com/place/ami-first-class-pre-k-2-birmingham#contact_form,,,Ensley Highlands,24 mo - 4 yr 11 mo
,519 4th Ave SW,Winnie,winnie (3).csv,https://winnie.com/place/ms-kims-kids-pre-and-lrn-ctr-llc-bessemer,https://winnie-static.imgix.net/default/daycare_27.png?w=140&h=140&dpr=3&fit=crop&auto=compress%2Cformat,"Ms. Kim's Kids Pre. And Lrn. Ctr, Llc",519 4th Ave SW,"Bessemer, AL",location_on,,,,"Ms. Kim's Kids Pre. And Lrn. Ctr, Llc is a licensed child care center offering daycare programs located at 519 4th Ave SW in Bessemer, AL. Contact this provider to inquire about prices and...",https://winnie.com/place/ms-kims-kids-pre-and-lrn-ctr-llc-bessemer#daycare-program,,,https://winnie.com/place/ms-kims-kids-pre-and-lrn-ctr-llc-bessemer#contact_form,Bessemer,,,1 mo - 14 yr
,1425 2nd Ave W,Winnie,winnie (3).csv,https://winnie.com/place/west-end-comm-sch-princeton-birmingham,https://winnie-static.imgix.net/default/daycare_49.png?w=140&h=140&dpr=3&fit=crop&auto=compress%2Cformat,West End Comm Sch - Princeton,1425 2nd Ave W,"Birmingham, AL",maps_home_work,,,,"West End Comm Sch - Princeton is a license exempt child care center offering daycare programs located at 1425 2nd Ave W in Rising - West Princeton in Birmingham, AL. Contact this provider to inquire...",https://winnie.com/place/west-end-comm-sch-princeton-birmingham#daycare-program,,,https://winnie.com/place/west-end-comm-sch-princeton-birmingham#contact_form,,,Rising - West Princeton,4 yr - 11 yr
,307 19th St N,Winnie,winnie (3).csv,https://winnie.com/place/cathedral-day-care-center-birmingham,https://winnie-static.imgix.net/default/daycare_15.png?w=140&h=140&dpr=3&fit=crop&auto=compress%2Cformat,Cathedral Day Care Center,307 19th St N,"Birmingham, AL",maps_home_work,,,,"Cathedral Day Care Center is a licensed child care center offering daycare programs located at 307 19th St N in Central City in Birmingham, AL. Contact this provider to inquire about prices and...",https://winnie.com/place/cathedral-day-care-center-birmingham#daycare-program,,,https://winnie.com/place/cathedral-day-care-center-birmingham#contact_form,,,Central City,1 mo - 8 yr
,1757 Jefferson Ave SW,Winnie,winnie (3).csv,https://winnie.com/place/new-hope-child-development-center-birmingham,https://winnie-static.imgix.net/default/daycare_16.png?w=140&h=140&dpr=3&fit=crop&auto=compress%2Cformat,New Hope Child Development Center,1757 Jefferson Ave SW,"Birmingham, AL",maps_home_work,,,,"New Hope Child Development Center is a licensed child care center offering daycare programs located at 1757 Jefferson Ave SW in West End Manor in Birmingham, AL. Contact this provider to inquire about...",https://winnie.com/place/new-hope-child-development-center-birmingham#daycare-program,,,https://winnie.com/place/new-hope-child-development-center-birmingham#contact_form,,,West End Manor,6 w - 8 mo
,324 59th St,Winnie,winnie (3).csv,https://winnie.com/place/first-baptist-church-day-care-center-fairfield,https://winnie-static.imgix.net/default/daycare_29.png?w=140&h=140&dpr=3&fit=crop&auto=compress%2Cformat,First Baptist Church Day Care Center,324 59th St,"Fairfield, AL",location_on,,,,"First Baptist Church Day Care Center is a licensed child care center offering daycare programs located at 324 59th St in Fairfield, AL. Contact this provider to inquire about prices and availability.",https://winnie.com/place/first-baptist-church-day-care-center-fairfield#daycare-program,,,https://winnie.com/place/first-baptist-church-day-care-center-fairfield#contact_form,Fairfield,,,12 mo - 14 yr
,711 Gene Reed Rd,Winnie,winnie (3).csv,https://winnie.com/place/the-childrens-place-birmingham,https://winnie-static.imgix.net/default/daycare_33.png?w=140&h=140&dpr=3&fit=crop&auto=compress%2Cformat,The Children's Place,711 Gene Reed Rd,"Birmingham, AL",maps_home_work,,,,"The Children's Place is a licensed child care center offering daycare programs located at 711 Gene Reed Rd in Huffman in Birmingham, AL. Contact this provider to inquire about prices and availability.",https://winnie.com/place/the-childrens-place-birmingham#daycare-program,,,https://winnie.com/place/the-childrens-place-birmingham#contact_form,,,Huffman,6 w - 11 yr
,1400 Brisbane Ave,Winnie,winnie (3).csv,https://winnie.com/place/glad-tidings-day-care-birmingham,https://winnie-static.imgix.net/default/daycare_42.png?w=140&h=140&dpr=3&fit=crop&auto=compress%2Cformat,Glad Tidings Day Care,1400 Brisbane Ave,"Birmingham, AL",location_on,,,,"Glad Tidings Day Care is a licensed child care center offering daycare programs located at 1400 Brisbane Ave in Birmingham, AL. Contact this provider to inquire about prices and availability.",https://winnie.com/place/glad-tidings-day-care-birmingham#daycare-program,,,https://winnie.com/place/glad-tidings-day-care-birmingham#contact_form,Birmingham,,,24 mo - 14 yr
,5225 Valley Rd,Winnie,winnie (3).csv,https://winnie.com/place/spiritual-growth-ii-fairfield,https://winnie-static.imgix.net/default/daycare_35.png?w=140&h=140&dpr=3&fit=crop&auto=compress%2Cformat,Spiritual Growth Ii,5225 Valley Rd,"Fairfield, AL",location_on,,,,"Spiritual Growth Ii is a licensed child care center offering daycare programs located at 5225 Valley Rd in Fairfield, AL. Contact this provider to inquire about prices and availability.",https://winnie.com/place/spiritual-growth-ii-fairfield#daycare-program,,,https://winnie.com/place/spiritual-growth-ii-fairfield#contact_form,Fairfield,,,6 w - 12 yr
,5509 Timber Hill Rd,Winnie,winnie (3).csv,https://winnie.com/place/joseph-bruno-montessori-diocese-of-bham-birmingham,https://winnie-static.imgix.net/default/daycare_59.png?w=140&h=140&dpr=3&fit=crop&auto=compress%2Cformat,Joseph Bruno Montessori Diocese Of B'Ham,5509 Timber Hill Rd,"Birmingham, AL",location_on,,,,"Joseph Bruno Montessori Diocese Of B'Ham is a license exempt child care center offering daycare programs located at 5509 Timber Hill Rd in Birmingham, AL. Contact this provider to inquire about prices...",https://winnie.com/place/joseph-bruno-montessori-diocese-of-bham-birmingham#daycare-program,,,https://winnie.com/place/joseph-bruno-montessori-diocese-of-bham-birmingham#contact_form,Birmingham,,,18 mo - 6 yr
,504 Broad St,Winnie,winnie (3).csv,https://winnie.com/place/judys-child-care-learning-inc-fultondale,https://winnie-static.imgix.net/default/daycare_19.png?w=140&h=140&dpr=3&fit=crop&auto=compress%2Cformat,Judy's Child Care & Learning Inc,504 Broad St,"Fultondale, AL",location_on,,,,"Judy's Child Care & Learning Inc is a licensed child care center offering daycare programs located at 504 Broad St in Fultondale, AL. Contact this provider to inquire about prices and availability.",https://winnie.com/place/judys-child-care-learning-inc-fultondale#daycare-program,,,https://winnie.com/place/judys-child-care-learning-inc-fultondale#contact_form,Fultondale,,,1 mo - 12 yr
,3102 Allison-Bonnett Memorial Dr,Winnie,winnie (3).csv,https://winnie.com/place/mrs-deannas-kindergarten-daycare-bessemer,https://winnie-static.imgix.net/default/daycare_27.png?w=140&h=140&dpr=3&fit=crop&auto=compress%2Cformat,Mrs. Deanna's Kindergarten & Daycare,3102 Allison-Bonnett Memorial Dr,"Bessemer, AL",location_on,,,,"Mrs. Deanna's Kindergarten & Daycare is a licensed child care center offering daycare programs located at 3102 Allison-Bonnett Memorial Dr in Bessemer, AL. Contact this provider to inquire about...",https://winnie.com/place/mrs-deannas-kindergarten-daycare-bessemer#daycare-program,,,https://winnie.com/place/mrs-deannas-kindergarten-daycare-bessemer#contact_form,Bessemer,,,6 w - 12 yr
,310 6th St S,Winnie,winnie (3).csv,https://winnie.com/place/abc-123-magicland-llc-bessemer,https://winnie-static.imgix.net/default/daycare_30.png?w=140&h=140&dpr=3&fit=crop&auto=compress%2Cformat,"Abc 123 Magicland, Llc",310 6th St S,"Bessemer, AL",location_on,,,,"Abc 123 Magicland, Llc is a licensed child care center offering daycare programs located at 310 6th St S in Bessemer, AL. Contact this provider to inquire about prices and availability.",https://winnie.com/place/abc-123-magicland-llc-bessemer#daycare-program,,,https://winnie.com/place/abc-123-magicland-llc-bessemer#contact_form,Bessemer,,,6 w - 14 yr
,816 Earline St,Winnie,winnie (3).csv,https://winnie.com/place/eternal-life-international-ministries-birmingham,https://winnie-static.imgix.net/default/daycare_41.png?w=140&h=140&dpr=3&fit=crop&auto=compress%2Cformat,Eternal Life International Ministries,816 Earline St,"Birmingham, AL",location_on,,,,"Eternal Life International Ministries is a licensed child care center offering daycare programs located at 816 Earline St in Birmingham, AL. Contact this provider to inquire about prices and...",https://winnie.com/place/eternal-life-international-ministries-birmingham#daycare-program,,,https://winnie.com/place/eternal-life-international-ministries-birmingham#contact_form,Birmingham,,,6 w - 14 yr
,301 Lamplighter Ln,Winnie,winnie (3).csv,https://winnie.com/place/ca-home-child-care-birmingham,https://winnie-static.imgix.net/default/daycare_41.png?w=140&h=140&dpr=3&fit=crop&auto=compress%2Cformat,C.A. Home Child Care,301 Lamplighter Ln,"Birmingham, AL",maps_home_work,,,,"C.A. Home Child Care is a licensed child care center offering daycare programs located at 301 Lamplighter Ln in Sandusky in Birmingham, AL. Contact this provider to inquire about prices and...",https://winnie.com/place/ca-home-child-care-birmingham#daycare-program,,,https://winnie.com/place/ca-home-child-care-birmingham#contact_form,,,Sandusky,12 mo - 12 yr
,1825 Pebble Lake Dr,Winnie,winnie (3).csv,https://winnie.com/place/shellys-home-daycare-birmingham,https://winnie-static.imgix.net/default/daycare_21.png?w=140&h=140&dpr=3&fit=crop&auto=compress%2Cformat,Shelly's Home Daycare,1825 Pebble Lake Dr,"Birmingham, AL",location_on,,,,"Shelly's Home Daycare is a licensed child care center offering daycare programs located at 1825 Pebble Lake Dr in Birmingham, AL. Contact this provider to inquire about prices and availability.",https://winnie.com/place/shellys-home-daycare-birmingham#daycare-program,,,https://winnie.com/place/shellys-home-daycare-birmingham#contact_form,Birmingham,,,3 yr - 14 yr
,412 12th Ct N,Winnie,winnie (3).csv,https://winnie.com/place/parker-comm-sch-tuggle-elem-birmingham,https://winnie-static.imgix.net/default/daycare_49.png?w=140&h=140&dpr=3&fit=crop&auto=compress%2Cformat,Parker Comm Sch - Tuggle Elem,412 12th Ct N,"Birmingham, AL",maps_home_work,,,,"Parker Comm Sch - Tuggle Elem is a license exempt child care center offering daycare programs located at 412 12th Ct N in Enon Ridge in Birmingham, AL. Contact this provider to inquire about prices...",https://winnie.com/place/parker-comm-sch-tuggle-elem-birmingham#daycare-program,,,https://winnie.com/place/parker-comm-sch-tuggle-elem-birmingham#contact_form,,,Enon Ridge,4 yr - 12 yr
,210 64th St S,Winnie,winnie (3).csv,https://winnie.com/place/love-joy-ministries-church-inc-site-1-birmingham,https://winnie-static.imgix.net/default/daycare_27.png?w=140&h=140&dpr=3&fit=crop&auto=compress%2Cformat,Love Joy Ministries Church Inc. Site 1,210 64th St S,"Birmingham, AL",maps_home_work,,,,"Love Joy Ministries Church Inc. Site 1 is a licensed child care center offering daycare programs located at 210 64th St S in South Woodlawn in Birmingham, AL. Contact this provider to inquire about...",https://winnie.com/place/love-joy-ministries-church-inc-site-1-birmingham#daycare-program,,,https://winnie.com/place/love-joy-ministries-church-inc-site-1-birmingham#contact_form,,,South Woodlawn,6 w - 11 yr
,2800 19th St N,Winnie,winnie (3).csv,https://winnie.com/place/deep-life-center-bessemer,https://winnie-static.imgix.net/default/daycare_59.png?w=140&h=140&dpr=3&fit=crop&auto=compress%2Cformat,Deep Life Center,2800 19th St N,"Bessemer, AL",location_on,,,,"Deep Life Center is a licensed child care center offering daycare programs located at 2800 19th St N in Bessemer, AL. Contact this provider to inquire about prices and availability.",https://winnie.com/place/deep-life-center-bessemer#daycare-program,,,https://winnie.com/place/deep-life-center-bessemer#contact_form,Bessemer,,,6 w - 13 yr
,500 Carter Ave,Winnie,winnie (3).csv,https://winnie.com/place/mt-sinai-kiddiekare-bessemer,https://winnie-static.imgix.net/default/daycare_47.png?w=140&h=140&dpr=3&fit=crop&auto=compress%2Cformat,Mt. Sinai Kiddiekare,500 Carter Ave,"Bessemer, AL",location_on,,,,"Mt. Sinai Kiddiekare is a licensed child care center offering daycare programs located at 500 Carter Ave in Bessemer, AL. Contact this provider to inquire about prices and availability.",https://winnie.com/place/mt-sinai-kiddiekare-bessemer#daycare-program,,,https://winnie.com/place/mt-sinai-kiddiekare-bessemer#contact_form,Bessemer,,,6 w - 12 yr
,901 Kingman Rd,Winnie,winnie (3).csv,https://winnie.com/place/sure-foundation-christian-church-cdc-birmingham,https://winnie-static.imgix.net/default/daycare_37.png?w=140&h=140&dpr=3&fit=crop&auto=compress%2Cformat,Sure Foundation Christian Church Cdc,901 Kingman Rd,"Birmingham, AL",maps_home_work,,,,"Sure Foundation Christian Church Cdc is a licensed child care center offering daycare programs located at 901 Kingman Rd in Huffman in Birmingham, AL. Contact this provider to inquire about prices and...",https://winnie.com/place/sure-foundation-christian-church-cdc-birmingham#daycare-program,,,https://winnie.com/place/sure-foundation-christian-church-cdc-birmingham#contact_form,,,Huffman,6 w - 4 yr 11 mo
,7000 Grasselli Rd,Winnie,winnie (3).csv,https://winnie.com/place/ami-first-class-pre-k-fairfield,https://winnie-static.imgix.net/default/daycare_45.png?w=140&h=140&dpr=3&fit=crop&auto=compress%2Cformat,Ami First Class Pre K,7000 Grasselli Rd,"Fairfield, AL",location_on,,,,"Ami First Class Pre K is a licensed child care center offering daycare programs located at 7000 Grasselli Rd in Fairfield, AL. Contact this provider to inquire about prices and availability.",https://winnie.com/place/ami-first-class-pre-k-fairfield#daycare-program,,,https://winnie.com/place/ami-first-class-pre-k-fairfield#contact_form,Fairfield,,,4 yr - 4 yr 11 mo
,620 19th Ave S,Winnie,winnie (3).csv,https://winnie.com/place/baby-toddler-home-daycare-birmingham,https://winnie-static.imgix.net/default/daycare_54.png?w=140&h=140&dpr=3&fit=crop&auto=compress%2Cformat,Baby & Toddler Home Daycare,620 19th Ave S,"Birmingham, AL",maps_home_work,,,,"Baby & Toddler Home Daycare is a licensed child care center offering daycare programs located at 620 19th Ave S in Glen Iris in Birmingham, AL. Contact this provider to inquire about prices and...",https://winnie.com/place/baby-toddler-home-daycare-birmingham#daycare-program,,,https://winnie.com/place/baby-toddler-home-daycare-birmingham#contact_form,,,Glen Iris,1 mo - 4 yr 11 mo
,1101 Alexander St,Winnie,winnie (3).csv,https://winnie.com/place/st-john-baptchdolomite-pres-daycare-birmingham,https://winnie-static.imgix.net/default/daycare_42.png?w=140&h=140&dpr=3&fit=crop&auto=compress%2Cformat,St. John Bapt.Ch.Dolomite Pres. Daycare,1101 Alexander St,"Birmingham, AL",maps_home_work,,,,"St. John Bapt.Ch.Dolomite Pres. Daycare is a licensed child care center offering daycare programs located at 1101 Alexander St in Dolomite in Birmingham, AL. Contact this provider to inquire about...",https://winnie.com/place/st-john-baptchdolomite-pres-daycare-birmingham#daycare-program,,,https://winnie.com/place/st-john-baptchdolomite-pres-daycare-birmingham#contact_form,,,Dolomite,6 w - 12 yr
,245 Fairfax Ave,Winnie,winnie (3).csv,https://winnie.com/place/the-childrens-learning-harbor-bessemer,https://winnie-static.imgix.net/default/daycare_4.png?w=140&h=140&dpr=3&fit=crop&auto=compress%2Cformat,The Children's Learning Harbor,245 Fairfax Ave,"Bessemer, AL",location_on,,,,"The Children's Learning Harbor is a licensed child care center offering daycare programs located at 245 Fairfax Ave in Bessemer, AL. Contact this provider to inquire about prices and availability.",https://winnie.com/place/the-childrens-learning-harbor-bessemer#daycare-program,,,https://winnie.com/place/the-childrens-learning-harbor-bessemer#contact_form,Bessemer,,,6 w - 12 yr
,2130 31st St SW,Winnie,winnie (3).csv,https://winnie.com/place/peggys-day-care-center-birmingham,https://winnie-static.imgix.net/default/daycare_35.png?w=140&h=140&dpr=3&fit=crop&auto=compress%2Cformat,Peggy's Day Care Center,2130 31st St SW,"Birmingham, AL",maps_home_work,,,,"Peggy's Day Care Center is a licensed child care center offering daycare programs located at 2130 31st St SW in Jones Valley in Birmingham, AL. Contact this provider to inquire about prices and...",https://winnie.com/place/peggys-day-care-center-birmingham#daycare-program,,,https://winnie.com/place/peggys-day-care-center-birmingham#contact_form,,,Jones Valley,6 w - 12 yr
,296 Yeager Pkwy,Winnie,winnie (3).csv,https://winnie.com/place/childcare-heaven-dev-center-site-2-pelham,https://winnie-static.imgix.net/default/daycare_30.png?w=140&h=140&dpr=3&fit=crop&auto=compress%2Cformat,Childcare Heaven Dev. Center Site #2,296 Yeager Pkwy,"Pelham, AL",location_on,,,,"Childcare Heaven Dev. Center Site #2 is a licensed child care center offering daycare programs located at 296 Yeager Pkwy in Pelham, AL. Contact this provider to inquire about prices and availability.",https://winnie.com/place/childcare-heaven-dev-center-site-2-pelham#daycare-program,,,https://winnie.com/place/childcare-heaven-dev-center-site-2-pelham#contact_form,Pelham,,,6 w - 13 yr
,6 Abbott Square,Winnie,winnie (3).csv,https://winnie.com/place/hilltop-montessori-school-birmingham,https://winnie-static.imgix.net/default/daycare_10.png?w=140&h=140&dpr=3&fit=crop&auto=compress%2Cformat,Hilltop Montessori School,6 Abbott Square,"Birmingham, AL",location_on,,,,"Hilltop Montessori School is a licensed child care center offering daycare programs located at 6 Abbott Square in Birmingham, AL. Contact this provider to inquire about prices and availability.",https://winnie.com/place/hilltop-montessori-school-birmingham#daycare-program,,,https://winnie.com/place/hilltop-montessori-school-birmingham#contact_form,Birmingham,,,18 mo - 6 yr
,2901 Columbiana Rd,Winnie,winnie (3).csv,https://winnie.com/place/saint-mark-early-learning-center-and-5k-vestavia-hills,https://winnie-static.imgix.net/default/daycare_36.png?w=140&h=140&dpr=3&fit=crop&auto=compress%2Cformat,Saint Mark Early Learning Center and 5K,2901 Columbiana Rd,"Vestavia Hills, AL",location_on,,,,"Saint Mark Early Learning Center and 5K is a licensed child care center offering daycare programs located at 2901 Columbiana Rd in Vestavia Hills, AL. Contact this provider to inquire about prices and...",https://winnie.com/place/saint-mark-early-learning-center-and-5k-vestavia-hills#daycare-program,,,https://winnie.com/place/saint-mark-early-learning-center-and-5k-vestavia-hills#contact_form,Vestavia Hills,,,3 mo - 6 yr
,1823 20th St N,Winnie,winnie (3).csv,https://winnie.com/place/dorothys-educational-learning-lab-birmingham,https://winnie-static.imgix.net/default/daycare_5.png?w=140&h=140&dpr=3&fit=crop&auto=compress%2Cformat,Dorothy's Educational Learning Lab,1823 20th St N,"Birmingham, AL",maps_home_work,,,,"Dorothy's Educational Learning Lab is a licensed child care center offering daycare programs located at 1823 20th St N in Druid Hills in Birmingham, AL. Contact this provider to inquire about prices...",https://winnie.com/place/dorothys-educational-learning-lab-birmingham#daycare-program,,,https://winnie.com/place/dorothys-educational-learning-lab-birmingham#contact_form,,,Druid Hills,1 mo - 16 yr
,501 Princeton Ave SW,Winnie,winnie (3).csv,https://winnie.com/place/abc-princeton-day-care-kindergarten-birmingham,https://winnie-static.imgix.net/default/daycare_12.png?w=140&h=140&dpr=3&fit=crop&auto=compress%2Cformat,Abc Princeton Day Care & Kindergarten,501 Princeton Ave SW,"Birmingham, AL",maps_home_work,,,,"Abc Princeton Day Care & Kindergarten is a licensed child care center offering daycare programs located at 501 Princeton Ave SW in Arlington - West End in Birmingham, AL. Contact this provider to...",https://winnie.com/place/abc-princeton-day-care-kindergarten-birmingham#daycare-program,,,https://winnie.com/place/abc-princeton-day-care-kindergarten-birmingham#contact_form,,,Arlington - West End,6 w - 14 yr
,1616 Jefferson Ave SW,Winnie,winnie (3).csv,https://winnie.com/place/instep-ministries-day-care-birmingham,https://winnie-static.imgix.net/default/daycare_28.png?w=140&h=140&dpr=3&fit=crop&auto=compress%2Cformat,Instep Ministries Day Care,1616 Jefferson Ave SW,"Birmingham, AL",maps_home_work,,,,"Instep Ministries Day Care is a licensed child care center offering daycare programs located at 1616 Jefferson Ave SW in West End Manor in Birmingham, AL. Contact this provider to inquire about prices...",https://winnie.com/place/instep-ministries-day-care-birmingham#daycare-program,,,https://winnie.com/place/instep-ministries-day-care-birmingham#contact_form,,,West End Manor,6 w - 13 yr
,2975 Pelham Pkwy,Winnie,winnie (3).csv,https://winnie.com/place/school-for-amazing-kids-pelham,https://winnie-static.imgix.net/default/daycare_7.png?w=140&h=140&dpr=3&fit=crop&auto=compress%2Cformat,"School For Amazing Kids, Pelham",2975 Pelham Pkwy,"Pelham, AL",location_on,,,,"School For Amazing Kids, Pelham is a licensed child care center offering daycare programs located at 2975 Pelham Pkwy in Pelham, AL. Contact this provider to inquire about prices and availability.",https://winnie.com/place/school-for-amazing-kids-pelham#daycare-program,,,https://winnie.com/place/school-for-amazing-kids-pelham#contact_form,Pelham,,,6 w - 12 yr
,140 Riverchase Pkwy E,Winnie,winnie (3).csv,https://winnie.com/place/the-caring-corner-huggs-kisses-hoover,https://winnie-static.imgix.net/default/daycare_41.png?w=140&h=140&dpr=3&fit=crop&auto=compress%2Cformat,The Caring Corner Huggs & Kisses,140 Riverchase Pkwy E,"Hoover, AL",location_on,,,,"The Caring Corner Huggs & Kisses is a licensed child care center offering daycare programs located at 140 Riverchase Pkwy E in Hoover, AL. Contact this provider to inquire about prices and...",https://winnie.com/place/the-caring-corner-huggs-kisses-hoover#daycare-program,,,https://winnie.com/place/the-caring-corner-huggs-kisses-hoover#contact_form,Hoover,,,2 mo - 12 yr
,714 12th St SW,Winnie,winnie (3).csv,https://winnie.com/place/west-end-comm-sch-hemphill-birmingham,https://winnie-static.imgix.net/default/daycare_33.png?w=140&h=140&dpr=3&fit=crop&auto=compress%2Cformat,West End Comm Sch - Hemphill,714 12th St SW,"Birmingham, AL",maps_home_work,,,,"West End Comm Sch - Hemphill is a license exempt child care center offering daycare programs located at 714 12th St SW in Arlington - West End in Birmingham, AL. Contact this provider to inquire about...",https://winnie.com/place/west-end-comm-sch-hemphill-birmingham#daycare-program,,,https://winnie.com/place/west-end-comm-sch-hemphill-birmingham#contact_form,,,Arlington - West End,4 yr - 6 yr
,816 Florentine Dr,Winnie,winnie (3).csv,https://winnie.com/place/tracys-treasure-company-llc-birmingham,https://winnie-static.imgix.net/default/daycare_29.png?w=140&h=140&dpr=3&fit=crop&auto=compress%2Cformat,Tracy's Treasure Company Llc,816 Florentine Dr,"Birmingham, AL",maps_home_work,,,,"Tracy's Treasure Company Llc is a licensed child care center offering daycare programs located at 816 Florentine Dr in Spring Lake in Birmingham, AL. Contact this provider to inquire about prices and...",https://winnie.com/place/tracys-treasure-company-llc-birmingham#daycare-program,,,https://winnie.com/place/tracys-treasure-company-llc-birmingham#contact_form,,,Spring Lake,6 w - 12 yr
,2725 24th St SW,Winnie,winnie (3).csv,https://winnie.com/place/canaan-land-learning-enrichment-center-birmingham,https://winnie-static.imgix.net/default/daycare_51.png?w=140&h=140&dpr=3&fit=crop&auto=compress%2Cformat,Canaan Land Learning Enrichment Center,2725 24th St SW,"Birmingham, AL",maps_home_work,,,,"Canaan Land Learning Enrichment Center is a licensed child care center offering daycare programs located at 2725 24th St SW in Garden Highlands in Birmingham, AL. Contact this provider to inquire...",https://winnie.com/place/canaan-land-learning-enrichment-center-birmingham#daycare-program,,,https://winnie.com/place/canaan-land-learning-enrichment-center-birmingham#contact_form,,,Garden Highlands,4 yr - 6 yr
,1740 Cleburn Ave,Winnie,winnie (3).csv,https://winnie.com/place/new-hope-baptist-church-kindergarten-day-care-birmingham,https://winnie-static.imgix.net/default/daycare_55.png?w=140&h=140&dpr=3&fit=crop&auto=compress%2Cformat,New Hope Baptist Church Kindergarten & Day Care,1740 Cleburn Ave,"Birmingham, AL",maps_home_work,,,,"New Hope Baptist Church Kindergarten & Day Care is a licensed child care center offering daycare programs located at 1740 Cleburn Ave in West End Manor in Birmingham, AL. Contact this provider to...",https://winnie.com/place/new-hope-baptist-church-kindergarten-day-care-birmingham#daycare-program,,,https://winnie.com/place/new-hope-baptist-church-kindergarten-day-care-birmingham#contact_form,,,West End Manor,4 yr - 12 yr
,7400 London Ave,Winnie,winnie (3).csv,https://winnie.com/place/new-rising-star-miss-bapt-ch-site-ii-birmingham,https://winnie-static.imgix.net/default/daycare_58.png?w=140&h=140&dpr=3&fit=crop&auto=compress%2Cformat,New Rising Star Miss Bapt Ch -Site Ii,7400 London Ave,"Birmingham, AL",maps_home_work,,,,"New Rising Star Miss Bapt Ch -Site Ii is a licensed child care center offering daycare programs located at 7400 London Ave in Brown Springs in Birmingham, AL. Contact this provider to inquire about...",https://winnie.com/place/new-rising-star-miss-bapt-ch-site-ii-birmingham#daycare-program,,,https://winnie.com/place/new-rising-star-miss-bapt-ch-site-ii-birmingham#contact_form,,,Brown Springs,6 w - 13 yr
,1720 31st St SW,Winnie,winnie (4).csv,https://winnie.com/place/spiritual-growth-iii-birmingham,https://winnie-static.imgix.net/default/daycare_45.png?w=140&h=140&dpr=3&fit=crop&auto=compress%2Cformat,Spiritual Growth Iii,1720 31st St SW,"Birmingham, AL",maps_home_work,,,,"Spiritual Growth Iii is a licensed child care center offering daycare programs located at 1720 31st St SW in Jones Valley in Birmingham, AL. Contact this provider to inquire about prices and...",https://winnie.com/place/spiritual-growth-iii-birmingham#daycare-program,,,https://winnie.com/place/spiritual-growth-iii-birmingham#contact_form,,,Jones Valley,6 w - 12 yr
,4778 Overton Rd,Winnie,winnie (4).csv,https://winnie.com/place/mitchells-place-inc-birmingham,https://winnie-static.imgix.net/default/daycare_49.png?w=140&h=140&dpr=3&fit=crop&auto=compress%2Cformat,"Mitchell's Place, Inc.",4778 Overton Rd,"Birmingham, AL",location_on,,,,"Mitchell's Place, Inc. is a licensed child care center offering daycare programs located at 4778 Overton Rd in Birmingham, AL. Contact this provider to inquire about prices and availability.",https://winnie.com/place/mitchells-place-inc-birmingham#daycare-program,,,https://winnie.com/place/mitchells-place-inc-birmingham#contact_form,Birmingham,,,24 mo - 11 yr
,610 Columbiana Rd,Winnie,winnie (4).csv,https://winnie.com/place/abc-daycare-kindergarten-birmingham,https://winnie-static.imgix.net/default/daycare_10.png?w=140&h=140&dpr=3&fit=crop&auto=compress%2Cformat,ABC Daycare & Kindergarten,610 Columbiana Rd,"Birmingham, AL",location_on,,,,"ABC Daycare & Kindergarten is a licensed child care center offering daycare programs located at 610 Columbiana Rd in Birmingham, AL. Contact this provider to inquire about prices and availability.",https://winnie.com/place/abc-daycare-kindergarten-birmingham#daycare-program,,,https://winnie.com/place/abc-daycare-kindergarten-birmingham#contact_form,Birmingham,,,6 w - 12 yr
,900 Hall Ave,Winnie,winnie (4).csv,https://winnie.com/place/rens-angels-daycare-learning-center-bessemer,https://winnie-static.imgix.net/default/daycare_48.png?w=140&h=140&dpr=3&fit=crop&auto=compress%2Cformat,Ren's Angels Daycare & Learning Center,900 Hall Ave,"Bessemer, AL",location_on,,,,"Ren's Angels Daycare & Learning Center is a licensed child care center offering daycare programs located at 900 Hall Ave in Bessemer, AL. Contact this provider to inquire about prices and...",https://winnie.com/place/rens-angels-daycare-learning-center-bessemer#daycare-program,,,https://winnie.com/place/rens-angels-daycare-learning-center-bessemer#contact_form,Bessemer,,,6 w - 13 yr
,1325 Alford Ave,Winnie,winnie (4).csv,https://winnie.com/place/montessori-kids-universe-of-hoover-birmingham,https://winnie-static.imgix.net/default/daycare_11.png?w=140&h=140&dpr=3&fit=crop&auto=compress%2Cformat,Montessori Kids Universe Of Hoover,1325 Alford Ave,"Birmingham, AL",location_on,,,,"Montessori Kids Universe Of Hoover is a licensed child care center offering daycare programs located at 1325 Alford Ave in Birmingham, AL. Contact this provider to inquire about prices and...",https://winnie.com/place/montessori-kids-universe-of-hoover-birmingham#daycare-program,,,https://winnie.com/place/montessori-kids-universe-of-hoover-birmingham#contact_form,Birmingham,,,6 w - 17 yr
,120 Houston Dr,Winnie,winnie (4).csv,https://winnie.com/place/baby-luv-day-care-bessemer,https://winnie-static.imgix.net/default/daycare_5.png?w=140&h=140&dpr=3&fit=crop&auto=compress%2Cformat,Baby Luv Day Care,120 Houston Dr,"Bessemer, AL",location_on,,,,"Baby Luv Day Care is a licensed child care center offering daycare programs located at 120 Houston Dr in Bessemer, AL. Contact this provider to inquire about prices and availability.",https://winnie.com/place/baby-luv-day-care-bessemer#daycare-program,,,https://winnie.com/place/baby-luv-day-care-bessemer#contact_form,Bessemer,,,6 w - 14 yr
,1698 Tuscaloosa Ave,Winnie,winnie (4).csv,https://winnie.com/place/our-future-ministry-birmingham,https://winnie-static.imgix.net/default/daycare_59.png?w=140&h=140&dpr=3&fit=crop&auto=compress%2Cformat,Our Future Ministry,1698 Tuscaloosa Ave,"Birmingham, AL",maps_home_work,,,,"Our Future Ministry is a licensed child care center offering daycare programs located at 1698 Tuscaloosa Ave in Oakwood Place in Birmingham, AL. Contact this provider to inquire about prices and...",https://winnie.com/place/our-future-ministry-birmingham#daycare-program,,,https://winnie.com/place/our-future-ministry-birmingham#contact_form,,,Oakwood Place,24 mo - 12 yr
,2500 35th Ave N,Winnie,winnie (4).csv,https://winnie.com/place/al-stem-ed-early-childhood-learning-ctr-birmingham,https://winnie-static.imgix.net/default/daycare_52.png?w=140&h=140&dpr=3&fit=crop&auto=compress%2Cformat,Al Stem Ed. Early Childhood Learning Ctr,2500 35th Ave N,"Birmingham, AL",maps_home_work,,,,"Al Stem Ed. Early Childhood Learning Ctr is a licensed child care center offering daycare programs located at 2500 35th Ave N in North Birmingham in Birmingham, AL. Contact this provider to inquire...",https://winnie.com/place/al-stem-ed-early-childhood-learning-ctr-birmingham#daycare-program,,,https://winnie.com/place/al-stem-ed-early-childhood-learning-ctr-birmingham#contact_form,,,North Birmingham,6 w - 16 yr
,60 Roebuck Dr,Winnie,winnie (4).csv,https://winnie.com/place/monument-of-love-christian-life-ministry-birmingham,https://winnie-static.imgix.net/default/daycare_32.png?w=140&h=140&dpr=3&fit=crop&auto=compress%2Cformat,Monument Of Love Christian Life Ministry,60 Roebuck Dr,"Birmingham, AL",maps_home_work,,,,"Monument Of Love Christian Life Ministry is a licensed child care center offering daycare programs located at 60 Roebuck Dr in Roebuck in Birmingham, AL. Contact this provider to inquire about prices...",https://winnie.com/place/monument-of-love-christian-life-ministry-birmingham#daycare-program,,,https://winnie.com/place/monument-of-love-christian-life-ministry-birmingham#contact_form,,,Roebuck,6 w - 12 yr
,9084 Parkway E,Winnie,winnie (4).csv,https://winnie.com/place/the-learning-express-childcare-center-birmingham,https://winnie-static.imgix.net/default/daycare_28.png?w=140&h=140&dpr=3&fit=crop&auto=compress%2Cformat,The Learning Express Childcare Center,9084 Parkway E,"Birmingham, AL",maps_home_work,,,,"The Learning Express Childcare Center is a licensed child care center offering daycare programs located at 9084 Parkway E in Roebuck in Birmingham, AL. Contact this provider to inquire about prices...",https://winnie.com/place/the-learning-express-childcare-center-birmingham#daycare-program,,,https://winnie.com/place/the-learning-express-childcare-center-birmingham#contact_form,,,Roebuck,6 w - 12 yr
,8521 Division Ave,Winnie,winnie (4).csv,https://winnie.com/place/40-child-care-achievement-ministry-birmingham,https://winnie-static.imgix.net/default/daycare_16.png?w=140&h=140&dpr=3&fit=crop&auto=compress%2Cformat,40 Child Care Achievement Ministry,8521 Division Ave,"Birmingham, AL",maps_home_work,,,,"40 Child Care Achievement Ministry is a licensed child care center offering daycare programs located at 8521 Division Ave in South Eastlake in Birmingham, AL. Contact this provider to inquire about...",https://winnie.com/place/40-child-care-achievement-ministry-birmingham#daycare-program,,,https://winnie.com/place/40-child-care-achievement-ministry-birmingham#contact_form,,,South Eastlake,1 mo - 14 yr
,831 Eastern Valley Rd,Winnie,winnie (4).csv,https://winnie.com/place/cornerstone-daycare-bessemer-2,https://winnie-static.imgix.net/default/daycare_26.png?w=140&h=140&dpr=3&fit=crop&auto=compress%2Cformat,Cornerstone Daycare,831 Eastern Valley Rd,"Bessemer, AL",location_on,,,,"Cornerstone Daycare is a licensed child care center offering daycare programs located at 831 Eastern Valley Rd in Bessemer, AL. Contact this provider to inquire about prices and availability.",https://winnie.com/place/cornerstone-daycare-bessemer-2#daycare-program,,,https://winnie.com/place/cornerstone-daycare-bessemer-2#contact_form,Bessemer,,,6 w - 12 yr
,300 32nd St S,Winnie,winnie (4).csv,https://winnie.com/place/just-like-home-daycare-bessemer,https://winnie-static.imgix.net/default/daycare_44.png?w=140&h=140&dpr=3&fit=crop&auto=compress%2Cformat,Just Like Home Daycare,300 32nd St S,"Bessemer, AL",location_on,,,,"Just Like Home Daycare is a licensed child care center offering daycare programs located at 300 32nd St S in Bessemer, AL. Contact this provider to inquire about prices and availability.",https://winnie.com/place/just-like-home-daycare-bessemer#daycare-program,,,https://winnie.com/place/just-like-home-daycare-bessemer#contact_form,Bessemer,,,6 w - 18 yr
,2821 Lomb Ave,Winnie,winnie (4).csv,https://winnie.com/place/metropolitan-day-school-birmingham,https://winnie-static.imgix.net/default/daycare_28.png?w=140&h=140&dpr=3&fit=crop&auto=compress%2Cformat,Metropolitan Day School,2821 Lomb Ave,"Birmingham, AL",maps_home_work,,,,"Metropolitan Day School is a licensed child care center offering daycare programs located at 2821 Lomb Ave in Rising - West Princeton in Birmingham, AL. Contact this provider to inquire about prices...",https://winnie.com/place/metropolitan-day-school-birmingham#daycare-program,,,https://winnie.com/place/metropolitan-day-school-birmingham#contact_form,,,Rising - West Princeton,4 yr - 12 yr
,7901 1st Ave N,Winnie,winnie (4).csv,https://winnie.com/place/st-barnabas-catholic-school-birmingham,https://winnie-static.imgix.net/default/daycare_34.png?w=140&h=140&dpr=3&fit=crop&auto=compress%2Cformat,St. Barnabas Catholic School,7901 1st Ave N,"Birmingham, AL",maps_home_work,,,,"St. Barnabas Catholic School is a licensed child care center offering daycare programs located at 7901 1st Ave N in South Eastlake in Birmingham, AL. Contact this provider to inquire about prices and...",https://winnie.com/place/st-barnabas-catholic-school-birmingham#daycare-program,,,https://winnie.com/place/st-barnabas-catholic-school-birmingham#contact_form,,,South Eastlake,4 yr - 4 yr 11 mo
,1600 7th Ave S,Winnie,winnie (4).csv,https://winnie.com/place/near-and-dear-child-care-ctr-birmingham,https://winnie-static.imgix.net/default/daycare_35.png?w=140&h=140&dpr=3&fit=crop&auto=compress%2Cformat,Near And Dear Child Care Ctr,1600 7th Ave S,"Birmingham, AL",maps_home_work,,,,"Near And Dear Child Care Ctr is a licensed child care center offering daycare programs located at 1600 7th Ave S in Five Points South in Birmingham, AL. Contact this provider to inquire about prices...",https://winnie.com/place/near-and-dear-child-care-ctr-birmingham#daycare-program,,,https://winnie.com/place/near-and-dear-child-care-ctr-birmingham#contact_form,,,Five Points South,6 w - 13 yr
,7833 1st Ave N,Winnie,winnie (4).csv,https://winnie.com/place/life-changing-worship-center-birmingham,https://winnie-static.imgix.net/default/daycare_43.png?w=140&h=140&dpr=3&fit=crop&auto=compress%2Cformat,Life Changing Worship Center,7833 1st Ave N,"Birmingham, AL",maps_home_work,,,,"Life Changing Worship Center is a licensed child care center offering daycare programs located at 7833 1st Ave N in South Eastlake in Birmingham, AL. Contact this provider to inquire about prices and...",https://winnie.com/place/life-changing-worship-center-birmingham#daycare-program,,,https://winnie.com/place/life-changing-worship-center-birmingham#contact_form,,,South Eastlake,6 w - 12 yr
,1033 22nd St S,Winnie,winnie (4).csv,https://winnie.com/place/ccr-st-vincent-head-start-program-birmingham,https://winnie-static.imgix.net/default/daycare_2.png?w=140&h=140&dpr=3&fit=crop&auto=compress%2Cformat,Ccr St. Vincent Head Start Program,1033 22nd St S,"Birmingham, AL",maps_home_work,,,,"Ccr St. Vincent Head Start Program is a licensed child care center offering daycare programs located at 1033 22nd St S in Five Points South in Birmingham, AL. Contact this provider to inquire about...",https://winnie.com/place/ccr-st-vincent-head-start-program-birmingham#daycare-program,,,https://winnie.com/place/ccr-st-vincent-head-start-program-birmingham#contact_form,,,Five Points South,0 mo - 4 yr 11 mo
,1501 4th Ave SW,Winnie,winnie (4).csv,https://winnie.com/place/ymca-legacy-bessemer,https://winnie-static.imgix.net/default/daycare_41.png?w=140&h=140&dpr=3&fit=crop&auto=compress%2Cformat,Ymca - Legacy,1501 4th Ave SW,"Bessemer, AL",location_on,,,,"Ymca - Legacy is a license exempt child care center offering daycare programs located at 1501 4th Ave SW in Bessemer, AL. Contact this provider to inquire about prices and availability.",https://winnie.com/place/ymca-legacy-bessemer#daycare-program,,,https://winnie.com/place/ymca-legacy-bessemer#contact_form,Bessemer,,,5 yr - 18 yr
,4445 Montevallo Rd,Winnie,winnie (4).csv,https://winnie.com/place/mcelwain-baptist-child-development-center-birmingham,https://winnie-static.imgix.net/default/daycare_47.png?w=140&h=140&dpr=3&fit=crop&auto=compress%2Cformat,Mcelwain Baptist Child Development Center,4445 Montevallo Rd,"Birmingham, AL",maps_home_work,,,,"Mcelwain Baptist Child Development Center is a licensed child care center offering daycare programs located at 4445 Montevallo Rd in Crestline in Birmingham, AL. Contact this provider to inquire about...",https://winnie.com/place/mcelwain-baptist-child-development-center-birmingham#daycare-program,,,https://winnie.com/place/mcelwain-baptist-child-development-center-birmingham#contact_form,,,Crestline,6 w - 6 yr
,813 8th St N,Winnie,winnie (4).csv,https://winnie.com/place/little-house-for-little-people-bessemer-2,https://winnie-static.imgix.net/default/daycare_58.png?w=140&h=140&dpr=3&fit=crop&auto=compress%2Cformat,Little House For Little People,813 8th St N,"Bessemer, AL",location_on,,,,"Little House For Little People is a licensed child care center offering daycare programs located at 813 8th St N in Bessemer, AL. Contact this provider to inquire about prices and availability.",https://winnie.com/place/little-house-for-little-people-bessemer-2#daycare-program,,,https://winnie.com/place/little-house-for-little-people-bessemer-2#contact_form,Bessemer,,,1 mo - 13 yr
,200 Ridge Dr,Winnie,winnie (4).csv,https://winnie.com/place/lil-aangels-learning-center-llc-pelham,https://winnie-static.imgix.net/default/daycare_9.png?w=140&h=140&dpr=3&fit=crop&auto=compress%2Cformat,"Lil Aangels Learning Center, LLC",200 Ridge Dr,"Pelham, AL",location_on,,,,"Lil Aangels Learning Center, LLC is a licensed child care center offering daycare programs located at 200 Ridge Dr in Pelham, AL. Contact this provider to inquire about prices and availability.",https://winnie.com/place/lil-aangels-learning-center-llc-pelham#daycare-program,,,https://winnie.com/place/lil-aangels-learning-center-llc-pelham#contact_form,Pelham,,,6 w - 8 yr
,1901 Woodland Ave SW,Winnie,winnie (4).csv,https://winnie.com/place/cute-giggles-childcare-birmingham,https://winnie-static.imgix.net/default/daycare_59.png?w=140&h=140&dpr=3&fit=crop&auto=compress%2Cformat,Cute Giggles Childcare,1901 Woodland Ave SW,"Birmingham, AL",maps_home_work,,,,"Cute Giggles Childcare is a licensed child care center offering daycare programs located at 1901 Woodland Ave SW in Oakwood Place in Birmingham, AL. Contact this provider to inquire about prices and...",https://winnie.com/place/cute-giggles-childcare-birmingham#daycare-program,,,https://winnie.com/place/cute-giggles-childcare-birmingham#contact_form,,,Oakwood Place,6 w - 13 yr
,3010 Dartmouth Ave,Winnie,winnie (4).csv,https://winnie.com/place/just-like-home-dc-dev-ctr-phase-3-inc-bessemer,https://winnie-static.imgix.net/default/daycare_20.png?w=140&h=140&dpr=3&fit=crop&auto=compress%2Cformat,Just Like Home Dc & Dev Ctr Phase 3 Inc.,3010 Dartmouth Ave,"Bessemer, AL",location_on,,,,"Just Like Home Dc & Dev Ctr Phase 3 Inc. is a licensed child care center offering daycare programs located at 3010 Dartmouth Ave in Bessemer, AL. Contact this provider to inquire about prices and...",https://winnie.com/place/just-like-home-dc-dev-ctr-phase-3-inc-bessemer#daycare-program,,,https://winnie.com/place/just-like-home-dc-dev-ctr-phase-3-inc-bessemer#contact_form,Bessemer,,,3 yr - 18 yr
,3050 Lee St,Winnie,winnie (4).csv,https://winnie.com/place/chase-youth-center-pelham,https://winnie-static.imgix.net/default/daycare_14.png?w=140&h=140&dpr=3&fit=crop&auto=compress%2Cformat,Chase Youth Center,3050 Lee St,"Pelham, AL",location_on,,,,"Chase Youth Center is a licensed child care center offering daycare programs located at 3050 Lee St in Pelham, AL. Contact this provider to inquire about prices and availability.",https://winnie.com/place/chase-youth-center-pelham#daycare-program,,,https://winnie.com/place/chase-youth-center-pelham#contact_form,Pelham,,,5 yr - 15 yr
,143 Seminole Cir,Winnie,winnie (4).csv,https://winnie.com/place/mount-pilgrim-christian-daycare-fairfield,https://winnie-static.imgix.net/default/daycare_42.png?w=140&h=140&dpr=3&fit=crop&auto=compress%2Cformat,Mount Pilgrim Christian Daycare,143 Seminole Cir,"Fairfield, AL",location_on,,,,"Mount Pilgrim Christian Daycare is a licensed child care center offering daycare programs located at 143 Seminole Cir in Fairfield, AL. Contact this provider to inquire about prices and availability.",https://winnie.com/place/mount-pilgrim-christian-daycare-fairfield#daycare-program,,,https://winnie.com/place/mount-pilgrim-christian-daycare-fairfield#contact_form,Fairfield,,,6 w - 12 yr
,1716 5th Ave N,Winnie,winnie (4).csv,https://winnie.com/place/huggs-kisses-inc-birmingham,https://winnie-static.imgix.net/default/daycare_57.png?w=140&h=140&dpr=3&fit=crop&auto=compress%2Cformat,"Huggs & Kisses, Inc",1716 5th Ave N,"Birmingham, AL",maps_home_work,,,,"Huggs & Kisses, Inc is a licensed child care center offering daycare programs located at 1716 5th Ave N in Birmingham Civil Rights District in Birmingham, AL. Contact this provider to inquire about...",https://winnie.com/place/huggs-kisses-inc-birmingham#daycare-program,,,https://winnie.com/place/huggs-kisses-inc-birmingham#contact_form,,,Birmingham Civil Rights District,6 w - 15 yr
,28 3rd Ave S,Winnie,winnie (4).csv,https://winnie.com/place/precious-tots-child-development-center-birmingham,https://winnie-static.imgix.net/default/daycare_5.png?w=140&h=140&dpr=3&fit=crop&auto=compress%2Cformat,Precious Tots Child Development Center,28 3rd Ave S,"Birmingham, AL",maps_home_work,,,,"Precious Tots Child Development Center is a licensed child care center offering daycare programs located at 28 3rd Ave S in North Titusville in Birmingham, AL. Contact this provider to inquire about...",https://winnie.com/place/precious-tots-child-development-center-birmingham#daycare-program,,,https://winnie.com/place/precious-tots-child-development-center-birmingham#contact_form,,,North Titusville,24 mo - 12 yr
,1200 Reverend Abraham Woods Jr Boulevard,Winnie,winnie (4).csv,https://winnie.com/place/todaycare-ssa-child-dev-center-birmingham,https://winnie-static.imgix.net/default/daycare_33.png?w=140&h=140&dpr=3&fit=crop&auto=compress%2Cformat,Todaycare Ssa Child Dev Center,1200 Reverend Abraham Woods Jr Boulevard,"Birmingham, AL",maps_home_work,,,,"Todaycare Ssa Child Dev Center is a licensed child care center offering daycare programs located at 1200 Reverend Abraham Woods Jr Boulevard in Fountain Heights in Birmingham, AL. Contact this...",https://winnie.com/place/todaycare-ssa-child-dev-center-birmingham#daycare-program,,,https://winnie.com/place/todaycare-ssa-child-dev-center-birmingham#contact_form,,,Fountain Heights,6 w - 12 yr
,1533 Montgomery Hwy,Winnie,winnie (4).csv,https://winnie.com/place/mini-marvels-too-hoover,https://winnie-static.imgix.net/default/daycare_29.png?w=140&h=140&dpr=3&fit=crop&auto=compress%2Cformat,Mini Marvels Too,1533 Montgomery Hwy,"Hoover, AL",location_on,,,,"Mini Marvels Too is a licensed child care center offering daycare programs located at 1533 Montgomery Hwy in Hoover, AL. Contact this provider to inquire about prices and availability.",https://winnie.com/place/mini-marvels-too-hoover#daycare-program,,,https://winnie.com/place/mini-marvels-too-hoover#contact_form,Hoover,,,6 w - 12 yr
,3121 Cleburn Ave,Winnie,winnie (4).csv,https://winnie.com/place/wee-willies-child-development-center-birmingham,https://winnie-static.imgix.net/default/daycare_57.png?w=140&h=140&dpr=3&fit=crop&auto=compress%2Cformat,Wee Willie's Child Development Center,3121 Cleburn Ave,"Birmingham, AL",maps_home_work,,,,"Wee Willie's Child Development Center is a licensed child care center offering daycare programs located at 3121 Cleburn Ave in Germania Park in Birmingham, AL. Contact this provider to inquire about...",https://winnie.com/place/wee-willies-child-development-center-birmingham#daycare-program,,,https://winnie.com/place/wee-willies-child-development-center-birmingham#contact_form,,,Germania Park,6 w - 14 yr
,811 Glenn Rd,Winnie,winnie (4).csv,https://winnie.com/place/dunnams-private-school-bessemer,https://winnie-static.imgix.net/default/daycare_45.png?w=140&h=140&dpr=3&fit=crop&auto=compress%2Cformat,Dunnam's Private School,811 Glenn Rd,"Bessemer, AL",location_on,,,,"Dunnam's Private School is a licensed child care center offering daycare programs located at 811 Glenn Rd in Bessemer, AL. Contact this provider to inquire about prices and availability.",https://winnie.com/place/dunnams-private-school-bessemer#daycare-program,,,https://winnie.com/place/dunnams-private-school-bessemer#contact_form,Bessemer,,,6 w - 12 yr
,3819 42nd Ave N,Winnie,winnie (4).csv,https://winnie.com/place/steps-above-daycare-birmingham,https://winnie-static.imgix.net/default/daycare_60.png?w=140&h=140&dpr=3&fit=crop&auto=compress%2Cformat,Steps Above Daycare,3819 42nd Ave N,"Birmingham, AL",maps_home_work,,,,"Steps Above Daycare is a licensed child care center offering daycare programs located at 3819 42nd Ave N in Inglenook in Birmingham, AL. Contact this provider to inquire about prices and availability.",https://winnie.com/place/steps-above-daycare-birmingham#daycare-program,,,https://winnie.com/place/steps-above-daycare-birmingham#contact_form,,,Inglenook,8 mo - 17 yr
,320 Tuscaloosa Ave,Winnie,winnie (4).csv,https://winnie.com/place/kids-first-development-academy-arlington-birmingham,https://winnie-static.imgix.net/default/daycare_57.png?w=140&h=140&dpr=3&fit=crop&auto=compress%2Cformat,Kids First Development Academy Arlington,320 Tuscaloosa Ave,"Birmingham, AL",maps_home_work,,,,"Kids First Development Academy Arlington is a licensed child care center offering daycare programs located at 320 Tuscaloosa Ave in Arlington - West End in Birmingham, AL. Contact this provider to...",https://winnie.com/place/kids-first-development-academy-arlington-birmingham#daycare-program,,,https://winnie.com/place/kids-first-development-academy-arlington-birmingham#contact_form,,,Arlington - West End,1 mo - 12 yr
,1616 Forestdale Blvd,Winnie,winnie (4).csv,https://winnie.com/place/shaping-dreams-daycare-birmingham,https://winnie-static.imgix.net/default/daycare_55.png?w=140&h=140&dpr=3&fit=crop&auto=compress%2Cformat,Shaping Dreams Daycare (2),1616 Forestdale Blvd,"Birmingham, AL",location_on,,,,"Shaping Dreams Daycare (2) is a licensed child care center offering daycare programs located at 1616 Forestdale Blvd in Birmingham, AL. Contact this provider to inquire about prices and availability.",https://winnie.com/place/shaping-dreams-daycare-birmingham#daycare-program,,,https://winnie.com/place/shaping-dreams-daycare-birmingham#contact_form,Birmingham,,,6 w - 12 yr
,444 58th Alley,Winnie,winnie (4).csv,https://winnie.com/place/crumbey-bethel-daycare-and-kindergarten-fairfield,https://winnie-static.imgix.net/default/daycare_54.png?w=140&h=140&dpr=3&fit=crop&auto=compress%2Cformat,Crumbey Bethel Daycare And Kindergarten,444 58th Alley,"Fairfield, AL",location_on,,,,"Crumbey Bethel Daycare And Kindergarten is a licensed child care center offering daycare programs located at 444 58th Alley in Fairfield, AL. Contact this provider to inquire about prices and...",https://winnie.com/place/crumbey-bethel-daycare-and-kindergarten-fairfield#daycare-program,,,https://winnie.com/place/crumbey-bethel-daycare-and-kindergarten-fairfield#contact_form,Fairfield,,,6 w - 12 yr
,118 55th St N,Winnie,winnie (4).csv,https://winnie.com/place/cornerstone-elementary-school-birmingham,https://winnie-static.imgix.net/default/daycare_39.png?w=140&h=140&dpr=3&fit=crop&auto=compress%2Cformat,Cornerstone Elementary School,118 55th St N,"Birmingham, AL",maps_home_work,,,,"Cornerstone Elementary School is a licensed child care center offering daycare programs located at 118 55th St N in Woodlawn in Birmingham, AL. Contact this provider to inquire about prices and...",https://winnie.com/place/cornerstone-elementary-school-birmingham#daycare-program,,,https://winnie.com/place/cornerstone-elementary-school-birmingham#contact_form,,,Woodlawn,4 yr - 12 yr
,2808 Veterans Memorial Dr,Winnie,winnie (4).csv,https://winnie.com/place/just-us-kids-day-care-inc-adamsville,https://winnie-static.imgix.net/default/daycare_27.png?w=140&h=140&dpr=3&fit=crop&auto=compress%2Cformat,Just Us Kids Day Care Inc,2808 Veterans Memorial Dr,"Adamsville, AL",location_on,,,,"Just Us Kids Day Care Inc is a licensed child care center offering daycare programs located at 2808 Veterans Memorial Dr in Adamsville, AL. Contact this provider to inquire about prices and...",https://winnie.com/place/just-us-kids-day-care-inc-adamsville#daycare-program,,,https://winnie.com/place/just-us-kids-day-care-inc-adamsville#contact_form,Adamsville,,,6 w - 15 yr
,4022 4th Ave S,Winnie,winnie (5).csv,https://winnie.com/place/new-hope-christian-daycare-birmingham-2,https://winnie-static.imgix.net/default/daycare_8.png?w=140&h=140&dpr=3&fit=crop&auto=compress%2Cformat,New Hope Christian Daycare (South Avondal),4022 4th Ave S,,maps_home_work,,,,"New Hope Christian Daycare (South Avondal) is a licensed child care center offering daycare programs located at 4022 4th Ave S in Forest Park in Birmingham, AL. Contact this provider to inquire about...",https://winnie.com/place/new-hope-christian-daycare-birmingham-2#daycare-program,,,https://winnie.com/place/new-hope-christian-daycare-birmingham-2#contact_form,"Birmingham, AL",,Forest Park,6 w - 4 yr 11 mo
,5700 5th St S,Winnie,winnie (5).csv,https://winnie.com/place/angels-in-the-sky-day-care-center-bessemer,https://winnie-static.imgix.net/default/daycare_25.png?w=140&h=140&dpr=3&fit=crop&auto=compress%2Cformat,Angels In The Sky Day Care Center,5700 5th St S,Bessemer,location_on,,,,"Angels In The Sky Day Care Center is a licensed child care center offering daycare programs located at 5700 5th St S in Bessemer, AL. Contact this provider to inquire about prices and availability.",https://winnie.com/place/angels-in-the-sky-day-care-center-bessemer#daycare-program,,,https://winnie.com/place/angels-in-the-sky-day-care-center-bessemer#contact_form,"Bessemer, AL",,,6 mo - 12 yr
,108 Brooklane Dr,Winnie,winnie (5).csv,https://winnie.com/place/kidz-konnection-cdc-hueytown,https://winnie-static.imgix.net/default/daycare_8.png?w=140&h=140&dpr=3&fit=crop&auto=compress%2Cformat,Kidz Konnection CDC,108 Brooklane Dr,Hueytown,location_on,,,,"Kidz Konnection CDC is a licensed child care center offering daycare programs located at 108 Brooklane Dr in Hueytown, AL. Contact this provider to inquire about prices and availability.",https://winnie.com/place/kidz-konnection-cdc-hueytown#daycare-program,,,https://winnie.com/place/kidz-konnection-cdc-hueytown#contact_form,"Hueytown, AL",,,1 mo - 14 yr
,613 14th St N,Winnie,winnie (5).csv,https://winnie.com/place/ros-heavenly-angels-llc-bessemer,https://winnie-static.imgix.net/default/daycare_37.png?w=140&h=140&dpr=3&fit=crop&auto=compress%2Cformat,"Ro's Heavenly Angels, LLC",613 14th St N,Bessemer,location_on,,,,"Ro's Heavenly Angels, LLC is a licensed child care center offering daycare programs located at 613 14th St N in Bessemer, AL. Contact this provider to inquire about prices and availability.",https://winnie.com/place/ros-heavenly-angels-llc-bessemer#daycare-program,,,https://winnie.com/place/ros-heavenly-angels-llc-bessemer#contact_form,"Bessemer, AL",,,0 mo - 12 yr
,6914 1st Ave N,Winnie,winnie (5).csv,https://winnie.com/place/mini-blessings-church-birmingham,https://winnie-static.imgix.net/default/daycare_16.png?w=140&h=140&dpr=3&fit=crop&auto=compress%2Cformat,Mini Blessings Church,6914 1st Ave N,,maps_home_work,,,,"Mini Blessings Church is a licensed child care center offering daycare programs located at 6914 1st Ave N in Wahouma in Birmingham, AL. Contact this provider to inquire about prices and availability.",https://winnie.com/place/mini-blessings-church-birmingham#daycare-program,,,https://winnie.com/place/mini-blessings-church-birmingham#contact_form,"Birmingham, AL",,Wahouma,6 w - 14 yr
,121 3rd Ave W,Winnie,winnie (5).csv,https://winnie.com/place/shantaclears-playhouse-birmingham,https://winnie-static.imgix.net/default/daycare_30.png?w=140&h=140&dpr=3&fit=crop&auto=compress%2Cformat,Shantaclear's Playhouse,121 3rd Ave W,,maps_home_work,,,,"Shantaclear's Playhouse is a licensed child care center offering daycare programs located at 121 3rd Ave W in Graymont in Birmingham, AL. Contact this provider to inquire about prices and...",https://winnie.com/place/shantaclears-playhouse-birmingham#daycare-program,,,https://winnie.com/place/shantaclears-playhouse-birmingham#contact_form,"Birmingham, AL",,Graymont,6 w - 16 yr
,8916 Parkway E,Winnie,winnie (5).csv,https://winnie.com/place/trinity-outreach-ministries-birmingham,https://winnie-static.imgix.net/default/daycare_29.png?w=140&h=140&dpr=3&fit=crop&auto=compress%2Cformat,Trinity Outreach Ministries,8916 Parkway E,,maps_home_work,,,,"Trinity Outreach Ministries is a licensed child care center offering daycare programs located at 8916 Parkway E in Roebuck in Birmingham, AL. Contact this provider to inquire about prices and...",https://winnie.com/place/trinity-outreach-ministries-birmingham#daycare-program,,,https://winnie.com/place/trinity-outreach-ministries-birmingham#contact_form,"Birmingham, AL",,Roebuck,1 mo - 12 yr
,223 Ray St,Winnie,winnie (5).csv,https://winnie.com/place/ketas-one-step-to-learning-bessemer,https://winnie-static.imgix.net/default/daycare_52.png?w=140&h=140&dpr=3&fit=crop&auto=compress%2Cformat,Keta's One Step To Learning,223 Ray St,Bessemer,location_on,,,,"Keta's One Step To Learning is a licensed child care center offering daycare programs located at 223 Ray St in Bessemer, AL. Contact this provider to inquire about prices and availability.",https://winnie.com/place/ketas-one-step-to-learning-bessemer#daycare-program,,,https://winnie.com/place/ketas-one-step-to-learning-bessemer#contact_form,"Bessemer, AL",,,6 w - 12 yr
,132 68th St N,Winnie,winnie (5).csv,https://winnie.com/place/sweet-ones-day-care-birmingham,https://winnie-static.imgix.net/default/daycare_52.png?w=140&h=140&dpr=3&fit=crop&auto=compress%2Cformat,Sweet Ones Day Care,132 68th St N,,maps_home_work,,,,"Sweet Ones Day Care is a licensed child care center offering daycare programs located at 132 68th St N in Wahouma in Birmingham, AL. Contact this provider to inquire about prices and availability.",https://winnie.com/place/sweet-ones-day-care-birmingham#daycare-program,,,https://winnie.com/place/sweet-ones-day-care-birmingham#contact_form,"Birmingham, AL",,Wahouma,1 mo - 12 yr
,3965 Parkwood Rd,Winnie,winnie (5).csv,https://winnie.com/place/lighthouse-child-dev-center-llc-bessemer,https://winnie-static.imgix.net/default/daycare_14.png?w=140&h=140&dpr=3&fit=crop&auto=compress%2Cformat,"Lighthouse Child Dev. Center, Llc",3965 Parkwood Rd,Bessemer,location_on,,,,"Lighthouse Child Dev. Center, Llc is a licensed child care center offering daycare programs located at 3965 Parkwood Rd in Bessemer, AL. Contact this provider to inquire about prices and availability.",https://winnie.com/place/lighthouse-child-dev-center-llc-bessemer#daycare-program,,,https://winnie.com/place/lighthouse-child-dev-center-llc-bessemer#contact_form,"Bessemer, AL",,,6 w - 10 yr
,1634 Alemeda Ave SW,Winnie,winnie (5).csv,https://winnie.com/place/loves-child-care-group-home-birmingham,https://winnie-static.imgix.net/default/daycare_46.png?w=140&h=140&dpr=3&fit=crop&auto=compress%2Cformat,Love's Child Care Group Home,1634 Alemeda Ave SW,,maps_home_work,,,,"Love's Child Care Group Home is a licensed child care center offering daycare programs located at 1634 Alemeda Ave SW in West End Manor in Birmingham, AL. Contact this provider to inquire about prices...",https://winnie.com/place/loves-child-care-group-home-birmingham#daycare-program,,,https://winnie.com/place/loves-child-care-group-home-birmingham#contact_form,"Birmingham, AL",,West End Manor,24 mo - 14 yr
,1324 4th Ave N,Winnie,winnie (5).csv,https://winnie.com/place/alabama-stem-education-bessemer,https://winnie-static.imgix.net/default/daycare_49.png?w=140&h=140&dpr=3&fit=crop&auto=compress%2Cformat,Alabama Stem Education,1324 4th Ave N,Bessemer,location_on,,,,"Alabama Stem Education is a licensed child care center offering daycare programs located at 1324 4th Ave N in Bessemer, AL. Contact this provider to inquire about prices and availability.",https://winnie.com/place/alabama-stem-education-bessemer#daycare-program,,,https://winnie.com/place/alabama-stem-education-bessemer#contact_form,"Bessemer, AL",,,24 mo - 16 yr
,520 4th Ave N,Winnie,winnie (5).csv,https://winnie.com/place/neacys-family-childcare-birmingham,https://winnie-static.imgix.net/default/daycare_35.png?w=140&h=140&dpr=3&fit=crop&auto=compress%2Cformat,Neacy's Family Childcare,520 4th Ave N,,maps_home_work,,,,"Neacy's Family Childcare is a licensed child care center offering daycare programs located at 520 4th Ave N in Smithfield in Birmingham, AL. Contact this provider to inquire about prices and...",https://winnie.com/place/neacys-family-childcare-birmingham#daycare-program,,,https://winnie.com/place/neacys-family-childcare-birmingham#contact_form,"Birmingham, AL",,Smithfield,6 w - 12 yr
,3125 Berkley Ave,Winnie,winnie (5).csv,https://winnie.com/place/lil-angels-daycare-dev-center-bessemer,https://winnie-static.imgix.net/default/daycare_28.png?w=140&h=140&dpr=3&fit=crop&auto=compress%2Cformat,Lil' Angels Daycare & Dev. Center,3125 Berkley Ave,Bessemer,location_on,,,,"Lil' Angels Daycare & Dev. Center is a licensed child care center offering daycare programs located at 3125 Berkley Ave in Bessemer, AL. Contact this provider to inquire about prices and availability.",https://winnie.com/place/lil-angels-daycare-dev-center-bessemer#daycare-program,,,https://winnie.com/place/lil-angels-daycare-dev-center-bessemer#contact_form,"Bessemer, AL",,,6 w - 12 yr
,509 Flint Parc Cir,Winnie,winnie (5).csv,https://winnie.com/place/stepping-stones-childcare-llc-bessemer,https://winnie-static.imgix.net/default/daycare_45.png?w=140&h=140&dpr=3&fit=crop&auto=compress%2Cformat,"Stepping Stones Childcare, Llc",509 Flint Parc Cir,Bessemer,location_on,,,,"Stepping Stones Childcare, Llc is a licensed child care center offering daycare programs located at 509 Flint Parc Cir in Bessemer, AL. Contact this provider to inquire about prices and availability.",https://winnie.com/place/stepping-stones-childcare-llc-bessemer#daycare-program,,,https://winnie.com/place/stepping-stones-childcare-llc-bessemer#contact_form,"Bessemer, AL",,,6 w - 14 yr
,307 19th St S,Winnie,winnie (5).csv,https://winnie.com/place/day-cathedral-care-center-birmingham,https://winnie-static.imgix.net/default/daycare_49.png?w=140&h=140&dpr=3&fit=crop&auto=compress%2Cformat,Day Cathedral Care Center,307 19th St S,,maps_home_work,,,,"Day Cathedral Care Center is a licensed child care center offering daycare programs located at 307 19th St S in Five Points South in Birmingham, AL. Contact this provider to inquire about prices and...",https://winnie.com/place/day-cathedral-care-center-birmingham#daycare-program,,,https://winnie.com/place/day-cathedral-care-center-birmingham#contact_form,"Birmingham, AL",,Five Points South,1 mo - 8 yr
,1905 8th Ave N,Winnie,winnie (5).csv,https://winnie.com/place/trinity-love-center-bessemer,https://winnie-static.imgix.net/default/daycare_45.png?w=140&h=140&dpr=3&fit=crop&auto=compress%2Cformat,Trinity Love Center,1905 8th Ave N,Bessemer,location_on,,,,"Trinity Love Center is a licensed child care center offering daycare programs located at 1905 8th Ave N in Bessemer, AL. Contact this provider to inquire about prices and availability.",https://winnie.com/place/trinity-love-center-bessemer#daycare-program,,,https://winnie.com/place/trinity-love-center-bessemer#contact_form,"Bessemer, AL",,,6 w - 15 yr
,6001 Old Leeds Rd,Winnie,winnie (5).csv,https://winnie.com/place/the-church-at-grants-mill-childrens-center-irondale,https://winnie-static.imgix.net/default/daycare_34.png?w=140&h=140&dpr=3&fit=crop&auto=compress%2Cformat,The Church at Grants Mill Children's Center,6001 Old Leeds Rd,Irondale,location_on,,,,"The Church at Grants Mill Children's Center is a licensed child care center offering daycare programs located at 6001 Old Leeds Rd in Irondale, AL. Contact this provider to inquire about prices and...",https://winnie.com/place/the-church-at-grants-mill-childrens-center-irondale#daycare-program,,,https://winnie.com/place/the-church-at-grants-mill-childrens-center-irondale#contact_form,"Irondale, AL",,,6 w - 12 yr
,2321 Locke Ln,Winnie,winnie (5).csv,https://winnie.com/place/first-step-family-day-care-birmingham,https://winnie-static.imgix.net/default/daycare_35.png?w=140&h=140&dpr=3&fit=crop&auto=compress%2Cformat,First Step Family Day Care,2321 Locke Ln,Birmingham,location_on,,,,"First Step Family Day Care is a licensed child care center offering daycare programs located at 2321 Locke Ln in Birmingham, AL. Contact this provider to inquire about prices and availability.",https://winnie.com/place/first-step-family-day-care-birmingham#daycare-program,,,https://winnie.com/place/first-step-family-day-care-birmingham#contact_form,"Birmingham, AL",,,6 w - 14 yr
,937 Allison-Bonnett Memorial Dr,Winnie,winnie (5).csv,https://winnie.com/place/tender-care-playschool-inc-bessemer,https://winnie-static.imgix.net/default/daycare_36.png?w=140&h=140&dpr=3&fit=crop&auto=compress%2Cformat,Tender Care Playschool Inc,937 Allison-Bonnett Memorial Dr,Bessemer,location_on,,,,"Tender Care Playschool Inc is a licensed child care center offering daycare programs located at 937 Allison-Bonnett Memorial Dr in Bessemer, AL. Contact this provider to inquire about prices and...",https://winnie.com/place/tender-care-playschool-inc-bessemer#daycare-program,,,https://winnie.com/place/tender-care-playschool-inc-bessemer#contact_form,"Bessemer, AL",,,6 w - 12 yr
,1011 Brooklane Dr,Winnie,winnie (5).csv,https://winnie.com/place/kee-care-chld-development-center-llc-bessemer,https://winnie-static.imgix.net/default/daycare_36.png?w=140&h=140&dpr=3&fit=crop&auto=compress%2Cformat,"Kee Care Chld Development Center, Llc",1011 Brooklane Dr,Bessemer,location_on,,,,"Kee Care Chld Development Center, Llc is a licensed child care center offering daycare programs located at 1011 Brooklane Dr in Bessemer, AL. Contact this provider to inquire about prices and...",https://winnie.com/place/kee-care-chld-development-center-llc-bessemer#daycare-program,,,https://winnie.com/place/kee-care-chld-development-center-llc-bessemer#contact_form,"Bessemer, AL",,,18 mo - 14 yr
,2019 6th Ave N,Winnie,winnie (5).csv,https://winnie.com/place/advent-episcopal-day-school-birmingham,https://winnie-static.imgix.net/default/daycare_43.png?w=140&h=140&dpr=3&fit=crop&auto=compress%2Cformat,Advent Episcopal Day School,2019 6th Ave N,,maps_home_work,,,,"Advent Episcopal Day School is a license exempt child care center offering daycare programs located at 2019 6th Ave N in Central City in Birmingham, AL. Contact this provider to inquire about prices...",https://winnie.com/place/advent-episcopal-day-school-birmingham#daycare-program,,,https://winnie.com/place/advent-episcopal-day-school-birmingham#contact_form,"Birmingham, AL",,Central City,4 yr - 6 yr
,628 Red Lane Rd,Winnie,winnie (5).csv,https://winnie.com/place/northeast-ymca-1st-class-pre-k-birmingham,https://winnie-static.imgix.net/default/daycare_5.png?w=140&h=140&dpr=3&fit=crop&auto=compress%2Cformat,Northeast YMCA 1st Class Pre-K,628 Red Lane Rd,,maps_home_work,,,,"Northeast YMCA 1st Class Pre-K is a licensed child care center offering daycare programs located at 628 Red Lane Rd in Roebuck in Birmingham, AL. Contact this provider to inquire about prices and...",https://winnie.com/place/northeast-ymca-1st-class-pre-k-birmingham#daycare-program,,,https://winnie.com/place/northeast-ymca-1st-class-pre-k-birmingham#contact_form,"Birmingham, AL",,Roebuck,4 yr - 4 yr 11 mo
,1538 Huffman Rd,Winnie,winnie (5).csv,https://winnie.com/place/kiddie-world-ministry-of-god-center-point,https://winnie-static.imgix.net/default/daycare_60.png?w=140&h=140&dpr=3&fit=crop&auto=compress%2Cformat,Kiddie World Ministry Of God,1538 Huffman Rd,Center Point,location_on,,,,"Kiddie World Ministry Of God is a licensed child care center offering daycare programs located at 1538 Huffman Rd in Center Point, AL. Contact this provider to inquire about prices and availability.",https://winnie.com/place/kiddie-world-ministry-of-god-center-point#daycare-program,,,https://winnie.com/place/kiddie-world-ministry-of-god-center-point#contact_form,"Center Point, AL",,,6 w - 13 yr
,1022 Avenue N,Winnie,winnie (5).csv,https://winnie.com/place/beulah-baptist-church-bessemer,https://winnie-static.imgix.net/default/daycare_30.png?w=140&h=140&dpr=3&fit=crop&auto=compress%2Cformat,Beulah Baptist Church,1022 Avenue N,Bessemer,location_on,,,,"Beulah Baptist Church is a licensed child care center offering daycare programs located at 1022 Avenue N in Bessemer, AL. Contact this provider to inquire about prices and availability.",https://winnie.com/place/beulah-baptist-church-bessemer#daycare-program,,,https://winnie.com/place/beulah-baptist-church-bessemer#contact_form,"Bessemer, AL",,,12 mo - 11 yr
,513 Columbiana Rd,Winnie,winnie (5).csv,https://winnie.com/place/angels-little-child-development-center-birmingham,https://winnie-static.imgix.net/default/daycare_51.png?w=140&h=140&dpr=3&fit=crop&auto=compress%2Cformat,Angels Little Child Development Center,513 Columbiana Rd,Birmingham,location_on,,,,"Angels Little Child Development Center is a licensed child care center offering daycare programs located at 513 Columbiana Rd in Birmingham, AL. Contact this provider to inquire about prices and...",https://winnie.com/place/angels-little-child-development-center-birmingham#daycare-program,,,https://winnie.com/place/angels-little-child-development-center-birmingham#contact_form,"Birmingham, AL",,,6 w - 12 yr
,1805 13th St N,Winnie,winnie (5).csv,https://winnie.com/place/tiny-toes-nursery-and-child-dev-center-bessemer,https://winnie-static.imgix.net/default/daycare_29.png?w=140&h=140&dpr=3&fit=crop&auto=compress%2Cformat,Tiny Toes Nursery And Child Dev Center,1805 13th St N,Bessemer,location_on,,,,"Tiny Toes Nursery And Child Dev Center is a licensed child care center offering daycare programs located at 1805 13th St N in Bessemer, AL. Contact this provider to inquire about prices and...",https://winnie.com/place/tiny-toes-nursery-and-child-dev-center-bessemer#daycare-program,,,https://winnie.com/place/tiny-toes-nursery-and-child-dev-center-bessemer#contact_form,"Bessemer, AL",,,6 w - 13 yr
,2149 47th St Ensley,Winnie,winnie (5).csv,https://winnie.com/place/lambs-of-god-development-center-birmingham,https://winnie-static.imgix.net/default/daycare_18.png?w=140&h=140&dpr=3&fit=crop&auto=compress%2Cformat,Lambs Of God Development Center,2149 47th St Ensley,,maps_home_work,,,,"Lambs Of God Development Center is a licensed child care center offering daycare programs located at 2149 47th St Ensley in Central Park in Birmingham, AL. Contact this provider to inquire about...",https://winnie.com/place/lambs-of-god-development-center-birmingham#daycare-program,,,https://winnie.com/place/lambs-of-god-development-center-birmingham#contact_form,"Birmingham, AL",,Central Park,6 w - 13 yr
,2061 Patton Chapel Rd,Winnie,winnie (5).csv,https://winnie.com/place/st-peter-the-apostle-catholic-church-birmingham,https://winnie-static.imgix.net/default/daycare_16.png?w=140&h=140&dpr=3&fit=crop&auto=compress%2Cformat,St. Peter The Apostle Catholic Church,2061 Patton Chapel Rd,Birmingham,location_on,,,,"St. Peter The Apostle Catholic Church is a licensed child care center offering daycare programs located at 2061 Patton Chapel Rd in Birmingham, AL. Contact this provider to inquire about prices and...",https://winnie.com/place/st-peter-the-apostle-catholic-church-birmingham#daycare-program,,,https://winnie.com/place/st-peter-the-apostle-catholic-church-birmingham#contact_form,"Birmingham, AL",,,18 mo - 12 yr
,101 Woodward Rd,Winnie,winnie (5).csv,https://winnie.com/place/god-chose-hatcher-angels-birmingham,https://winnie-static.imgix.net/default/daycare_42.png?w=140&h=140&dpr=3&fit=crop&auto=compress%2Cformat,God Chose Hatcher Angel's,101 Woodward Rd,Birmingham,location_on,,,,"God Chose Hatcher Angel's is a licensed child care center offering daycare programs located at 101 Woodward Rd in Birmingham, AL. Contact this provider to inquire about prices and availability.",https://winnie.com/place/god-chose-hatcher-angels-birmingham#daycare-program,,,https://winnie.com/place/god-chose-hatcher-angels-birmingham#contact_form,"Birmingham, AL",,,18 mo - 13 yr
,100 Derby Pkwy,Winnie,winnie (5).csv,https://winnie.com/place/einsteins-playground-birmingham,https://winnie-static.imgix.net/default/daycare_39.png?w=140&h=140&dpr=3&fit=crop&auto=compress%2Cformat,Einstein's Playground,100 Derby Pkwy,,maps_home_work,,,,"Einstein's Playground is a licensed child care center offering daycare programs located at 100 Derby Pkwy in Liberty Highlands in Birmingham, AL. Contact this provider to inquire about prices and...",https://winnie.com/place/einsteins-playground-birmingham#daycare-program,,,https://winnie.com/place/einsteins-playground-birmingham#contact_form,"Birmingham, AL",,Liberty Highlands,6 w - 12 yr
,3512 Jefferson Ave SW,Winnie,winnie (5).csv,https://winnie.com/place/korner-kollege-christian-academy-birmingham,https://winnie-static.imgix.net/default/daycare_23.png?w=140&h=140&dpr=3&fit=crop&auto=compress%2Cformat,KORNER KOLLEGE CHRISTIAN ACADEMY,3512 Jefferson Ave SW,,maps_home_work,,,,"KORNER KOLLEGE CHRISTIAN ACADEMY is a licensed child care center offering daycare programs located at 3512 Jefferson Ave SW in Riley in Birmingham, AL. Contact this provider to inquire about prices...",https://winnie.com/place/korner-kollege-christian-academy-birmingham#daycare-program,,,https://winnie.com/place/korner-kollege-christian-academy-birmingham#contact_form,"Birmingham, AL",,Riley,6 w - 13 yr
,1269 Hiawatha Dr NE,Winnie,winnie (5).csv,https://winnie.com/place/peace-and-smiles-day-care-birmingham,https://winnie-static.imgix.net/default/daycare_42.png?w=140&h=140&dpr=3&fit=crop&auto=compress%2Cformat,Peace And Smiles Day Care,1269 Hiawatha Dr NE,Birmingham,location_on,,,,"Peace And Smiles Day Care is a licensed child care center offering daycare programs located at 1269 Hiawatha Dr NE in Birmingham, AL. Contact this provider to inquire about prices and availability.",https://winnie.com/place/peace-and-smiles-day-care-birmingham#daycare-program,,,https://winnie.com/place/peace-and-smiles-day-care-birmingham#contact_form,"Birmingham, AL",,,12 mo - 12 yr
,315 Hillside Dr,Winnie,winnie (5).csv,https://winnie.com/place/for-kids-only-learning-center-inc-trussville,https://winnie-static.imgix.net/default/daycare_23.png?w=140&h=140&dpr=3&fit=crop&auto=compress%2Cformat,FOR KIDS ONLY LEARNING CENTER INC,315 Hillside Dr,Trussville,location_on,,,,"FOR KIDS ONLY LEARNING CENTER INC is a licensed child care center offering daycare programs located at 315 Hillside Dr in Trussville, AL. Contact this provider to inquire about prices and...",https://winnie.com/place/for-kids-only-learning-center-inc-trussville#daycare-program,,,https://winnie.com/place/for-kids-only-learning-center-inc-trussville#contact_form,"Trussville, AL",,,6 w - 12 yr
,501 Mountain Dr,Winnie,winnie (5).csv,https://winnie.com/place/new-beginning-christian-child-dev-ctr-birmingham,https://winnie-static.imgix.net/default/daycare_25.png?w=140&h=140&dpr=3&fit=crop&auto=compress%2Cformat,New Beginning Christian Child Dev. Ctr.,501 Mountain Dr,,maps_home_work,,,,"New Beginning Christian Child Dev. Ctr. is a licensed child care center offering daycare programs located at 501 Mountain Dr in South Roebuck in Birmingham, AL. Contact this provider to inquire about...",https://winnie.com/place/new-beginning-christian-child-dev-ctr-birmingham#daycare-program,,,https://winnie.com/place/new-beginning-christian-child-dev-ctr-birmingham#contact_form,"Birmingham, AL",,South Roebuck,6 w - 12 yr
,1916 19th St N,Winnie,winnie (6).csv,https://winnie.com/place/childcare-heaven-dev-center-bessemer,https://winnie-static.imgix.net/default/daycare_47.png?w=140&h=140&dpr=3&fit=crop&auto=compress%2Cformat,Childcare Heaven Dev. Center,1916 19th St N,Bessemer,location_on,,,,"Childcare Heaven Dev. Center is a licensed child care center offering daycare programs located at 1916 19th St N in Bessemer, AL. Contact this provider to inquire about prices and availability.",https://winnie.com/place/childcare-heaven-dev-center-bessemer#daycare-program,,,https://winnie.com/place/childcare-heaven-dev-center-bessemer#contact_form,"Bessemer, AL",,,6 w - 13 yr
,824-15th Street,Winnie,winnie (6).csv,https://winnie.com/place/canaan-baptist-church-kindergarten-bessemer-2,https://winnie-static.imgix.net/default/daycare_3.png?w=140&h=140&dpr=3&fit=crop&auto=compress%2Cformat,Canaan Baptist Church Kindergarten,824-15th Street,Bessemer,location_on,,,,"Canaan Baptist Church Kindergarten is a licensed child care center offering daycare programs located at 824-15th Street in Bessemer, AL. Contact this provider to inquire about prices and availability.",https://winnie.com/place/canaan-baptist-church-kindergarten-bessemer-2#daycare-program,,,https://winnie.com/place/canaan-baptist-church-kindergarten-bessemer-2#contact_form,"Bessemer, AL",,,18 mo - 6 yr
,7019 1st Ave N,Winnie,winnie (6).csv,https://winnie.com/place/im-a-big-kid-now-birmingham,https://winnie-static.imgix.net/default/daycare_33.png?w=140&h=140&dpr=3&fit=crop&auto=compress%2Cformat,I'M A Big Kid Now,7019 1st Ave N,,maps_home_work,,,,"I'M A Big Kid Now is a licensed child care center offering daycare programs located at 7019 1st Ave N in Eastlake in Birmingham, AL. Contact this provider to inquire about prices and availability.",https://winnie.com/place/im-a-big-kid-now-birmingham#daycare-program,,,https://winnie.com/place/im-a-big-kid-now-birmingham#contact_form,"Birmingham, AL",,Eastlake,1 mo - 4 yr 11 mo
,8933 Roebuck Blvd,Winnie,winnie (6).csv,https://winnie.com/place/faith-bl-comm-ch-dba-gift-of-dream-cdc-birmingham,https://winnie-static.imgix.net/default/daycare_42.png?w=140&h=140&dpr=3&fit=crop&auto=compress%2Cformat,Faith Bl. Comm. Ch Dba Gift Of Dream Cdc,8933 Roebuck Blvd,,maps_home_work,,,,"Faith Bl. Comm. Ch Dba Gift Of Dream Cdc is a licensed child care center offering daycare programs located at 8933 Roebuck Blvd in Roebuck in Birmingham, AL. Contact this provider to inquire about...",https://winnie.com/place/faith-bl-comm-ch-dba-gift-of-dream-cdc-birmingham#daycare-program,,,https://winnie.com/place/faith-bl-comm-ch-dba-gift-of-dream-cdc-birmingham#contact_form,"Birmingham, AL",,Roebuck,6 w - 12 yr
,6701 Crestwood Blvd,Winnie,winnie (6).csv,https://winnie.com/place/festival-head-startearly-head-start-birmingham,https://winnie-static.imgix.net/default/daycare_24.png?w=140&h=140&dpr=3&fit=crop&auto=compress%2Cformat,Festival Head Start/Early Head Start,6701 Crestwood Blvd,,maps_home_work,,,,"Festival Head Start/Early Head Start is a licensed child care center offering daycare programs located at 6701 Crestwood Blvd in Crestwood South in Birmingham, AL. Contact this provider to inquire...",https://winnie.com/place/festival-head-startearly-head-start-birmingham#daycare-program,,,https://winnie.com/place/festival-head-startearly-head-start-birmingham#contact_form,"Birmingham, AL",,Crestwood South,18 mo - 4 yr 11 mo
,1324 19th Pl SW,Winnie,winnie (6).csv,https://winnie.com/place/ruthies-day-care-birmingham,https://winnie-static.imgix.net/default/daycare_51.png?w=140&h=140&dpr=3&fit=crop&auto=compress%2Cformat,Ruthie's Day Care,1324 19th Pl SW,,maps_home_work,,,,"Ruthie's Day Care is a licensed child care center offering daycare programs located at 1324 19th Pl SW in Jones Valley in Birmingham, AL. Contact this provider to inquire about prices and...",https://winnie.com/place/ruthies-day-care-birmingham#daycare-program,,,https://winnie.com/place/ruthies-day-care-birmingham#contact_form,"Birmingham, AL",,Jones Valley,6 w - 14 yr
,4901 Old Leeds Rd,Winnie,winnie (6).csv,https://winnie.com/place/highlands-school-family-center-mountain-brook,https://winnie-static.imgix.net/default/daycare_27.png?w=140&h=140&dpr=3&fit=crop&auto=compress%2Cformat,Highlands School Family Center,4901 Old Leeds Rd,Mountain Brook,location_on,,,,"Highlands School Family Center is a licensed child care center offering daycare programs located at 4901 Old Leeds Rd in Mountain Brook, AL. Contact this provider to inquire about prices and...",https://winnie.com/place/highlands-school-family-center-mountain-brook#daycare-program,,,https://winnie.com/place/highlands-school-family-center-mountain-brook#contact_form,"Mountain Brook, AL",,,6 w - 3 yr 11 mo
,637 Shadywood Dr,Winnie,winnie (6).csv,https://winnie.com/place/children-of-the-world-home-child-care-birmingham,https://winnie-static.imgix.net/default/daycare_11.png?w=140&h=140&dpr=3&fit=crop&auto=compress%2Cformat,Children Of The World Home Child Care,637 Shadywood Dr,,maps_home_work,,,,"Children Of The World Home Child Care is a licensed child care center offering daycare programs located at 637 Shadywood Dr in South Roebuck in Birmingham, AL. Contact this provider to inquire about...",https://winnie.com/place/children-of-the-world-home-child-care-birmingham#daycare-program,,,https://winnie.com/place/children-of-the-world-home-child-care-birmingham#contact_form,"Birmingham, AL",,South Roebuck,6 w - 14 yr
,330 Canyon Park Dr,Winnie,winnie (6).csv,https://winnie.com/place/chase-learning-center-daycare-pelham,https://winnie-static.imgix.net/default/daycare_28.png?w=140&h=140&dpr=3&fit=crop&auto=compress%2Cformat,Chase Learning Center & Daycare,330 Canyon Park Dr,Pelham,location_on,,,,"Chase Learning Center & Daycare is a licensed child care center offering daycare programs located at 330 Canyon Park Dr in Pelham, AL. Contact this provider to inquire about prices and availability.",https://winnie.com/place/chase-learning-center-daycare-pelham#daycare-program,,,https://winnie.com/place/chase-learning-center-daycare-pelham#contact_form,"Pelham, AL",,,18 mo - 12 yr
,100 Canyon Park Dr,Winnie,winnie (6).csv,https://winnie.com/place/chase-learning-center-infant-care-pelham,https://winnie-static.imgix.net/default/daycare_57.png?w=140&h=140&dpr=3&fit=crop&auto=compress%2Cformat,Chase Learning Center Infant Care,100 Canyon Park Dr,Pelham,location_on,,,,"Chase Learning Center Infant Care is a licensed child care center offering daycare programs located at 100 Canyon Park Dr in Pelham, AL. Contact this provider to inquire about prices and availability.",https://winnie.com/place/chase-learning-center-infant-care-pelham#daycare-program,,,https://winnie.com/place/chase-learning-center-infant-care-pelham#contact_form,"Pelham, AL",,,6 w - 24 mo
,7401 London Ave,Winnie,winnie (6).csv,https://winnie.com/place/new-rising-star-early-childhood-development-center-birmingham,https://winnie-static.imgix.net/default/daycare_21.png?w=140&h=140&dpr=3&fit=crop&auto=compress%2Cformat,New Rising Star Early Childhood Development Center,7401 London Ave,,maps_home_work,,,,"New Rising Star Early Childhood Development Center is a licensed child care center offering daycare programs located at 7401 London Ave in Brown Springs in Birmingham, AL. Contact this provider to...",https://winnie.com/place/new-rising-star-early-childhood-development-center-birmingham#daycare-program,,,https://winnie.com/place/new-rising-star-early-childhood-development-center-birmingham#contact_form,"Birmingham, AL",,Brown Springs,6 w - 4 yr 11 mo
,2209 Dartmouth Ave,Winnie,winnie (6).csv,https://winnie.com/place/colemans-day-care-bessemer,https://winnie-static.imgix.net/default/daycare_35.png?w=140&h=140&dpr=3&fit=crop&auto=compress%2Cformat,Coleman's Day Care,2209 Dartmouth Ave,Bessemer,location_on,,,,"Coleman's Day Care is a licensed child care center offering daycare programs located at 2209 Dartmouth Ave in Bessemer, AL. Contact this provider to inquire about prices and availability.",https://winnie.com/place/colemans-day-care-bessemer#daycare-program,,,https://winnie.com/place/colemans-day-care-bessemer#contact_form,"Bessemer, AL",,,1 mo - 13 yr
,2041 Brookwood Medical Center Dr,Winnie,winnie (6).csv,https://winnie.com/place/montessori-kids-universe-homewood,https://winnie-static.imgix.net/default/daycare_33.png?w=140&h=140&dpr=3&fit=crop&auto=compress%2Cformat,Montessori Kids Universe Homewood,2041 Brookwood Medical Center Dr,Homewood,location_on,,,,"Montessori Kids Universe Homewood is a licensed child care center offering daycare programs located at 2041 Brookwood Medical Center Dr in Homewood, AL. Contact this provider to inquire about prices...",https://winnie.com/place/montessori-kids-universe-homewood#daycare-program,,,https://winnie.com/place/montessori-kids-universe-homewood#contact_form,"Homewood, AL",,,6 w - 10 yr
,1411 5th Ave N,Winnie,winnie (6).csv,https://winnie.com/place/orriss-abcs-123s-bessemer,https://winnie-static.imgix.net/default/daycare_33.png?w=140&h=140&dpr=3&fit=crop&auto=compress%2Cformat,Orris's Abc's & 123'S,1411 5th Ave N,Bessemer,location_on,,,,"Orris's Abc's & 123'S is a licensed child care center offering daycare programs located at 1411 5th Ave N in Bessemer, AL. Contact this provider to inquire about prices and availability.",https://winnie.com/place/orriss-abcs-123s-bessemer#daycare-program,,,https://winnie.com/place/orriss-abcs-123s-bessemer#contact_form,"Bessemer, AL",,,1 mo - 14 yr
,7555 Dickey Springs Rd,Winnie,winnie (6).csv,https://winnie.com/place/einsteins-playground-bessemer,https://winnie-static.imgix.net/default/daycare_45.png?w=140&h=140&dpr=3&fit=crop&auto=compress%2Cformat,Einstein's Playground,7555 Dickey Springs Rd,Bessemer,location_on,,,,"Einstein's Playground is a licensed child care center offering daycare programs located at 7555 Dickey Springs Rd in Bessemer, AL. Contact this provider to inquire about prices and availability.",https://winnie.com/place/einsteins-playground-bessemer#daycare-program,,,https://winnie.com/place/einsteins-playground-bessemer#contact_form,"Bessemer, AL",,,24 mo - 13 yr
,900 Palmer Ave,Winnie,winnie (6).csv,https://winnie.com/place/childcare-resources-head-start-great-sta-brighton,https://winnie-static.imgix.net/default/daycare_29.png?w=140&h=140&dpr=3&fit=crop&auto=compress%2Cformat,Childcare Resources Head Start-Great Sta,900 Palmer Ave,Brighton,location_on,,,,"Childcare Resources Head Start-Great Sta is a licensed child care center offering daycare programs located at 900 Palmer Ave in Brighton, AL. Contact this provider to inquire about prices and...",https://winnie.com/place/childcare-resources-head-start-great-sta-brighton#daycare-program,,,https://winnie.com/place/childcare-resources-head-start-great-sta-brighton#contact_form,"Brighton, AL",,,24 mo - 4 yr 11 mo
,6532 Aaron Aronov Dr,Winnie,winnie (6).csv,https://winnie.com/place/little-footprints-in-the-sand-ccc-fairfield,https://winnie-static.imgix.net/default/daycare_2.png?w=140&h=140&dpr=3&fit=crop&auto=compress%2Cformat,Little Footprints In The Sand Ccc,6532 Aaron Aronov Dr,Fairfield,location_on,,,,"Little Footprints In The Sand Ccc is a licensed child care center offering daycare programs located at 6532 Aaron Aronov Dr in Fairfield, AL. Contact this provider to inquire about prices and...",https://winnie.com/place/little-footprints-in-the-sand-ccc-fairfield#daycare-program,,,https://winnie.com/place/little-footprints-in-the-sand-ccc-fairfield#contact_form,"Fairfield, AL",,,6 w - 12 yr
,925 43rd Pl,Winnie,winnie (6).csv,https://winnie.com/place/lorraines-angels-birmingham,https://winnie-static.imgix.net/default/daycare_22.png?w=140&h=140&dpr=3&fit=crop&auto=compress%2Cformat,Lorraine's Angels,925 43rd Pl,,maps_home_work,,,,"Lorraine's Angels is a licensed child care center offering daycare programs located at 925 43rd Pl in Belview Heights in Birmingham, AL. Contact this provider to inquire about prices and availability.",https://winnie.com/place/lorraines-angels-birmingham#daycare-program,,,https://winnie.com/place/lorraines-angels-birmingham#contact_form,"Birmingham, AL",,Belview Heights,6 w - 14 yr
,1820 Bessemer Rd,Winnie,winnie (6).csv,https://winnie.com/place/whiz-kidz-child-care-center-birmingham,https://winnie-static.imgix.net/default/daycare_41.png?w=140&h=140&dpr=3&fit=crop&auto=compress%2Cformat,Whiz Kidz Child Care Center,1820 Bessemer Rd,,maps_home_work,,,,"Whiz Kidz Child Care Center is a licensed child care center offering daycare programs located at 1820 Bessemer Rd in Central Park in Birmingham, AL. Contact this provider to inquire about prices and...",https://winnie.com/place/whiz-kidz-child-care-center-birmingham#daycare-program,,,https://winnie.com/place/whiz-kidz-child-care-center-birmingham#contact_form,"Birmingham, AL",,Central Park,6 w - 12 yr
,1541 6th Way NW,Winnie,winnie (6).csv,https://winnie.com/place/queen-burks-day-care-center-point,https://winnie-static.imgix.net/default/daycare_29.png?w=140&h=140&dpr=3&fit=crop&auto=compress%2Cformat,Queen Burks Day Care,1541 6th Way NW,,maps_home_work,,,,"Queen Burks Day Care is a licensed child care center offering daycare programs located at 1541 6th Way NW in Bridlewood in Center Point, AL. Contact this provider to inquire about prices and...",https://winnie.com/place/queen-burks-day-care-center-point#daycare-program,,,https://winnie.com/place/queen-burks-day-care-center-point#contact_form,"Center Point, AL",,Bridlewood,6 w - 15 yr
,2061 Kentucky Ave,Winnie,winnie (6).csv,https://winnie.com/place/vestavia-day-school-vestavia-hills,https://winnie-static.imgix.net/default/daycare_38.png?w=140&h=140&dpr=3&fit=crop&auto=compress%2Cformat,Vestavia Day School,2061 Kentucky Ave,Vestavia Hills,location_on,,,,"Vestavia Day School is a licensed child care center offering daycare programs located at 2061 Kentucky Ave in Vestavia Hills, AL. Contact this provider to inquire about prices and availability.",https://winnie.com/place/vestavia-day-school-vestavia-hills#daycare-program,,,https://winnie.com/place/vestavia-day-school-vestavia-hills#contact_form,"Vestavia Hills, AL",,,6 w - 6 yr
,115 1st Ave S,Winnie,winnie (6).csv,https://winnie.com/place/growing-in-grace-child-development-birmingham,https://winnie-static.imgix.net/default/daycare_37.png?w=140&h=140&dpr=3&fit=crop&auto=compress%2Cformat,Growing In Grace Child Development,115 1st Ave S,,maps_home_work,,,,"Growing In Grace Child Development is a licensed child care center offering daycare programs located at 115 1st Ave S in North Titusville in Birmingham, AL. Contact this provider to inquire about...",https://winnie.com/place/growing-in-grace-child-development-birmingham#daycare-program,,,https://winnie.com/place/growing-in-grace-child-development-birmingham#contact_form,"Birmingham, AL",,North Titusville,12 mo - 12 yr
,1001 Dartmouth Ct,Winnie,winnie (6).csv,https://winnie.com/place/laugh-learn-bessemer,https://winnie-static.imgix.net/default/daycare_11.png?w=140&h=140&dpr=3&fit=crop&auto=compress%2Cformat,Laugh & Learn,1001 Dartmouth Ct,Bessemer,location_on,,,,"Laugh & Learn is a licensed child care center offering daycare programs located at 1001 Dartmouth Ct in Bessemer, AL. Contact this provider to inquire about prices and availability.",https://winnie.com/place/laugh-learn-bessemer#daycare-program,,,https://winnie.com/place/laugh-learn-bessemer#contact_form,"Bessemer, AL",,,1 mo - 14 yr
,17 Watertown Cir,Winnie,winnie (6).csv,https://winnie.com/place/just-being-me-kids-christian-academy-llc-birmingham,https://winnie-static.imgix.net/default/daycare_49.png?w=140&h=140&dpr=3&fit=crop&auto=compress%2Cformat,"Just Being ME Kids Christian Academy, LLC",17 Watertown Cir,,maps_home_work,,,,"Just Being ME Kids Christian Academy, LLC is a licensed child care center offering daycare programs located at 17 Watertown Cir in Huffman in Birmingham, AL. Contact this provider to inquire about...",https://winnie.com/place/just-being-me-kids-christian-academy-llc-birmingham#daycare-program,,,https://winnie.com/place/just-being-me-kids-christian-academy-llc-birmingham#contact_form,"Birmingham, AL",,Huffman,6 w - 12 yr
,3201 Arlington Ave,Winnie,winnie (6).csv,https://winnie.com/place/team-for-children-development-bessemer,https://winnie-static.imgix.net/default/daycare_52.png?w=140&h=140&dpr=3&fit=crop&auto=compress%2Cformat,Team For Children Development,3201 Arlington Ave,Bessemer,location_on,,,,"Team For Children Development is a licensed child care center offering daycare programs located at 3201 Arlington Ave in Bessemer, AL. Contact this provider to inquire about prices and availability.",https://winnie.com/place/team-for-children-development-bessemer#daycare-program,,,https://winnie.com/place/team-for-children-development-bessemer#contact_form,"Bessemer, AL",,,18 mo - 15 yr
,110 Sunset Dr,Winnie,winnie (6).csv,https://winnie.com/place/hueytown-first-umc-childcare-center-hueytown,https://winnie-static.imgix.net/default/daycare_32.png?w=140&h=140&dpr=3&fit=crop&auto=compress%2Cformat,Hueytown First UMC Childcare Center,110 Sunset Dr,Hueytown,location_on,,,,"Hueytown First UMC Childcare Center is a licensed child care center offering daycare programs located at 110 Sunset Dr in Hueytown, AL. Contact this provider to inquire about prices and availability.",https://winnie.com/place/hueytown-first-umc-childcare-center-hueytown#daycare-program,,,https://winnie.com/place/hueytown-first-umc-childcare-center-hueytown#contact_form,"Hueytown, AL",,,6 w - 4 yr 11 mo
,1430 Fielding St,Winnie,winnie (6).csv,https://winnie.com/place/the-right-way-daycare-brighton,https://winnie-static.imgix.net/default/daycare_40.png?w=140&h=140&dpr=3&fit=crop&auto=compress%2Cformat,The Right Way Daycare,1430 Fielding St,Brighton,location_on,,,,"The Right Way Daycare is a licensed child care center offering daycare programs located at 1430 Fielding St in Brighton, AL. Contact this provider to inquire about prices and availability.",https://winnie.com/place/the-right-way-daycare-brighton#daycare-program,,,https://winnie.com/place/the-right-way-daycare-brighton#contact_form,"Brighton, AL",,,6 w - 2 yr 11 mo
,5178 Cornell Dr,Winnie,winnie (6).csv,https://winnie.com/place/babies-galore-family-day-care-home-irondale,https://winnie-static.imgix.net/default/daycare_39.png?w=140&h=140&dpr=3&fit=crop&auto=compress%2Cformat,Babies Galore Family Day Care Home,5178 Cornell Dr,Irondale,location_on,,,,"Babies Galore Family Day Care Home is a licensed child care center offering daycare programs located at 5178 Cornell Dr in Irondale, AL. Contact this provider to inquire about prices and availability.",https://winnie.com/place/babies-galore-family-day-care-home-irondale#daycare-program,,,https://winnie.com/place/babies-galore-family-day-care-home-irondale#contact_form,"Irondale, AL",,,0 mo - 14 yr
,2512 Rocky Ridge Rd,Winnie,winnie (6).csv,https://winnie.com/place/spirit-of-life-ministry-birmingham,https://winnie-static.imgix.net/default/daycare_58.png?w=140&h=140&dpr=3&fit=crop&auto=compress%2Cformat,Spirit Of Life Ministry,2512 Rocky Ridge Rd,Birmingham,location_on,,,,"Spirit Of Life Ministry is a licensed child care center offering daycare programs located at 2512 Rocky Ridge Rd in Birmingham, AL. Contact this provider to inquire about prices and availability.",https://winnie.com/place/spirit-of-life-ministry-birmingham#daycare-program,,,https://winnie.com/place/spirit-of-life-ministry-birmingham#contact_form,"Birmingham, AL",,,6 w - 12 yr
,1304 5th Ave,Winnie,winnie (6).csv,https://winnie.com/place/peekaboo-child-development-center-midfield,https://winnie-static.imgix.net/default/daycare_39.png?w=140&h=140&dpr=3&fit=crop&auto=compress%2Cformat,Peekaboo Child Development Center,1304 5th Ave,Midfield,location_on,,,,"Peekaboo Child Development Center is a licensed child care center offering daycare programs located at 1304 5th Ave in Midfield, AL. Contact this provider to inquire about prices and availability.",https://winnie.com/place/peekaboo-child-development-center-midfield#daycare-program,,,https://winnie.com/place/peekaboo-child-development-center-midfield#contact_form,"Midfield, AL",,,0 mo - 14 yr
,97 Crystal Ave,Winnie,winnie (6).csv,https://winnie.com/place/kids-1st-development-center-hueytown,https://winnie-static.imgix.net/default/daycare_41.png?w=140&h=140&dpr=3&fit=crop&auto=compress%2Cformat,Kids 1st Development Center,97 Crystal Ave,Hueytown,location_on,,,,"Kids 1st Development Center is a licensed child care center offering daycare programs located at 97 Crystal Ave in Hueytown, AL. Contact this provider to inquire about prices and availability.",https://winnie.com/place/kids-1st-development-center-hueytown#daycare-program,,,https://winnie.com/place/kids-1st-development-center-hueytown#contact_form,"Hueytown, AL",,,0 mo - 15 yr
,151 Covenant Way,Winnie,winnie (6).csv,https://winnie.com/place/the-heritage-church-site-4-birmingham,https://winnie-static.imgix.net/default/daycare_8.png?w=140&h=140&dpr=3&fit=crop&auto=compress%2Cformat,The Heritage Church Site 4,151 Covenant Way,Birmingham,location_on,,,,"The Heritage Church Site 4 is a license exempt child care center offering daycare programs located at 151 Covenant Way in Birmingham, AL. Contact this provider to inquire about prices and...",https://winnie.com/place/the-heritage-church-site-4-birmingham#daycare-program,,,https://winnie.com/place/the-heritage-church-site-4-birmingham#contact_form,"Birmingham, AL",,,
,128 N Chalkville Rd,Winnie,winnie (6).csv,https://winnie.com/place/first-baptist-church-trussville,https://winnie-static.imgix.net/default/daycare_45.png?w=140&h=140&dpr=3&fit=crop&auto=compress%2Cformat,First Baptist Church Trussville,128 N Chalkville Rd,Trussville,location_on,,,,"First Baptist Church Trussville is a license exempt child care center offering daycare programs located at 128 N Chalkville Rd in Trussville, AL. Contact this provider to inquire about prices and...",https://winnie.com/place/first-baptist-church-trussville#daycare-program,,,https://winnie.com/place/first-baptist-church-trussville#contact_form,"Trussville, AL",,,
,4660 Caldwell Mill Rd,Winnie,winnie (6).csv,https://winnie.com/place/altadena-valley-presbyterian-church-vestavia-hills,https://winnie-static.imgix.net/default/daycare_3.png?w=140&h=140&dpr=3&fit=crop&auto=compress%2Cformat,Altadena Valley Presbyterian Church,4660 Caldwell Mill Rd,Vestavia Hills,location_on,,,,"Altadena Valley Presbyterian Church is a license exempt child care center offering daycare programs located at 4660 Caldwell Mill Rd in Vestavia Hills, AL. Contact this provider to inquire about...",https://winnie.com/place/altadena-valley-presbyterian-church-vestavia-hills#daycare-program,,,https://winnie.com/place/altadena-valley-presbyterian-church-vestavia-hills#contact_form,"Vestavia Hills, AL",,,
,400 Roebuck Pkwy,Winnie,winnie (6).csv,https://winnie.com/place/new-life-academy-birmingham,https://winnie-static.imgix.net/default/daycare_51.png?w=140&h=140&dpr=3&fit=crop&auto=compress%2Cformat,New Life Academy,400 Roebuck Pkwy,,maps_home_work,,,,"New Life Academy is a license exempt child care center offering daycare programs located at 400 Roebuck Pkwy in South Roebuck in Birmingham, AL. Contact this provider to inquire about prices and...",https://winnie.com/place/new-life-academy-birmingham#daycare-program,,,https://winnie.com/place/new-life-academy-birmingham#contact_form,"Birmingham, AL",,South Roebuck,
,869 Co Rd 52,Winnie,winnie (6).csv,https://winnie.com/place/grace-christian-church-helena,https://winnie-static.imgix.net/default/daycare_34.png?w=140&h=140&dpr=3&fit=crop&auto=compress%2Cformat,Grace Christian Church,869 Co Rd 52,Helena,location_on,,,,"Grace Christian Church is a license exempt child care center offering daycare programs located at 869 Co Rd 52 in Helena, AL. Contact this provider to inquire about prices and availability.",https://winnie.com/place/grace-christian-church-helena#daycare-program,,,https://winnie.com/place/grace-christian-church-helena#contact_form,"Helena, AL",,,
,558 Gadsden Hwy,Winnie,winnie (6).csv,https://winnie.com/place/eastside-baptist-church-birmingham,https://winnie-static.imgix.net/default/daycare_16.png?w=140&h=140&dpr=3&fit=crop&auto=compress%2Cformat,Eastside Baptist Church,558 Gadsden Hwy,,maps_home_work,,,,"Eastside Baptist Church is a license exempt child care center offering daycare programs located at 558 Gadsden Hwy in Huffman in Birmingham, AL. Contact this provider to inquire about prices and...",https://winnie.com/place/eastside-baptist-church-birmingham#daycare-program,,,https://winnie.com/place/eastside-baptist-church-birmingham#contact_form,"Birmingham, AL",,Huffman,
,316 31st St S,Winnie,winnie (6).csv,https://winnie.com/place/just-like-home-ministries-site-i-bessemer,https://winnie-static.imgix.net/default/daycare_51.png?w=140&h=140&dpr=3&fit=crop&auto=compress%2Cformat,Just Like Home Ministries - Site I,316 31st St S,Bessemer,location_on,,,,"Just Like Home Ministries - Site I is a license exempt child care center offering daycare programs located at 316 31st St S in Bessemer, AL. Contact this provider to inquire about prices and...",https://winnie.com/place/just-like-home-ministries-site-i-bessemer#daycare-program,,,https://winnie.com/place/just-like-home-ministries-site-i-bessemer#contact_form,"Bessemer, AL",,,
,1137 10th Pl S,Winnie,winnie (6).csv,https://winnie.com/place/glen-iris-baptist-school-birmingham,https://winnie-static.imgix.net/default/daycare_15.png?w=140&h=140&dpr=3&fit=crop&auto=compress%2Cformat,Glen Iris Baptist School,1137 10th Pl S,,maps_home_work,,,,"Glen Iris Baptist School is a license exempt child care center offering daycare programs located at 1137 10th Pl S in Glen Iris in Birmingham, AL. Contact this provider to inquire about prices and...",https://winnie.com/place/glen-iris-baptist-school-birmingham#daycare-program,,,https://winnie.com/place/glen-iris-baptist-school-birmingham#contact_form,"Birmingham, AL",,Glen Iris,
,1627 Carolina Ave,Winnie,winnie (7).csv,https://winnie.com/place/new-life-interfaith-ministries-site-ii-bessemer,https://winnie-static.imgix.net/default/daycare_50.png?w=140&h=140&dpr=3&fit=crop&auto=compress%2Cformat,"New Life Interfaith Ministries, Site Ii",1627 Carolina Ave,Bessemer,location_on,,,,"New Life Interfaith Ministries, Site Ii is a license exempt child care center offering daycare programs located at 1627 Carolina Ave in Bessemer, AL. Contact this provider to inquire about prices and...",https://winnie.com/place/new-life-interfaith-ministries-site-ii-bessemer#daycare-program,,,https://winnie.com/place/new-life-interfaith-ministries-site-ii-bessemer#contact_form,"Bessemer, AL",,,
,1035 Rutledge Dr,Winnie,winnie (7).csv,https://winnie.com/place/the-full-deliverance-church-of-god-fairfield,https://winnie-static.imgix.net/default/daycare_5.png?w=140&h=140&dpr=3&fit=crop&auto=compress%2Cformat,The Full Deliverance Church Of God,1035 Rutledge Dr,Fairfield,location_on,,,,"The Full Deliverance Church Of God is a license exempt child care center offering daycare programs located at 1035 Rutledge Dr in Fairfield, AL. Contact this provider to inquire about prices and...",https://winnie.com/place/the-full-deliverance-church-of-god-fairfield#daycare-program,,,https://winnie.com/place/the-full-deliverance-church-of-god-fairfield#contact_form,"Fairfield, AL",,,
,3405 Brookwood Rd,Winnie,winnie (7).csv,https://winnie.com/place/mountain-brook-presbyterian-church-birmingham,https://winnie-static.imgix.net/default/daycare_3.png?w=140&h=140&dpr=3&fit=crop&auto=compress%2Cformat,Mountain Brook Presbyterian Church,3405 Brookwood Rd,Birmingham,location_on,,,,"Mountain Brook Presbyterian Church is a license exempt child care center offering daycare programs located at 3405 Brookwood Rd in Birmingham, AL. Contact this provider to inquire about prices and...",https://winnie.com/place/mountain-brook-presbyterian-church-birmingham#daycare-program,,,https://winnie.com/place/mountain-brook-presbyterian-church-birmingham#contact_form,"Birmingham, AL",,,
,2204 Briarwood Way,Winnie,winnie (7).csv,https://winnie.com/place/briarwood-presbyterian-school-vestavia-hills,https://winnie-static.imgix.net/default/daycare_34.png?w=140&h=140&dpr=3&fit=crop&auto=compress%2Cformat,Briarwood Presbyterian School,2204 Briarwood Way,Vestavia Hills,location_on,,,,"Briarwood Presbyterian School is a license exempt child care center offering daycare programs located at 2204 Briarwood Way in Vestavia Hills, AL. Contact this provider to inquire about prices and...",https://winnie.com/place/briarwood-presbyterian-school-vestavia-hills#daycare-program,,,https://winnie.com/place/briarwood-presbyterian-school-vestavia-hills#contact_form,"Vestavia Hills, AL",,,
,1720 Oxmoor Rd,Winnie,winnie (7).csv,https://winnie.com/place/our-lady-of-sorrows-church-homewood,https://winnie-static.imgix.net/default/daycare_40.png?w=140&h=140&dpr=3&fit=crop&auto=compress%2Cformat,Our Lady of Sorrows Church,1720 Oxmoor Rd,Homewood,location_on,,,,"Our Lady of Sorrows Church is a license exempt child care center offering daycare programs located at 1720 Oxmoor Rd in Homewood, AL. Contact this provider to inquire about prices and availability.",https://winnie.com/place/our-lady-of-sorrows-church-homewood#daycare-program,,,https://winnie.com/place/our-lady-of-sorrows-church-homewood#contact_form,"Homewood, AL",,,
,1400 Oxmoor Rd,Winnie,winnie (7).csv,https://winnie.com/place/trinity-child-development-center-homewood,https://winnie-static.imgix.net/default/daycare_59.png?w=140&h=140&dpr=3&fit=crop&auto=compress%2Cformat,Trinity Child Development Center,1400 Oxmoor Rd,Homewood,location_on,,,,"Trinity Child Development Center is a license exempt child care center offering daycare programs located at 1400 Oxmoor Rd in Homewood, AL. Contact this provider to inquire about prices and...",https://winnie.com/place/trinity-child-development-center-homewood#daycare-program,,,https://winnie.com/place/trinity-child-development-center-homewood#contact_form,"Homewood, AL",,,
,1912 Canyon Rd,Winnie,winnie (7).csv,https://winnie.com/place/church-of-the-ascension-vestavia-hills,https://winnie-static.imgix.net/default/daycare_35.png?w=140&h=140&dpr=3&fit=crop&auto=compress%2Cformat,Church Of The Ascension Vestavia Hills,1912 Canyon Rd,Vestavia Hills,location_on,,,,"Church Of The Ascension Vestavia Hills is a license exempt child care center offering daycare programs located at 1912 Canyon Rd in Vestavia Hills, AL. Contact this provider to inquire about prices...",https://winnie.com/place/church-of-the-ascension-vestavia-hills#daycare-program,,,https://winnie.com/place/church-of-the-ascension-vestavia-hills#contact_form,"Vestavia Hills, AL",,,
,2600 Vestavia Dr,Winnie,winnie (7).csv,https://winnie.com/place/vestavia-hills-baptist-church-vestavia-hills,https://winnie-static.imgix.net/default/daycare_49.png?w=140&h=140&dpr=3&fit=crop&auto=compress%2Cformat,Vestavia Hills Baptist Church,2600 Vestavia Dr,Vestavia Hills,location_on,,,,"Vestavia Hills Baptist Church is a license exempt child care center offering daycare programs located at 2600 Vestavia Dr in Vestavia Hills, AL. Contact this provider to inquire about prices and...",https://winnie.com/place/vestavia-hills-baptist-church-vestavia-hills#daycare-program,,,https://winnie.com/place/vestavia-hills-baptist-church-vestavia-hills#contact_form,"Vestavia Hills, AL",,,
,5080 Cahaba Valley Trce,Winnie,winnie (7).csv,https://winnie.com/place/oak-mountain-presbyterian-church-birmingham,https://winnie-static.imgix.net/default/daycare_27.png?w=140&h=140&dpr=3&fit=crop&auto=compress%2Cformat,Oak Mountain Presbyterian Church,5080 Cahaba Valley Trce,Birmingham,location_on,,,,"Oak Mountain Presbyterian Church is a license exempt child care center offering daycare programs located at 5080 Cahaba Valley Trce in Birmingham, AL. Contact this provider to inquire about prices and...",https://winnie.com/place/oak-mountain-presbyterian-church-birmingham#daycare-program,,,https://winnie.com/place/oak-mountain-presbyterian-church-birmingham#contact_form,"Birmingham, AL",,,
,510 4th Ave SW,Winnie,winnie (7).csv,https://winnie.com/place/world-overcomers-christian-church-bessemer,https://winnie-static.imgix.net/default/daycare_28.png?w=140&h=140&dpr=3&fit=crop&auto=compress%2Cformat,World Overcomers Christian Church,510 4th Ave SW,Bessemer,location_on,,,,"World Overcomers Christian Church is a license exempt child care center offering daycare programs located at 510 4th Ave SW in Bessemer, AL. Contact this provider to inquire about prices and...",https://winnie.com/place/world-overcomers-christian-church-bessemer#daycare-program,,,https://winnie.com/place/world-overcomers-christian-church-bessemer#contact_form,"Bessemer, AL",,,
,4178 Co Rd 39,Winnie,winnie (7).csv,https://winnie.com/place/redemption-churchk-springs-chelsea,https://winnie-static.imgix.net/default/daycare_20.png?w=140&h=140&dpr=3&fit=crop&auto=compress%2Cformat,Redemption Church@K-Springs,4178 Co Rd 39,Chelsea,location_on,,,,"Redemption Church@K-Springs is a license exempt child care center offering daycare programs located at 4178 Co Rd 39 in Chelsea, AL. Contact this provider to inquire about prices and availability.",https://winnie.com/place/redemption-churchk-springs-chelsea#daycare-program,,,https://winnie.com/place/redemption-churchk-springs-chelsea#contact_form,"Chelsea, AL",,,
,424 Emery Dr,Winnie,winnie (7).csv,https://winnie.com/place/the-episcopal-ch-of-the-holy-apostles-birmingham,https://winnie-static.imgix.net/default/daycare_33.png?w=140&h=140&dpr=3&fit=crop&auto=compress%2Cformat,The Episcopal Ch. Of The Holy Apostles,424 Emery Dr,Birmingham,location_on,,,,"The Episcopal Ch. Of The Holy Apostles is a license exempt child care center offering daycare programs located at 424 Emery Dr in Birmingham, AL. Contact this provider to inquire about prices and...",https://winnie.com/place/the-episcopal-ch-of-the-holy-apostles-birmingham#daycare-program,,,https://winnie.com/place/the-episcopal-ch-of-the-holy-apostles-birmingham#contact_form,"Birmingham, AL",,,
,5125 Sicard Hollow Rd,Winnie,winnie (7).csv,https://winnie.com/place/grace-a-united-methodist-congregation-birmingham,https://winnie-static.imgix.net/default/daycare_47.png?w=140&h=140&dpr=3&fit=crop&auto=compress%2Cformat,"Grace, A United Methodist Congregation",5125 Sicard Hollow Rd,,maps_home_work,,,,"Grace, A United Methodist Congregation is a license exempt child care center offering daycare programs located at 5125 Sicard Hollow Rd in Overton in Birmingham, AL. Contact this provider to inquire...",https://winnie.com/place/grace-a-united-methodist-congregation-birmingham#daycare-program,,,https://winnie.com/place/grace-a-united-methodist-congregation-birmingham#contact_form,"Birmingham, AL",,Overton,
,328 Robison Dr,Winnie,winnie (7).csv,https://winnie.com/place/agape-worship-ministries-birmingham,https://winnie-static.imgix.net/default/daycare_39.png?w=140&h=140&dpr=3&fit=crop&auto=compress%2Cformat,Agape Worship Ministries,328 Robison Dr,,maps_home_work,,,,"Agape Worship Ministries is a license exempt child care center offering daycare programs located at 328 Robison Dr in Roebuck in Birmingham, AL. Contact this provider to inquire about prices and...",https://winnie.com/place/agape-worship-ministries-birmingham#daycare-program,,,https://winnie.com/place/agape-worship-ministries-birmingham#contact_form,"Birmingham, AL",,Roebuck,
,3631 Montevallo Rd,Winnie,winnie (7).csv,https://winnie.com/place/mountain-brook-baptist-church-birmingham,https://winnie-static.imgix.net/default/daycare_18.png?w=140&h=140&dpr=3&fit=crop&auto=compress%2Cformat,Mountain Brook Baptist Church,3631 Montevallo Rd,Birmingham,location_on,,,,"Mountain Brook Baptist Church is a license exempt child care center offering daycare programs located at 3631 Montevallo Rd in Birmingham, AL. Contact this provider to inquire about prices and...",https://winnie.com/place/mountain-brook-baptist-church-birmingham#daycare-program,,,https://winnie.com/place/mountain-brook-baptist-church-birmingham#contact_form,"Birmingham, AL",,,
,115 Polly Reed Rd NE,Winnie,winnie (7).csv,https://winnie.com/place/the-assembly-of-divine-reality-inc-center-point,https://winnie-static.imgix.net/default/daycare_3.png?w=140&h=140&dpr=3&fit=crop&auto=compress%2Cformat,"The Assembly Of Divine Reality, Inc.",115 Polly Reed Rd NE,Center Point,location_on,,,,"The Assembly Of Divine Reality, Inc. is a license exempt child care center offering daycare programs located at 115 Polly Reed Rd NE in Center Point, AL. Contact this provider to inquire about prices...",https://winnie.com/place/the-assembly-of-divine-reality-inc-center-point#daycare-program,,,https://winnie.com/place/the-assembly-of-divine-reality-inc-center-point#contact_form,"Center Point, AL",,,
,5091 Caldwell Mill Rd,Winnie,winnie (7).csv,https://winnie.com/place/christ-church-united-methodist-birmingham,https://winnie-static.imgix.net/default/daycare_34.png?w=140&h=140&dpr=3&fit=crop&auto=compress%2Cformat,Christ Church United Methodist,5091 Caldwell Mill Rd,Birmingham,location_on,,,,"Christ Church United Methodist is a license exempt child care center offering daycare programs located at 5091 Caldwell Mill Rd in Birmingham, AL. Contact this provider to inquire about prices and...",https://winnie.com/place/christ-church-united-methodist-birmingham#daycare-program,,,https://winnie.com/place/christ-church-united-methodist-birmingham#contact_form,"Birmingham, AL",,,
,1020 Stoudemire Ave,Winnie,winnie (7).csv,https://winnie.com/place/new-covenant-of-faith-ministries-birmingham,https://winnie-static.imgix.net/default/daycare_52.png?w=140&h=140&dpr=3&fit=crop&auto=compress%2Cformat,New Covenant Of Faith Ministries,1020 Stoudemire Ave,,maps_home_work,,,,"New Covenant Of Faith Ministries is a license exempt child care center offering daycare programs located at 1020 Stoudemire Ave in Maple Grove in Birmingham, AL. Contact this provider to inquire about...",https://winnie.com/place/new-covenant-of-faith-ministries-birmingham#daycare-program,,,https://winnie.com/place/new-covenant-of-faith-ministries-birmingham#contact_form,"Birmingham, AL",,Maple Grove,
,265 W Oxmoor Rd,Winnie,winnie (7).csv,https://winnie.com/place/homewood-church-of-christ-day-school-birmingham,https://winnie-static.imgix.net/default/daycare_41.png?w=140&h=140&dpr=3&fit=crop&auto=compress%2Cformat,Homewood Church of Christ Day School,265 W Oxmoor Rd,,maps_home_work,,,,"Homewood Church of Christ Day School is a license exempt child care center offering daycare programs located at 265 W Oxmoor Rd in Sand Ridge in Birmingham, AL. Contact this provider to inquire about...",https://winnie.com/place/homewood-church-of-christ-day-school-birmingham#daycare-program,,,https://winnie.com/place/homewood-church-of-christ-day-school-birmingham#contact_form,"Birmingham, AL",,Sand Ridge,
,1815 Patton Chapel Rd,Winnie,winnie (7).csv,https://winnie.com/place/green-valley-baptist-church-birmingham,https://winnie-static.imgix.net/default/daycare_57.png?w=140&h=140&dpr=3&fit=crop&auto=compress%2Cformat,Green Valley Baptist Church,1815 Patton Chapel Rd,Birmingham,location_on,,,,"Green Valley Baptist Church is a license exempt child care center offering daycare programs located at 1815 Patton Chapel Rd in Birmingham, AL. Contact this provider to inquire about prices and...",https://winnie.com/place/green-valley-baptist-church-birmingham#daycare-program,,,https://winnie.com/place/green-valley-baptist-church-birmingham#contact_form,"Birmingham, AL",,,
,452 Park Ave,Winnie,winnie (7).csv,https://winnie.com/place/shades-crest-baptist-church-birmingham,https://winnie-static.imgix.net/default/daycare_54.png?w=140&h=140&dpr=3&fit=crop&auto=compress%2Cformat,Shades Crest Baptist Church,452 Park Ave,Birmingham,location_on,,,,"Shades Crest Baptist Church is a license exempt child care center offering daycare programs located at 452 Park Ave in Birmingham, AL. Contact this provider to inquire about prices and availability.",https://winnie.com/place/shades-crest-baptist-church-birmingham#daycare-program,,,https://winnie.com/place/shades-crest-baptist-church-birmingham#contact_form,"Birmingham, AL",,,
,350 Overbrook Rd,Winnie,winnie (7).csv,https://winnie.com/place/canterbury-united-methodist-church-birmingham,https://winnie-static.imgix.net/default/daycare_18.png?w=140&h=140&dpr=3&fit=crop&auto=compress%2Cformat,Canterbury United Methodist Church,350 Overbrook Rd,Birmingham,location_on,,,,"Canterbury United Methodist Church is a license exempt child care center offering daycare programs located at 350 Overbrook Rd in Birmingham, AL. Contact this provider to inquire about prices and...",https://winnie.com/place/canterbury-united-methodist-church-birmingham#daycare-program,,,https://winnie.com/place/canterbury-united-methodist-church-birmingham#contact_form,"Birmingham, AL",,,
,700 Huffman Rd,Winnie,winnie (7).csv,https://winnie.com/place/kingdom-family-christian-fellowship-center-point,https://winnie-static.imgix.net/default/daycare_13.png?w=140&h=140&dpr=3&fit=crop&auto=compress%2Cformat,Kingdom Family Christian Fellowship,700 Huffman Rd,,maps_home_work,,,,"Kingdom Family Christian Fellowship is a license exempt child care center offering daycare programs located at 700 Huffman Rd in Huffman in Center Point, AL. Contact this provider to inquire about...",https://winnie.com/place/kingdom-family-christian-fellowship-center-point#daycare-program,,,https://winnie.com/place/kingdom-family-christian-fellowship-center-point#contact_form,"Center Point, AL",,Huffman,
,3775 Crosshaven Dr,Winnie,winnie (7).csv,https://winnie.com/place/st-stephens-episcopal-church-vestavia-hills,https://winnie-static.imgix.net/default/daycare_21.png?w=140&h=140&dpr=3&fit=crop&auto=compress%2Cformat,St. Stephen's Episcopal Church,3775 Crosshaven Dr,Vestavia Hills,location_on,,,,"St. Stephen's Episcopal Church is a license exempt child care center offering daycare programs located at 3775 Crosshaven Dr in Vestavia Hills, AL. Contact this provider to inquire about prices and...",https://winnie.com/place/st-stephens-episcopal-church-vestavia-hills#daycare-program,,,https://winnie.com/place/st-stephens-episcopal-church-vestavia-hills#contact_form,"Vestavia Hills, AL",,,
,3001 US-280,Winnie,winnie (7).csv,https://winnie.com/place/mountain-brook-community-church-birmingham,https://winnie-static.imgix.net/default/daycare_46.png?w=140&h=140&dpr=3&fit=crop&auto=compress%2Cformat,Mountain Brook Community Church,3001 US-280,Birmingham,location_on,,,,"Mountain Brook Community Church is a license exempt child care center offering daycare programs located at 3001 US-280 in Birmingham, AL. Contact this provider to inquire about prices and...",https://winnie.com/place/mountain-brook-community-church-birmingham#daycare-program,,,https://winnie.com/place/mountain-brook-community-church-birmingham#contact_form,"Birmingham, AL",,,
,7901 2nd Ave S,Winnie,winnie (7).csv,https://winnie.com/place/greater-emmanuel-temple-holiness-church-birmingham,https://winnie-static.imgix.net/default/daycare_60.png?w=140&h=140&dpr=3&fit=crop&auto=compress%2Cformat,Greater Emmanuel Temple Holiness Church,7901 2nd Ave S,,maps_home_work,,,,"Greater Emmanuel Temple Holiness Church is a license exempt child care center offering daycare programs located at 7901 2nd Ave S in South Eastlake in Birmingham, AL. Contact this provider to inquire...",https://winnie.com/place/greater-emmanuel-temple-holiness-church-birmingham#daycare-program,,,https://winnie.com/place/greater-emmanuel-temple-holiness-church-birmingham#contact_form,"Birmingham, AL",,South Eastlake,
,2135 Jefferson Ave SW,Winnie,winnie (7).csv,https://winnie.com/place/greater-shiloh-missionary-baptist-church-birmingham,https://winnie-static.imgix.net/default/daycare_33.png?w=140&h=140&dpr=3&fit=crop&auto=compress%2Cformat,Greater Shiloh Missionary Baptist Church,2135 Jefferson Ave SW,,maps_home_work,,,,"Greater Shiloh Missionary Baptist Church is a license exempt child care center offering daycare programs located at 2135 Jefferson Ave SW in Jones Valley in Birmingham, AL. Contact this provider to...",https://winnie.com/place/greater-shiloh-missionary-baptist-church-birmingham#daycare-program,,,https://winnie.com/place/greater-shiloh-missionary-baptist-church-birmingham#contact_form,"Birmingham, AL",,Jones Valley,
,611 Riverchase Pkwy W,Winnie,winnie (7).csv,https://winnie.com/place/christ-the-king-lutheran-church-hoover,https://winnie-static.imgix.net/default/daycare_55.png?w=140&h=140&dpr=3&fit=crop&auto=compress%2Cformat,Christ The King Lutheran Church,611 Riverchase Pkwy W,Hoover,location_on,,,,"Christ The King Lutheran Church is a license exempt child care center offering daycare programs located at 611 Riverchase Pkwy W in Hoover, AL. Contact this provider to inquire about prices and...",https://winnie.com/place/christ-the-king-lutheran-church-hoover#daycare-program,,,https://winnie.com/place/christ-the-king-lutheran-church-hoover#contact_form,"Hoover, AL",,,
,160 Brooklane Dr,Winnie,winnie (7).csv,https://winnie.com/place/brooklane-baptist-church-hueytown,https://winnie-static.imgix.net/default/daycare_42.png?w=140&h=140&dpr=3&fit=crop&auto=compress%2Cformat,Brooklane Baptist Church,160 Brooklane Dr,Hueytown,location_on,,,,"Brooklane Baptist Church is a license exempt child care center offering daycare programs located at 160 Brooklane Dr in Hueytown, AL. Contact this provider to inquire about prices and availability.",https://winnie.com/place/brooklane-baptist-church-hueytown#daycare-program,,,https://winnie.com/place/brooklane-baptist-church-hueytown#contact_form,"Hueytown, AL",,,
,1703 29th Ct S,Winnie,winnie (7).csv,https://winnie.com/place/our-lady-of-sorrows-catholic-childrens-learning-center-birmingham,https://winnie-static.imgix.net/default/daycare_59.png?w=140&h=140&dpr=3&fit=crop&auto=compress%2Cformat,Our Lady of Sorrows Catholic Children's Learning Center,1703 29th Ct S,Birmingham,location_on,,,,"Our Lady of Sorrows Catholic Children's Learning Center is a license exempt child care center offering daycare programs located at 1703 29th Ct S in Birmingham, AL. Contact this provider to inquire...",https://winnie.com/place/our-lady-of-sorrows-catholic-childrens-learning-center-birmingham#daycare-program,,,https://winnie.com/place/our-lady-of-sorrows-catholic-childrens-learning-center-birmingham#contact_form,"Birmingham, AL",,,
,6200 Lou George Loop,Winnie,winnie (7).csv,https://winnie.com/place/heritage-christian-school-bessemer,https://winnie-static.imgix.net/default/daycare_8.png?w=140&h=140&dpr=3&fit=crop&auto=compress%2Cformat,Heritage Christian School,6200 Lou George Loop,Bessemer,location_on,,,,"Heritage Christian School is a license exempt child care center offering daycare programs located at 6200 Lou George Loop in Bessemer, AL. Contact this provider to inquire about prices and...",https://winnie.com/place/heritage-christian-school-bessemer#daycare-program,,,https://winnie.com/place/heritage-christian-school-bessemer#contact_form,"Bessemer, AL",,,
,2700 Ross Bridge Pkwy,Winnie,winnie (7).csv,https://winnie.com/place/the-heritage-church-site-5-bessemer,https://winnie-static.imgix.net/default/daycare_48.png?w=140&h=140&dpr=3&fit=crop&auto=compress%2Cformat,The Heritage Church Site 5,2700 Ross Bridge Pkwy,Bessemer,location_on,,,,"The Heritage Church Site 5 is a license exempt child care center offering daycare programs located at 2700 Ross Bridge Pkwy in Bessemer, AL. Contact this provider to inquire about prices and...",https://winnie.com/place/the-heritage-church-site-5-bessemer#daycare-program,,,https://winnie.com/place/the-heritage-church-site-5-bessemer#contact_form,"Bessemer, AL",,,
,1622 7th Ave N,Winnie,winnie (7).csv,https://winnie.com/place/new-life-interfaith-ministries-site-i-bessemer,https://winnie-static.imgix.net/default/daycare_48.png?w=140&h=140&dpr=3&fit=crop&auto=compress%2Cformat,New Life Interfaith Ministries  Site I,1622 7th Ave N,Bessemer,location_on,,,,"New Life Interfaith Ministries  Site I is a license exempt child care center offering daycare programs located at 1622 7th Ave N in Bessemer, AL. Contact this provider to inquire about prices and...",https://winnie.com/place/new-life-interfaith-ministries-site-i-bessemer#daycare-program,,,https://winnie.com/place/new-life-interfaith-ministries-site-i-bessemer#contact_form,"Bessemer, AL",,,
